<?xml version="1.0" encoding="UTF-8"?>
<osm version="0.6" generator="Overpass API">

  <node id="79250977" lat="39.9012089" lon="116.4786434">
    <tag k="name" v="北京东"/>
    <tag k="name:en" v="Beijing East"/>
    <tag k="public_transport" v="stop_position"/>
    <tag k="railway" v="station"/>
  </node>
  <node id="124205138" lat="39.8469617" lon="116.2826365">
    <tag k="name" v="丰台"/>
    <tag k="railway" v="station"/>
  </node>
  <node id="245134491" lat="39.9915734" lon="116.3317240">
    <tag k="name" v="五道口"/>
    <tag k="name:en" v="Wudaokou"/>
    <tag k="name:zh" v="五道口"/>
    <tag k="public_transport" v="stop_position"/>
    <tag k="railway" v="station"/>
    <tag k="subway" v="yes"/>
  </node>
  <node id="245134532" lat="40.0503470" lon="116.3010598">
    <tag k="name" v="西二旗"/>
    <tag k="name:en" v="Xi'erqi"/>
    <tag k="name:zh" v="西二旗"/>
    <tag k="public_transport" v="stop_position"/>
    <tag k="railway" v="station"/>
    <tag k="subway" v="yes"/>
  </node>
  <node id="245143068" lat="39.9567995" lon="116.4265959">
    <tag k="name" v="柳芳"/>
    <tag k="name:en" v="LIUFANG"/>
    <tag k="name:zh" v="柳芳"/>
    <tag k="public_transport" v="stop_position"/>
    <tag k="railway" v="station"/>
    <tag k="subway" v="yes"/>
  </node>
  <node id="245154331" lat="39.9762621" lon="116.4296755">
    <tag k="name" v="芍药居"/>
    <tag k="name:en" v="Shaoyaoju"/>
    <tag k="name:zh" v="芍药居"/>
    <tag k="public_transport" v="stop_position"/>
    <tag k="railway" v="station"/>
    <tag k="subway" v="yes"/>
  </node>
  <node id="245154338" lat="39.9669836" lon="116.4256087">
    <tag k="name" v="光熙门"/>
    <tag k="name:en" v="Guangximen"/>
    <tag k="name:zh" v="光熙门"/>
    <tag k="public_transport" v="stop_position"/>
    <tag k="railway" v="station"/>
    <tag k="subway" v="yes"/>
  </node>
  <node id="262780850" lat="39.9936105" lon="116.4410997">
    <tag k="name" v="望京西"/>
    <tag k="name:en" v="Wangjing West"/>
    <tag k="name:zh" v="望京西"/>
    <tag k="public_transport" v="stop_position"/>
    <tag k="railway" v="station"/>
    <tag k="subway" v="yes"/>
  </node>
  <node id="264602869" lat="39.9416225" lon="116.4285694">
    <tag k="name" v="东直门"/>
    <tag k="name:en" v="Dongzhimen"/>
    <tag k="name:zh" v="东直门"/>
    <tag k="public_transport" v="stop_position"/>
    <tag k="railway" v="station"/>
    <tag k="subway" v="yes"/>
  </node>
  <node id="265711187" lat="39.9652740" lon="116.3390282">
    <tag k="name" v="大钟寺"/>
    <tag k="name:en" v="Dazhongsi"/>
    <tag k="name:zh" v="大钟寺"/>
    <tag k="public_transport" v="stop_position"/>
    <tag k="railway" v="station"/>
    <tag k="subway" v="yes"/>
  </node>
  <node id="265711193" lat="39.9751524" lon="116.3339020">
    <tag k="name" v="知春路"/>
    <tag k="name:en" v="Zhichunlu"/>
    <tag k="name:zh" v="知春路"/>
    <tag k="public_transport" v="stop_position"/>
    <tag k="railway" v="station"/>
    <tag k="subway" v="yes"/>
  </node>
  <node id="265838775" lat="40.0695495" lon="116.3131919">
    <tag k="name" v="龙泽"/>
    <tag k="name:en" v="LONGZE"/>
    <tag k="name:ru" v="Лонгзе"/>
    <tag k="name:zh" v="龙泽"/>
    <tag k="public_transport" v="stop_position"/>
    <tag k="railway" v="station"/>
    <tag k="subway" v="yes"/>
  </node>
  <node id="265839508" lat="40.0691493" lon="116.3545723">
    <tag k="name" v="霍营"/>
    <tag k="name:en" v="HUOYING"/>
    <tag k="name:ru" v="Хуоин"/>
    <tag k="name:zh" v="霍营"/>
    <tag k="public_transport" v="stop_position"/>
    <tag k="railway" v="station"/>
    <tag k="subway" v="yes"/>
  </node>
  <node id="265839520" lat="40.0514059" lon="116.4050304">
    <tag k="name" v="立水桥"/>
    <tag k="name:en" v="Lishuiqiao"/>
    <tag k="name:zh" v="立水桥"/>
    <tag k="public_transport" v="stop_position"/>
    <tag k="railway" v="station"/>
    <tag k="subway" v="yes"/>
  </node>
  <node id="269996666" lat="39.9016416" lon="116.4209908">
    <tag k="name" v="北京"/>
    <tag k="name:en" v="Beijing"/>
    <tag k="railway" v="station"/>
  </node>
  <node id="270146375" lat="39.7400952" lon="116.1514213">
    <tag k="name" v="良乡"/>
    <tag k="railway" v="station"/>
  </node>
  <node id="272425524" lat="40.0317701" lon="116.3141025">
    <tag k="name" v="上地"/>
    <tag k="name:en" v="Shangdi"/>
    <tag k="name:zh" v="上地"/>
    <tag k="public_transport" v="stop_position"/>
    <tag k="railway" v="station"/>
    <tag k="subway" v="yes"/>
  </node>
  <node id="273094246" lat="39.6650007" lon="116.4016345">
    <tag k="name" v="魏善庄"/>
    <tag k="railway" v="station"/>
  </node>
  <node id="273109857" lat="39.7882239" lon="116.2688478">
    <tag k="name" v="黄土坡"/>
    <tag k="railway" v="station"/>
  </node>
  <node id="273113548" lat="39.8803609" lon="116.3381250">
    <tag k="name" v="广安门站"/>
    <tag k="railway" v="station"/>
  </node>
  <node id="273418256" lat="39.8992099" lon="116.5646919">
    <tag k="name" v="双桥站"/>
    <tag k="railway" v="station"/>
  </node>
  <node id="274702786" lat="40.0416022" lon="116.4282789">
    <tag k="name" v="北苑"/>
    <tag k="name:en" v="Beiyuan"/>
    <tag k="name:zh" v="北苑"/>
    <tag k="public_transport" v="stop_position"/>
    <tag k="railway" v="station"/>
    <tag k="subway" v="yes"/>
  </node>
  <node id="277606098" lat="39.9500746" lon="116.1139365">
    <tag k="name" v="三家店"/>
    <tag k="railway" v="station"/>
  </node>
  <node id="288742152" lat="39.8118022" lon="116.5962708">
    <tag k="name" v="亦庄"/>
    <tag k="name:en" v="Yizhuang"/>
    <tag k="name:zh" v="亦庄"/>
    <tag k="name:zh_pinyin" v="Yìzhuāng"/>
    <tag k="public_transport" v="stop_position"/>
    <tag k="railway" v="station"/>
    <tag k="train" v="yes"/>
  </node>
  <node id="288858553" lat="39.9627683" lon="116.2457044">
    <tag k="railway" v="station"/>
  </node>
  <node id="290598399" lat="39.9473880" lon="116.3670499">
    <tag k="name" v="积水潭"/>
    <tag k="name:en" v="Jishuitan"/>
    <tag k="name:zh" v="积水潭"/>
    <tag k="public_transport" v="stop_position"/>
    <tag k="railway" v="station"/>
    <tag k="subway" v="yes"/>
  </node>
  <node id="294122490" lat="39.9479860" lon="116.4115386">
    <tag k="name" v="雍和宫"/>
    <tag k="name:en" v="Yonghegong Lama Temple"/>
    <tag k="name:zh" v="雍和宫"/>
    <tag k="public_transport" v="stop_position"/>
    <tag k="railway" v="station"/>
    <tag k="subway" v="yes"/>
  </node>
  <node id="294123182" lat="39.9397065" lon="116.4277718">
    <tag k="name" v="东直门"/>
    <tag k="name:en" v="Dongzhimen"/>
    <tag k="name:zh" v="东直门"/>
    <tag k="public_transport" v="stop_position"/>
    <tag k="railway" v="station"/>
    <tag k="subway" v="yes"/>
  </node>
  <node id="294123681" lat="40.0404977" lon="116.4083285">
    <tag k="name" v="立水桥南"/>
    <tag k="name:en" v="LISHUIQIAO South"/>
    <tag k="name:ru" v="Лишуйциао-Южный"/>
    <tag k="name:zh" v="立水桥南"/>
    <tag k="public_transport" v="stop_position"/>
    <tag k="railway" v="station"/>
    <tag k="subway" v="yes"/>
  </node>
  <node id="302268958" lat="40.0517425" lon="116.6098512">
    <tag k="name" v="3号航站楼"/>
    <tag k="name:en" v="Terminal 3"/>
    <tag k="name:zh" v="3号航站楼"/>
    <tag k="public_transport" v="stop_position"/>
    <tag k="railway" v="station"/>
    <tag k="subway" v="yes"/>
  </node>
  <node id="321718678" lat="39.9050569" lon="116.6128525">
    <tag k="name" v="八里桥"/>
    <tag k="name:en" v="Baliqiao"/>
    <tag k="name:zh" v="八里桥"/>
    <tag k="public_transport" v="stop_position"/>
    <tag k="railway" v="station"/>
    <tag k="subway" v="yes"/>
  </node>
  <node id="321939663" lat="39.9329883" lon="116.2718734">
    <tag k="name" v="五路"/>
    <tag k="railway" v="station"/>
  </node>
  <node id="322003736" lat="39.8922731" lon="116.6407497">
    <tag k="name" v="果园"/>
    <tag k="name:en" v="Guoyuan"/>
    <tag k="name:zh" v="果园"/>
    <tag k="public_transport" v="stop_position"/>
    <tag k="railway" v="station"/>
    <tag k="subway" v="yes"/>
  </node>
  <node id="323081594" lat="39.9027971" lon="116.6313562">
    <tag k="name" v="通州北苑"/>
    <tag k="name:en" v="Tongzhou Beiyuan"/>
    <tag k="name:zh" v="通州北苑"/>
    <tag k="public_transport" v="stop_position"/>
    <tag k="railway" v="station"/>
    <tag k="subway" v="yes"/>
  </node>
  <node id="323144869" lat="39.9091486" lon="116.5709239">
    <tag k="name" v="双桥"/>
    <tag k="name:en" v="Shuangqiao"/>
    <tag k="name:zh" v="双桥"/>
    <tag k="public_transport" v="stop_position"/>
    <tag k="railway" v="station"/>
    <tag k="subway" v="yes"/>
  </node>
  <node id="323144876" lat="39.9080547" lon="116.5488712">
    <tag k="name" v="传媒大学"/>
    <tag k="name:en" v="Communication University of China"/>
    <tag k="name:zh" v="传媒大学"/>
    <tag k="public_transport" v="stop_position"/>
    <tag k="railway" v="station"/>
    <tag k="subway" v="yes"/>
  </node>
  <node id="323144883" lat="39.9083217" lon="116.5254528">
    <tag k="name" v="高碑店"/>
    <tag k="name:en" v="Gaobeidian"/>
    <tag k="name:zh" v="高碑店"/>
    <tag k="public_transport" v="stop_position"/>
    <tag k="railway" v="station"/>
    <tag k="subway" v="yes"/>
  </node>
  <node id="323145029" lat="39.9072151" lon="116.5093601">
    <tag k="name" v="四惠东"/>
    <tag k="name:en" v="Sihui East"/>
    <tag k="name:zh" v="四惠东"/>
    <tag k="public_transport" v="stop_position"/>
    <tag k="railway" v="station"/>
    <tag k="subway" v="yes"/>
  </node>
  <node id="339084600" lat="39.9059342" lon="116.3851643">
    <tag k="name" v="天安门西"/>
    <tag k="name:de" v="Tian'anmen West"/>
    <tag k="name:en" v="Tian'anmen West"/>
    <tag k="name:zh" v="天安门西"/>
    <tag k="name:zh_pinyin" v="Tiān'ānmén Xī Zhàn"/>
    <tag k="public_transport" v="stop_position"/>
    <tag k="railway" v="station"/>
    <tag k="subway" v="yes"/>
  </node>
  <node id="339084700" lat="39.9062793" lon="116.3949165">
    <tag k="name" v="天安门东"/>
    <tag k="name:de" v="Tian'anmen Ost"/>
    <tag k="name:en" v="Tian'anmen East"/>
    <tag k="name:zh" v="天安门东"/>
    <tag k="name:zh_pinyin" v="Tiān'ānmén Dōng Zhàn"/>
    <tag k="public_transport" v="stop_position"/>
    <tag k="railway" v="station"/>
    <tag k="subway" v="yes"/>
  </node>
  <node id="339084979" lat="39.9065726" lon="116.4052132">
    <tag k="name" v="王府井"/>
    <tag k="name:en" v="Wangfujing"/>
    <tag k="name:zh" v="王府井"/>
    <tag k="public_transport" v="stop_position"/>
    <tag k="railway" v="station"/>
    <tag k="subway" v="yes"/>
  </node>
  <node id="339085117" lat="39.9068138" lon="116.4139911">
    <tag k="name" v="东单"/>
    <tag k="name:en" v="Dongdan"/>
    <tag k="name:zh" v="东单"/>
    <tag k="public_transport" v="stop_position"/>
    <tag k="railway" v="station"/>
    <tag k="subway" v="yes"/>
  </node>
  <node id="339085190" lat="39.9071023" lon="116.4287228">
    <tag k="name" v="建国门"/>
    <tag k="name:en" v="Jianguomen"/>
    <tag k="name:zh" v="建国门"/>
    <tag k="public_transport" v="stop_position"/>
    <tag k="railway" v="station"/>
    <tag k="subway" v="yes"/>
  </node>
  <node id="339085194" lat="39.9070260" lon="116.4441457">
    <tag k="name" v="永安里"/>
    <tag k="name:en" v="Yonganli"/>
    <tag k="name:zh" v="永安里"/>
    <tag k="public_transport" v="stop_position"/>
    <tag k="railway" v="station"/>
    <tag k="subway" v="yes"/>
  </node>
  <node id="339085195" lat="39.9069667" lon="116.4532958">
    <tag k="name" v="国贸"/>
    <tag k="name:en" v="Guomao"/>
    <tag k="name:zh" v="国贸"/>
    <tag k="public_transport" v="stop_position"/>
    <tag k="railway" v="station"/>
    <tag k="subway" v="yes"/>
  </node>
  <node id="339085203" lat="39.9068755" lon="116.4695945">
    <tag k="name" v="大望路"/>
    <tag k="name:en" v="Dawanglu"/>
    <tag k="name:zh" v="大望路"/>
    <tag k="public_transport" v="stop_position"/>
    <tag k="railway" v="station"/>
    <tag k="subway" v="yes"/>
  </node>
  <node id="339085253" lat="39.9075921" lon="116.4893730">
    <tag k="name" v="四惠"/>
    <tag k="name:zh" v="四惠"/>
    <tag k="name:zh_pinyin" v="Sihui"/>
    <tag k="public_transport" v="stop_position"/>
    <tag k="railway" v="station"/>
    <tag k="subway" v="yes"/>
  </node>
  <node id="339085267" lat="39.9073848" lon="116.5093599">
    <tag k="name" v="四惠东"/>
    <tag k="name:en" v="Sihui East"/>
    <tag k="name:zh" v="四惠东"/>
    <tag k="public_transport" v="stop_position"/>
    <tag k="railway" v="station"/>
    <tag k="subway" v="yes"/>
  </node>
  <node id="339085362" lat="39.9080631" lon="116.5932072">
    <tag k="name" v="管庄"/>
    <tag k="name:en" v="Guanzhuang"/>
    <tag k="name:zh" v="管庄"/>
    <tag k="public_transport" v="stop_position"/>
    <tag k="railway" v="station"/>
    <tag k="subway" v="yes"/>
  </node>
  <node id="339085524" lat="39.8707311" lon="116.6802718">
    <tag k="name" v="土桥"/>
    <tag k="name:en" v="Tuqiao"/>
    <tag k="name:zh" v="土桥"/>
    <tag k="public_transport" v="stop_position"/>
    <tag k="railway" v="station"/>
    <tag k="subway" v="yes"/>
  </node>
  <node id="339085722" lat="39.9074629" lon="116.4893673">
    <tag k="name" v="四惠"/>
    <tag k="name:zh" v="四惠"/>
    <tag k="name:zh_pinyin" v="Sihui"/>
    <tag k="public_transport" v="stop_position"/>
    <tag k="railway" v="station"/>
    <tag k="subway" v="yes"/>
  </node>
  <node id="339085844" lat="39.9057462" lon="116.3676008">
    <tag k="name" v="西单"/>
    <tag k="name:en" v="Xidan"/>
    <tag k="name:zh" v="西单"/>
    <tag k="public_transport" v="stop_position"/>
    <tag k="railway" v="station"/>
    <tag k="subway" v="yes"/>
  </node>
  <node id="339086167" lat="39.9057890" lon="116.3513184">
    <tag k="name" v="复兴门"/>
    <tag k="name:en" v="Fuxingmen"/>
    <tag k="name:zh" v="复兴门"/>
    <tag k="public_transport" v="stop_position"/>
    <tag k="railway" v="station"/>
    <tag k="subway" v="yes"/>
  </node>
  <node id="339086220" lat="39.9058492" lon="116.3465639">
    <tag k="name" v="南礼士路"/>
    <tag k="name:en" v="Nanlishilu"/>
    <tag k="name:zh" v="南礼士路"/>
    <tag k="railway" v="station"/>
    <tag k="subway" v="yes"/>
  </node>
  <node id="339086329" lat="39.9061147" lon="116.3178724">
    <tag k="name" v="军事博物馆"/>
    <tag k="name:de" v="Militärmuseum"/>
    <tag k="name:en" v="Military Museum"/>
    <tag k="name:zh" v="军事博物馆"/>
    <tag k="name:zh_pinyin" v="Jūnshì Bówùguǎn"/>
    <tag k="public_transport" v="stop_position"/>
    <tag k="railway" v="station"/>
    <tag k="subway" v="yes"/>
  </node>
  <node id="339086364" lat="39.9060636" lon="116.3315030">
    <tag k="name" v="木樨地"/>
    <tag k="name:en" v="Muxidi"/>
    <tag k="name:zh" v="木樨地"/>
    <tag k="public_transport" v="stop_position"/>
    <tag k="railway" v="station"/>
    <tag k="subway" v="yes"/>
  </node>
  <node id="339086386" lat="39.9061679" lon="116.3041387">
    <tag k="name" v="公主坟"/>
    <tag k="name:en" v="Gongzhufen"/>
    <tag k="name:zh" v="公主坟"/>
    <tag k="public_transport" v="stop_position"/>
    <tag k="railway" v="station"/>
    <tag k="subway" v="yes"/>
  </node>
  <node id="339086745" lat="39.9062095" lon="116.2887702">
    <tag k="name" v="万寿路"/>
    <tag k="name:en" v="Wanshoulu"/>
    <tag k="name:zh" v="万寿路"/>
    <tag k="public_transport" v="stop_position"/>
    <tag k="railway" v="station"/>
    <tag k="subway" v="yes"/>
  </node>
  <node id="339087731" lat="39.9391442" lon="116.3492790">
    <tag k="name" v="西直门"/>
    <tag k="name:en" v="Xizhimen"/>
    <tag k="name:zh" v="西直门"/>
    <tag k="public_transport" v="stop_position"/>
    <tag k="railway" v="station"/>
    <tag k="subway" v="yes"/>
  </node>
  <node id="339088299" lat="39.8996160" lon="116.4106985">
    <tag k="name" v="崇文门"/>
    <tag k="name:en" v="Chongwenmen"/>
    <tag k="name:zh" v="崇文门"/>
    <tag k="public_transport" v="stop_position"/>
    <tag k="railway" v="station"/>
    <tag k="subway" v="yes"/>
  </node>
  <node id="339088654" lat="39.9477287" lon="116.4020670">
    <tag k="name" v="安定门"/>
    <tag k="name:en" v="Andingmen"/>
    <tag k="name:zh" v="安定门"/>
    <tag k="public_transport" v="stop_position"/>
    <tag k="railway" v="station"/>
    <tag k="subway" v="yes"/>
  </node>
  <node id="339088788" lat="39.9476038" lon="116.3879152">
    <tag k="name" v="鼓楼大街"/>
    <tag k="name:en" v="Guloudajie"/>
    <tag k="name:zh" v="鼓楼大街"/>
    <tag k="name:zh_pinyin" v="Gŭlóudàjiē"/>
    <tag k="public_transport" v="stop_position"/>
    <tag k="railway" v="station"/>
    <tag k="subway" v="yes"/>
  </node>
  <node id="339089288" lat="39.9322848" lon="116.4280954">
    <tag k="name" v="东四十条"/>
    <tag k="name:en" v="Dongsi Shitiao"/>
    <tag k="name:zh" v="东四十条"/>
    <tag k="public_transport" v="stop_position"/>
    <tag k="railway" v="station"/>
    <tag k="subway" v="yes"/>
  </node>
  <node id="339089289" lat="39.9230493" lon="116.4284953">
    <tag k="name" v="朝阳门"/>
    <tag k="name:en" v="Chaoyangmen"/>
    <tag k="name:zh" v="朝阳门"/>
    <tag k="public_transport" v="stop_position"/>
    <tag k="railway" v="station"/>
    <tag k="subway" v="yes"/>
  </node>
  <node id="339089391" lat="39.9071760" lon="116.4296732">
    <tag k="name" v="建国门"/>
    <tag k="name:en" v="Jianguomen"/>
    <tag k="name:zh" v="建国门"/>
    <tag k="public_transport" v="stop_position"/>
    <tag k="railway" v="station"/>
    <tag k="subway" v="yes"/>
  </node>
  <node id="339089407" lat="39.9035383" lon="116.4209558">
    <tag k="name" v="北京站"/>
    <tag k="name:de" v="Bahnhof Peking"/>
    <tag k="name:en" v="Beijing Railway Station"/>
    <tag k="name:hu" v="Peking Főpályaudvar"/>
    <tag k="name:ja" v="北京駅"/>
    <tag k="name:ru" v="Пекинский вокзал"/>
    <tag k="name:zh" v="北京站"/>
    <tag k="railway" v="station"/>
    <tag k="subway" v="yes"/>
  </node>
  <node id="339089806" lat="39.8986445" lon="116.3779968">
    <tag k="name" v="和平门"/>
    <tag k="name:en" v="Hepingmen"/>
    <tag k="name:zh" v="和平门"/>
    <tag k="public_transport" v="stop_position"/>
    <tag k="railway" v="station"/>
    <tag k="subway" v="yes"/>
  </node>
  <node id="339089807" lat="39.8983902" lon="116.3679294">
    <tag k="name" v="宣武门"/>
    <tag k="name:en" v="Xuanwumen"/>
    <tag k="name:zh" v="宣武门"/>
    <tag k="public_transport" v="stop_position"/>
    <tag k="railway" v="station"/>
    <tag k="subway" v="yes"/>
  </node>
  <node id="339089932" lat="39.8980033" lon="116.3572162">
    <tag k="name" v="长椿街"/>
    <tag k="name:en" v="Changchunjie"/>
    <tag k="name:zh" v="长椿街"/>
    <tag k="public_transport" v="stop_position"/>
    <tag k="railway" v="station"/>
    <tag k="subway" v="yes"/>
  </node>
  <node id="339090100" lat="39.9058346" lon="116.3504100">
    <tag k="name" v="复兴门"/>
    <tag k="name:en" v="Fuxingmen"/>
    <tag k="name:zh" v="复兴门"/>
    <tag k="public_transport" v="stop_position"/>
    <tag k="railway" v="station"/>
    <tag k="subway" v="yes"/>
  </node>
  <node id="339090107" lat="39.9223101" lon="116.3499722">
    <tag k="name" v="阜成门"/>
    <tag k="name:en" v="Fuchengmen"/>
    <tag k="name:zh" v="阜成门"/>
    <tag k="public_transport" v="stop_position"/>
    <tag k="railway" v="station"/>
    <tag k="subway" v="yes"/>
  </node>
  <node id="339090184" lat="39.9310072" lon="116.3495663">
    <tag k="name" v="车公庄"/>
    <tag k="name:en" v="Chegongzhuang"/>
    <tag k="name:zh" v="车公庄"/>
    <tag k="public_transport" v="stop_position"/>
    <tag k="railway" v="station"/>
    <tag k="subway" v="yes"/>
  </node>
  <node id="339090514" lat="39.9061554" lon="116.2296358">
    <tag k="name" v="八宝山"/>
    <tag k="name:en" v="Babaoshan"/>
    <tag k="name:zh" v="八宝山"/>
    <tag k="public_transport" v="stop_position"/>
    <tag k="railway" v="station"/>
    <tag k="subway" v="yes"/>
  </node>
  <node id="339091811" lat="39.9061823" lon="116.2064817">
    <tag k="name" v="八角游乐园"/>
    <tag k="name:en" v="Bajiao Amusement Park"/>
    <tag k="name:zh" v="八角游乐园"/>
    <tag k="public_transport" v="stop_position"/>
    <tag k="railway" v="station"/>
    <tag k="subway" v="yes"/>
  </node>
  <node id="339091847" lat="39.9061292" lon="116.1842969">
    <tag k="name" v="古城"/>
    <tag k="name:en" v="Gucheng"/>
    <tag k="name:zh" v="古城"/>
    <tag k="public_transport" v="stop_position"/>
    <tag k="railway" v="station"/>
    <tag k="subway" v="yes"/>
  </node>
  <node id="339091881" lat="39.9248293" lon="116.1719297">
    <tag k="name" v="苹果园"/>
    <tag k="name:en" v="Pingguoyuan"/>
    <tag k="name:zh" v="苹果园"/>
    <tag k="public_transport" v="stop_position"/>
    <tag k="railway" v="station"/>
    <tag k="subway" v="yes"/>
  </node>
  <node id="339092170" lat="39.9061755" lon="116.2468174">
    <tag k="name" v="玉泉路"/>
    <tag k="name:en" v="Yuquanlu"/>
    <tag k="name:zh" v="玉泉路"/>
    <tag k="public_transport" v="stop_position"/>
    <tag k="railway" v="station"/>
    <tag k="subway" v="yes"/>
  </node>
  <node id="339094371" lat="39.9469736" lon="116.4102421">
    <tag k="name" v="雍和宫"/>
    <tag k="name:en" v="Yonghegong Lama Temple"/>
    <tag k="name:zh" v="雍和宫"/>
    <tag k="public_transport" v="stop_position"/>
    <tag k="railway" v="station"/>
    <tag k="subway" v="yes"/>
  </node>
  <node id="339094381" lat="39.9154127" lon="116.4119212">
    <tag k="name" v="灯市口"/>
    <tag k="name:en" v="Dengshikou"/>
    <tag k="name:zh" v="灯市口"/>
    <tag k="public_transport" v="stop_position"/>
    <tag k="railway" v="station"/>
    <tag k="subway" v="yes"/>
  </node>
  <node id="339095053" lat="39.9573957" lon="116.4123242">
    <tag k="name" v="和平里北街"/>
    <tag k="name:en" v="Hepinglibeijie"/>
    <tag k="name:zh" v="和平里北街"/>
    <tag k="public_transport" v="stop_position"/>
    <tag k="railway" v="station"/>
    <tag k="subway" v="yes"/>
  </node>
  <node id="339097239" lat="39.9993240" lon="116.3867510">
    <tag k="name" v="奥林匹克公园"/>
    <tag k="name:en" v="Olympic Green"/>
    <tag k="name:zh" v="奥林匹克公园"/>
    <tag k="public_transport" v="stop_position"/>
    <tag k="railway" v="station"/>
    <tag k="subway" v="yes"/>
  </node>
  <node id="339097485" lat="40.0091958" lon="116.3862915">
    <tag k="name" v="森林公园南门"/>
    <tag k="name:en" v="South Gate of Forest Park"/>
    <tag k="name:zh" v="森林公园南门"/>
    <tag k="public_transport" v="stop_position"/>
    <tag k="railway" v="station"/>
    <tag k="subway" v="yes"/>
  </node>
  <node id="339098344" lat="39.9841326" lon="116.3874758">
    <tag k="name" v="奥体中心"/>
    <tag k="name:en" v="Olympic Sports Center"/>
    <tag k="name:zh" v="奥体中心"/>
    <tag k="public_transport" v="stop_position"/>
    <tag k="railway" v="station"/>
    <tag k="subway" v="yes"/>
  </node>
  <node id="339098540" lat="39.9763986" lon="116.3878002">
    <tag k="name" v="北土城"/>
    <tag k="name:en" v="Beitucheng"/>
    <tag k="name:zh" v="北土城"/>
    <tag k="public_transport" v="stop_position"/>
    <tag k="railway" v="station"/>
    <tag k="subway" v="yes"/>
  </node>
  <node id="339099394" lat="39.9219942" lon="116.4551638">
    <tag k="name" v="呼家楼"/>
    <tag k="name:en" v="Hujialou"/>
    <tag k="name:zh" v="呼家楼"/>
    <tag k="public_transport" v="stop_position"/>
    <tag k="railway" v="station"/>
  </node>
  <node id="339099503" lat="39.9078777" lon="116.4551072">
    <tag k="name" v="国贸"/>
    <tag k="name:en" v="Guomao"/>
    <tag k="name:zh" v="国贸"/>
    <tag k="public_transport" v="stop_position"/>
    <tag k="railway" v="station"/>
    <tag k="subway" v="yes"/>
  </node>
  <node id="339102778" lat="39.9598408" lon="116.4512757">
    <tag k="name" v="三元桥"/>
    <tag k="name:en" v="Sanyuanqiao"/>
    <tag k="name:zh" v="三元桥"/>
    <tag k="public_transport" v="stop_position"/>
    <tag k="railway" v="station"/>
  </node>
  <node id="339284620" lat="39.8944776" lon="116.3141455"/>
  <node id="339284621" lat="39.8944819" lon="116.3160883"/>
  <node id="339284622" lat="39.8925307" lon="116.3160826"/>
  <node id="340257439" lat="39.9231355" lon="116.4117463">
    <tag k="name" v="东四"/>
    <tag k="name:en" v="DONGSI"/>
    <tag k="name:zh" v="东四"/>
    <tag k="public_transport" v="stop_position"/>
    <tag k="railway" v="station"/>
    <tag k="subway" v="yes"/>
  </node>
  <node id="340258011" lat="39.9322924" lon="116.4113888">
    <tag k="name" v="张自忠路"/>
    <tag k="name:en" v="Zhangzizhonglu"/>
    <tag k="name:zh" v="张自忠路"/>
    <tag k="public_transport" v="stop_position"/>
    <tag k="railway" v="station"/>
    <tag k="subway" v="yes"/>
  </node>
  <node id="340258199" lat="39.9394093" lon="116.4109847">
    <tag k="name" v="北新桥"/>
    <tag k="name:en" v="Beixinqiao"/>
    <tag k="name:zh" v="北新桥"/>
    <tag k="public_transport" v="stop_position"/>
    <tag k="railway" v="station"/>
    <tag k="subway" v="yes"/>
  </node>
  <node id="340258817" lat="39.9068739" lon="116.4124215">
    <tag k="name" v="东单"/>
    <tag k="name:en" v="Dongdan"/>
    <tag k="name:zh" v="东单"/>
    <tag k="public_transport" v="stop_position"/>
    <tag k="railway" v="station"/>
    <tag k="subway" v="yes"/>
  </node>
  <node id="340260004" lat="39.8994918" lon="116.4124400">
    <tag k="name" v="崇文门"/>
    <tag k="name:en" v="Chongwenmen"/>
    <tag k="name:zh" v="崇文门"/>
    <tag k="public_transport" v="stop_position"/>
    <tag k="railway" v="station"/>
    <tag k="subway" v="yes"/>
  </node>
  <node id="340260038" lat="39.8917004" lon="116.4127135">
    <tag k="name" v="磁器口"/>
    <tag k="name:en" v="Ciqikou"/>
    <tag k="name:zh" v="磁器口"/>
    <tag k="public_transport" v="stop_position"/>
    <tag k="railway" v="station"/>
    <tag k="subway" v="yes"/>
  </node>
  <node id="340260096" lat="39.8822596" lon="116.4146462">
    <tag k="name" v="天坛东门"/>
    <tag k="name:en" v="Tiantandongmen"/>
    <tag k="name:zh" v="天坛东门"/>
    <tag k="public_transport" v="stop_position"/>
    <tag k="railway" v="station"/>
    <tag k="subway" v="yes"/>
  </node>
  <node id="340260160" lat="39.8641249" lon="116.4155268">
    <tag k="name" v="蒲黄榆"/>
    <tag k="name:en" v="Puhuangyu"/>
    <tag k="name:zh" v="蒲黄榆"/>
    <tag k="public_transport" v="stop_position"/>
    <tag k="railway" v="station"/>
    <tag k="subway" v="yes"/>
  </node>
  <node id="340260308" lat="39.8559513" lon="116.4157106">
    <tag k="name" v="刘家窑"/>
    <tag k="name:en" v="Liujiayao"/>
    <tag k="name:zh" v="刘家窑"/>
    <tag k="public_transport" v="stop_position"/>
    <tag k="railway" v="station"/>
    <tag k="subway" v="yes"/>
  </node>
  <node id="340260427" lat="39.8443950" lon="116.4220122">
    <tag k="name" v="宋家庄"/>
    <tag k="name:en" v="Songjiazhuang"/>
    <tag k="name:zh" v="宋家庄"/>
    <tag k="name:zh_pinyin" v="Sòngjiāzhuāng"/>
    <tag k="public_transport" v="stop_position"/>
    <tag k="railway" v="station"/>
    <tag k="subway" v="yes"/>
  </node>
  <node id="340261588" lat="39.9666812" lon="116.4118857">
    <tag k="name" v="和平西桥"/>
    <tag k="name:en" v="Hepingxiqiao"/>
    <tag k="name:zh" v="和平西桥"/>
    <tag k="public_transport" v="stop_position"/>
    <tag k="railway" v="station"/>
    <tag k="subway" v="yes"/>
  </node>
  <node id="340261667" lat="39.9759590" lon="116.4114257">
    <tag k="name" v="惠新西街南口"/>
    <tag k="name:en" v="Huixinxijie Nankou"/>
    <tag k="name:zh" v="惠新西街南口"/>
    <tag k="public_transport" v="stop_position"/>
    <tag k="railway" v="station"/>
    <tag k="subway" v="yes"/>
  </node>
  <node id="340261743" lat="39.9861785" lon="116.4109272">
    <tag k="name" v="惠新西街北口"/>
    <tag k="name:en" v="Huixinxijie Beikou"/>
    <tag k="name:zh" v="惠新西街北口"/>
    <tag k="public_transport" v="stop_position"/>
    <tag k="railway" v="station"/>
    <tag k="subway" v="yes"/>
  </node>
  <node id="340262247" lat="40.0289799" lon="116.4119197">
    <tag k="name" v="北苑路北"/>
    <tag k="public_transport" v="stop_position"/>
    <tag k="railway" v="station"/>
  </node>
  <node id="340262425" lat="40.0516265" lon="116.4061753">
    <tag k="name" v="立水桥"/>
    <tag k="name:en" v="Lishuiqiao"/>
    <tag k="name:zh" v="立水桥"/>
    <tag k="public_transport" v="stop_position"/>
    <tag k="railway" v="station"/>
    <tag k="subway" v="yes"/>
  </node>
  <node id="340262426" lat="40.0651272" lon="116.4065461">
    <tag k="name" v="天通苑南"/>
    <tag k="name:en" v="Tiantongyuan South"/>
    <tag k="name:zh" v="天通苑南"/>
    <tag k="name:zh_pinyin" v="tiāntōngyuànnán"/>
    <tag k="public_transport" v="stop_position"/>
    <tag k="railway" v="station"/>
    <tag k="subway" v="yes"/>
  </node>
  <node id="340262455" lat="40.0737767" lon="116.4066667">
    <tag k="name" v="天通苑"/>
    <tag k="name:en" v="TIANTONGYUAN"/>
    <tag k="name:zh" v="天通苑"/>
    <tag k="name:zh_pinyin" v="tiāntōngyuàn"/>
    <tag k="public_transport" v="stop_position"/>
    <tag k="railway" v="station"/>
    <tag k="subway" v="yes"/>
  </node>
  <node id="340262543" lat="40.0820901" lon="116.4067882">
    <tag k="name" v="天通苑北"/>
    <tag k="name:en" v="Tiantongyuan North"/>
    <tag k="name:zh" v="天通苑北"/>
    <tag k="public_transport" v="stop_position"/>
    <tag k="railway" v="station"/>
    <tag k="subway" v="yes"/>
  </node>
  <node id="340408841" lat="39.9756139" lon="116.3879627">
    <tag k="name" v="北土城"/>
    <tag k="name:en" v="Beitucheng"/>
    <tag k="name:zh" v="北土城"/>
    <tag k="public_transport" v="stop_position"/>
    <tag k="railway" v="station"/>
    <tag k="subway" v="yes"/>
  </node>
  <node id="340408842" lat="39.9757878" lon="116.3993584">
    <tag k="name" v="安贞门"/>
    <tag k="name:en" v="Anzhenmen"/>
    <tag k="name:zh" v="安贞门"/>
    <tag k="public_transport" v="stop_position"/>
    <tag k="railway" v="station"/>
  </node>
  <node id="340409094" lat="39.9756583" lon="116.4112832">
    <tag k="name" v="惠新西街南口"/>
    <tag k="name:en" v="Huixinxijie Nankou"/>
    <tag k="name:zh" v="惠新西街南口"/>
    <tag k="public_transport" v="stop_position"/>
    <tag k="railway" v="station"/>
    <tag k="subway" v="yes"/>
  </node>
  <node id="340409219" lat="39.9756283" lon="116.4315897">
    <tag k="name" v="芍药居"/>
    <tag k="name:en" v="Shaoyaoju"/>
    <tag k="name:zh" v="芍药居"/>
    <tag k="public_transport" v="stop_position"/>
    <tag k="railway" v="station"/>
    <tag k="subway" v="yes"/>
  </node>
  <node id="340409286" lat="39.9712232" lon="116.4411157">
    <tag k="name" v="太阳宫"/>
    <tag k="name:en" v="Taiyanggong"/>
    <tag k="name:zh" v="太阳宫"/>
    <tag k="public_transport" v="stop_position"/>
    <tag k="railway" v="station"/>
  </node>
  <node id="340409366" lat="39.9481391" lon="116.4562051">
    <tag k="name" v="亮马桥"/>
    <tag k="name:en" v="Liangmaqiao"/>
    <tag k="name:zh" v="亮马桥"/>
    <tag k="public_transport" v="stop_position"/>
    <tag k="railway" v="station"/>
  </node>
  <node id="340409480" lat="39.9402483" lon="116.4561665">
    <tag k="name" v="农业展览馆"/>
    <tag k="name:en" v="Agricultural Exhibition Center"/>
    <tag k="name:zh" v="农业展览馆"/>
    <tag k="public_transport" v="stop_position"/>
    <tag k="railway" v="station"/>
  </node>
  <node id="340409693" lat="39.9323170" lon="116.4553264">
    <tag k="name" v="团结湖"/>
    <tag k="name:en" v="Tuanjiehu"/>
    <tag k="name:zh" v="团结湖"/>
    <tag k="public_transport" v="stop_position"/>
    <tag k="railway" v="station"/>
  </node>
  <node id="340409955" lat="39.9159527" lon="116.4552625">
    <tag k="name" v="金台夕照"/>
    <tag k="name:en" v="Jintaixizhao"/>
    <tag k="name:zh" v="金台夕照"/>
    <tag k="public_transport" v="stop_position"/>
    <tag k="railway" v="station"/>
  </node>
  <node id="340410051" lat="39.8921702" lon="116.4551332">
    <tag k="name" v="双井"/>
    <tag k="name:en" v="Shuangjing"/>
    <tag k="name:zh" v="双井"/>
    <tag k="public_transport" v="stop_position"/>
    <tag k="railway" v="station"/>
  </node>
  <node id="340410090" lat="39.8830759" lon="116.4549817">
    <tag k="name" v="劲松"/>
    <tag k="name:en" v="Jinsong"/>
    <tag k="name:zh" v="劲松"/>
    <tag k="public_transport" v="stop_position"/>
    <tag k="railway" v="station"/>
    <tag k="subway" v="yes"/>
  </node>
  <node id="340410434" lat="39.9750272" lon="116.3749350">
    <tag k="name" v="健德门"/>
    <tag k="name:en" v="Jiandemen"/>
    <tag k="name:zh" v="健德门"/>
    <tag k="public_transport" v="stop_position"/>
    <tag k="railway" v="station"/>
  </node>
  <node id="340410501" lat="39.9748430" lon="116.3630842">
    <tag k="name" v="牡丹园"/>
    <tag k="name:en" v="Mudanyuan"/>
    <tag k="name:zh" v="牡丹园"/>
    <tag k="public_transport" v="stop_position"/>
    <tag k="railway" v="station"/>
  </node>
  <node id="340410659" lat="39.9748033" lon="116.3477566">
    <tag k="name" v="西土城"/>
    <tag k="name:en" v="Xitucheng"/>
    <tag k="name:zh" v="西土城"/>
    <tag k="public_transport" v="stop_position"/>
    <tag k="railway" v="station"/>
  </node>
  <node id="340410668" lat="39.9750237" lon="116.3357849">
    <tag k="name" v="知春路"/>
    <tag k="name:en" v="Zhichunlu"/>
    <tag k="name:zh" v="知春路"/>
    <tag k="public_transport" v="stop_position"/>
    <tag k="railway" v="station"/>
    <tag k="subway" v="yes"/>
  </node>
  <node id="340410815" lat="39.9749090" lon="116.3229323">
    <tag k="name" v="知春里"/>
    <tag k="name:en" v="Zhichunli"/>
    <tag k="name:zh" v="知春里"/>
    <tag k="public_transport" v="stop_position"/>
    <tag k="railway" v="station"/>
    <tag k="subway" v="yes"/>
  </node>
  <node id="340410824" lat="39.9743528" lon="116.3001930">
    <tag k="name" v="苏州街"/>
    <tag k="name:en" v="Suzhoujie"/>
    <tag k="name:zh" v="苏州街"/>
    <tag k="public_transport" v="stop_position"/>
    <tag k="railway" v="station"/>
  </node>
  <node id="340410862" lat="39.9732909" lon="116.2875195">
    <tag k="name" v="巴沟"/>
    <tag k="name:en" v="Bagou"/>
    <tag k="name:zh" v="巴沟"/>
    <tag k="public_transport" v="stop_position"/>
    <tag k="railway" v="station"/>
    <tag k="subway" v="yes"/>
  </node>
  <node id="528913547" lat="39.9746996" lon="116.3114319">
    <tag k="name" v="海淀黄庄"/>
    <tag k="name:en" v="Haidian Huangzhuang"/>
    <tag k="name:zh" v="海淀黄庄"/>
    <tag k="public_transport" v="stop_position"/>
    <tag k="railway" v="station"/>
    <tag k="subway" v="yes"/>
  </node>
  <node id="528913962" lat="39.9982481" lon="116.3037007">
    <tag k="name" v="圆明园"/>
    <tag k="name:en" v="Yuanmingyuan Park"/>
    <tag k="name:zh" v="圆明园"/>
    <tag k="public_transport" v="stop_position"/>
    <tag k="railway" v="station"/>
    <tag k="subway" v="yes"/>
  </node>
  <node id="528916061" lat="40.0011610" lon="116.2713357">
    <tag k="name" v="北宫门"/>
    <tag k="name:en" v="Beigongmen"/>
    <tag k="name:zh" v="北宫门"/>
    <tag k="public_transport" v="stop_position"/>
    <tag k="railway" v="station"/>
    <tag k="subway" v="yes"/>
  </node>
  <node id="528916114" lat="40.0110268" lon="116.2640305">
    <tag k="name" v="安河桥北"/>
    <tag k="name:en" v="Anheqiao North"/>
    <tag k="name:zh" v="安河桥北"/>
    <tag k="public_transport" v="stop_position"/>
    <tag k="railway" v="station"/>
    <tag k="subway" v="yes"/>
  </node>
  <node id="528922035" lat="39.9908074" lon="116.3095941">
    <tag k="name" v="北京大学东门"/>
    <tag k="name:en" v="East Gate of Peking University"/>
    <tag k="name:zh" v="北京大学东门"/>
    <tag k="public_transport" v="stop_position"/>
    <tag k="railway" v="station"/>
    <tag k="subway" v="yes"/>
  </node>
  <node id="528922127" lat="39.9826925" lon="116.3102538">
    <tag k="name" v="中关村"/>
    <tag k="name:en" v="Zhongguancun"/>
    <tag k="name:zh" v="中关村"/>
    <tag k="public_transport" v="stop_position"/>
    <tag k="railway" v="station"/>
    <tag k="subway" v="yes"/>
  </node>
  <node id="528925729" lat="39.9657580" lon="116.3156202">
    <tag k="name" v="人民大学"/>
    <tag k="name:en" v="Renmin University"/>
    <tag k="name:zh" v="人民大学"/>
    <tag k="public_transport" v="stop_position"/>
    <tag k="railway" v="station"/>
    <tag k="subway" v="yes"/>
  </node>
  <node id="528926456" lat="39.9563342" lon="116.3170676">
    <tag k="name" v="魏公村"/>
    <tag k="name:en" v="Weigongcun"/>
    <tag k="name:zh" v="魏公村"/>
    <tag k="public_transport" v="stop_position"/>
    <tag k="railway" v="station"/>
    <tag k="subway" v="yes"/>
  </node>
  <node id="528927340" lat="39.9418236" lon="116.3188650">
    <tag k="name" v="国家图书馆"/>
    <tag k="name:en" v="National Library"/>
    <tag k="name:zh" v="国家图书馆"/>
    <tag k="public_transport" v="stop_position"/>
    <tag k="railway" v="station"/>
    <tag k="subway" v="yes"/>
  </node>
  <node id="528928174" lat="39.9368863" lon="116.3327167">
    <tag k="name" v="动物园"/>
    <tag k="name:en" v="Beijing Zoo"/>
    <tag k="name:zh" v="动物园"/>
    <tag k="public_transport" v="stop_position"/>
    <tag k="railway" v="station"/>
    <tag k="subway" v="yes"/>
  </node>
  <node id="528928528" lat="39.9393811" lon="116.3613437">
    <tag k="name" v="新街口"/>
    <tag k="name:en" v="Xinjiekou"/>
    <tag k="name:zh" v="新街口"/>
    <tag k="public_transport" v="stop_position"/>
    <tag k="railway" v="station"/>
    <tag k="subway" v="yes"/>
  </node>
  <node id="528928764" lat="39.9323177" lon="116.3663949">
    <tag k="name" v="平安里"/>
    <tag k="name:en" v="Ping'anli"/>
    <tag k="name:zh" v="平安里"/>
    <tag k="public_transport" v="stop_position"/>
    <tag k="railway" v="station"/>
    <tag k="subway" v="yes"/>
  </node>
  <node id="528928995" lat="39.9225541" lon="116.3667178">
    <tag k="name" v="西四"/>
    <tag k="name:en" v="Xisi"/>
    <tag k="name:zh" v="西四"/>
    <tag k="public_transport" v="stop_position"/>
    <tag k="railway" v="station"/>
    <tag k="subway" v="yes"/>
  </node>
  <node id="528929127" lat="39.9149476" lon="116.3671636">
    <tag k="name" v="灵境胡同"/>
    <tag k="name:en" v="Lingjing Hutong"/>
    <tag k="name:zh" v="灵境胡同"/>
    <tag k="public_transport" v="stop_position"/>
    <tag k="railway" v="station"/>
    <tag k="subway" v="yes"/>
  </node>
  <node id="528929965" lat="39.8879008" lon="116.3681094">
    <tag k="name" v="菜市口"/>
    <tag k="name:en" v="Caishikou"/>
    <tag k="name:zh" v="菜市口"/>
    <tag k="public_transport" v="stop_position"/>
    <tag k="railway" v="station"/>
    <tag k="subway" v="yes"/>
  </node>
  <node id="528930289" lat="39.8774533" lon="116.3680928">
    <tag k="name" v="陶然亭"/>
    <tag k="name:en" v="Taoranting"/>
    <tag k="name:zh" v="陶然亭"/>
    <tag k="public_transport" v="stop_position"/>
    <tag k="railway" v="station"/>
    <tag k="subway" v="yes"/>
  </node>
  <node id="528931158" lat="39.8634948" lon="116.3726414">
    <tag k="name" v="北京南站"/>
    <tag k="name:de" v="Peking Südbahnhof"/>
    <tag k="name:en" v="Beijing South Railway Station"/>
    <tag k="name:hu" v="Peking Déli pályaudvar"/>
    <tag k="name:ja" v="北京南駅"/>
    <tag k="name:zh" v="北京南站"/>
    <tag k="public_transport" v="stop_position"/>
    <tag k="railway" v="station"/>
    <tag k="subway" v="yes"/>
  </node>
  <node id="528931992" lat="39.8516387" lon="116.3650930">
    <tag k="name" v="马家堡"/>
    <tag k="name:en" v="Majiapu"/>
    <tag k="name:zh" v="马家堡"/>
    <tag k="public_transport" v="stop_position"/>
    <tag k="railway" v="station"/>
    <tag k="subway" v="yes"/>
  </node>
  <node id="528934416" lat="39.8444351" lon="116.3648644">
    <tag k="name" v="角门西"/>
    <tag k="name:en" v="Jiaomen West"/>
    <tag k="name:zh" v="角门西"/>
    <tag k="name:zh_pinyin" v="Jiăomén Xī"/>
    <tag k="public_transport" v="stop_position"/>
    <tag k="railway" v="station"/>
    <tag k="subway" v="yes"/>
  </node>
  <node id="528934756" lat="39.8352652" lon="116.3646416">
    <tag k="name" v="公益西桥"/>
    <tag k="name:en" v="Gongyixiqiao"/>
    <tag k="name:zh" v="公益西桥"/>
    <tag k="public_transport" v="stop_position"/>
    <tag k="railway" v="station"/>
    <tag k="subway" v="yes"/>
  </node>
  <node id="533645705" lat="39.9056819" lon="116.3699200">
    <tag k="name" v="西单"/>
    <tag k="name:en" v="Xidan"/>
    <tag k="name:zh" v="西单"/>
    <tag k="public_transport" v="stop_position"/>
    <tag k="railway" v="station"/>
    <tag k="subway" v="yes"/>
  </node>
  <node id="539246468" lat="39.8618361" lon="116.3713365"/>
  <node id="539246473" lat="39.8624908" lon="116.3704268"/>
  <node id="539246474" lat="39.8623094" lon="116.3705405"/>
  <node id="539246482" lat="39.8621611" lon="116.3706900"/>
  <node id="539246484" lat="39.8620285" lon="116.3708762"/>
  <node id="539246488" lat="39.8619201" lon="116.3710767"/>
  <node id="539246491" lat="39.8617592" lon="116.3719426"/>
  <node id="539246492" lat="39.8617697" lon="116.3723618"/>
  <node id="539246496" lat="39.8617767" lon="116.3716190"/>
  <node id="539246497" lat="39.8629132" lon="116.3702944"/>
  <node id="539246498" lat="39.8637835" lon="116.3705141"/>
  <node id="539246499" lat="39.8626858" lon="116.3703437"/>
  <node id="539246500" lat="39.8631979" lon="116.3703045"/>
  <node id="539246501" lat="39.8634450" lon="116.3703635"/>
  <node id="539246503" lat="39.8622139" lon="116.3738019"/>
  <node id="539246504" lat="39.8618501" lon="116.3727948"/>
  <node id="539246506" lat="39.8635291" lon="116.3751462"/>
  <node id="539246507" lat="39.8619970" lon="116.3732550"/>
  <node id="539246508" lat="39.8631654" lon="116.3749138"/>
  <node id="539246509" lat="39.8624833" lon="116.3742394"/>
  <node id="539246510" lat="39.8638125" lon="116.3752784"/>
  <node id="539246511" lat="39.8628051" lon="116.3746130"/>
  <node id="539246512" lat="39.8644642" lon="116.3710719"/>
  <node id="539246513" lat="39.8650752" lon="116.3719608"/>
  <node id="539246514" lat="39.8652711" lon="116.3724028"/>
  <node id="539246515" lat="39.8641508" lon="116.3707556"/>
  <node id="539246516" lat="39.8648126" lon="116.3714875"/>
  <node id="539246517" lat="39.8645995" lon="116.3753103"/>
  <node id="539246518" lat="39.8640853" lon="116.3753422"/>
  <node id="539246519" lat="39.8643721" lon="116.3753604"/>
  <node id="539246520" lat="39.8652501" lon="116.3747817"/>
  <node id="539246526" lat="39.8649528" lon="116.3751052"/>
  <node id="539246529" lat="39.8647744" lon="116.3752328"/>
  <node id="539246531" lat="39.8651207" lon="116.3749457"/>
  <node id="539246533" lat="39.8654950" lon="116.3733416"/>
  <node id="539246534" lat="39.8655159" lon="116.3737016"/>
  <node id="539246535" lat="39.8654250" lon="116.3729224"/>
  <node id="539246536" lat="39.8654950" lon="116.3740070"/>
  <node id="539246545" lat="39.8654390" lon="116.3743123"/>
  <node id="539246549" lat="39.8653550" lon="116.3745811"/>
  <node id="539260172" lat="39.8627675" lon="116.3738382">
    <tag k="name" v="北京南"/>
    <tag k="name:en" v="Beijing South"/>
    <tag k="name:zh" v="北京南"/>
    <tag k="railway" v="station"/>
  </node>
  <node id="644621576" lat="39.9260109" lon="116.1339777">
    <tag k="name" v="石景山"/>
    <tag k="railway" v="station"/>
  </node>
  <node id="655907699" lat="39.9970142" lon="116.2845108">
    <tag k="name" v="西苑"/>
    <tag k="name:en" v="Xiyuan"/>
    <tag k="name:zh" v="西苑"/>
    <tag k="public_transport" v="stop_position"/>
    <tag k="railway" v="station"/>
    <tag k="subway" v="yes"/>
  </node>
  <node id="701230220" lat="39.8987186" lon="116.3916395">
    <tag k="name" v="前门"/>
    <tag k="name:en" v="Qianmen"/>
    <tag k="name:zh" v="前门"/>
    <tag k="name:zh_pinyin" v="Qiánmén"/>
    <tag k="public_transport" v="stop_position"/>
    <tag k="railway" v="station"/>
    <tag k="subway" v="yes"/>
  </node>
  <node id="844821203" lat="40.0108700" lon="116.6798190">
    <tag k="name" v="张辛"/>
    <tag k="name:en" v="Zhangxin"/>
    <tag k="railway" v="station"/>
  </node>
  <node id="844821225" lat="39.9034990" lon="116.6207330">
    <tag k="name" v="通州西"/>
    <tag k="name:en" v="Tongzhou West"/>
    <tag k="railway" v="station"/>
  </node>
  <node id="1074413501" lat="39.8056619" lon="116.4846456">
    <tag k="name" v="亦庄文化园"/>
    <tag k="name:en" v="Yizhuang Culture Park"/>
    <tag k="name:zh" v="亦庄文化园"/>
    <tag k="name:zh_pinyin" v="Yìzhuāng Wénhuàyuán"/>
    <tag k="public_transport" v="stop_position"/>
    <tag k="railway" v="station"/>
    <tag k="subway" v="yes"/>
  </node>
  <node id="1074413516" lat="39.7825727" lon="116.5565361">
    <tag k="name" v="经海路"/>
    <tag k="name:en" v="Jinghailu"/>
    <tag k="name:zh" v="经海路"/>
    <tag k="name:zh_pinyin" v="Jīnghăilù"/>
    <tag k="public_transport" v="stop_position"/>
    <tag k="railway" v="station"/>
    <tag k="subway" v="yes"/>
  </node>
  <node id="1074413537" lat="39.7816866" lon="116.5158378">
    <tag k="name" v="荣昌东街"/>
    <tag k="name:en" v="Rongchangdongjie"/>
    <tag k="name:zh" v="荣昌东街"/>
    <tag k="name:zh_pinyin" v="Róngchāngdōngjiē"/>
    <tag k="public_transport" v="stop_position"/>
    <tag k="railway" v="station"/>
    <tag k="subway" v="yes"/>
  </node>
  <node id="1074413543" lat="39.8017621" lon="116.4742590">
    <tag k="name" v="亦庄桥"/>
    <tag k="name:en" v="Yizhuangqiao"/>
    <tag k="name:zh" v="亦庄桥"/>
    <tag k="name:zh_pinyin" v="Yìzhuāngqiáo"/>
    <tag k="public_transport" v="stop_position"/>
    <tag k="railway" v="station"/>
    <tag k="subway" v="yes"/>
  </node>
  <node id="1074413554" lat="39.7717850" lon="116.5340791">
    <tag k="name" v="同济南路"/>
    <tag k="name:en" v="Tongjinanlu"/>
    <tag k="name:zh" v="同济南路"/>
    <tag k="name:zh_pinyin" v="Tóngjìnánlù"/>
    <tag k="public_transport" v="stop_position"/>
    <tag k="railway" v="station"/>
    <tag k="subway" v="yes"/>
  </node>
  <node id="1074413605" lat="39.8025087" lon="116.5856816">
    <tag k="name" v="次渠"/>
    <tag k="name:en" v="Ciqu"/>
    <tag k="name:zh" v="次渠"/>
    <tag k="name:zh_pinyin" v="Cìqú"/>
    <tag k="public_transport" v="stop_position"/>
    <tag k="railway" v="station"/>
    <tag k="subway" v="yes"/>
  </node>
  <node id="1074413615" lat="39.8056065" lon="116.4547113">
    <tag k="name" v="旧宫"/>
    <tag k="name:en" v="Jiugong"/>
    <tag k="name:zh" v="旧宫"/>
    <tag k="name:zh_pinyin" v="Jiùgōng"/>
    <tag k="public_transport" v="stop_position"/>
    <tag k="railway" v="station"/>
    <tag k="subway" v="yes"/>
  </node>
  <node id="1074413619" lat="39.8115294" lon="116.5961172">
    <tag k="name" v="亦庄火车站"/>
    <tag k="name:en" v="Yizhuang Railway Station"/>
    <tag k="name:zh" v="亦庄火车站"/>
    <tag k="name:zh_pinyin" v="Yìzhuāng Huŏchēzhàn"/>
    <tag k="public_transport" v="stop_position"/>
    <tag k="railway" v="station"/>
    <tag k="subway" v="yes"/>
  </node>
  <node id="1074447567" lat="40.0833411" lon="116.5519363">
    <tag k="name" v="花梨坎"/>
    <tag k="name:en" v="HUALIKAN"/>
    <tag k="name:zh" v="花梨坎"/>
    <tag k="name:zh_pinyin" v="Huālíkăn"/>
    <tag k="public_transport" v="stop_position"/>
    <tag k="railway" v="station"/>
    <tag k="subway" v="yes"/>
  </node>
  <node id="1074447761" lat="40.0688967" lon="116.5494570">
    <tag k="name" v="国展"/>
    <tag k="name:en" v="China International Exhibition Center"/>
    <tag k="name:zh" v="国展"/>
    <tag k="name:zh_pinyin" v="Guózhăn"/>
    <tag k="public_transport" v="stop_position"/>
    <tag k="railway" v="station"/>
    <tag k="subway" v="yes"/>
  </node>
  <node id="1074447770" lat="40.0439007" lon="116.5289009">
    <tag k="name" v="孙河"/>
    <tag k="name:en" v="SUNHE"/>
    <tag k="name:zh" v="孙河"/>
    <tag k="name:zh_pinyin" v="Sūnhé"/>
    <tag k="public_transport" v="stop_position"/>
    <tag k="railway" v="station"/>
    <tag k="subway" v="yes"/>
  </node>
  <node id="1074489072" lat="40.0517623" lon="116.3002779">
    <tag k="name" v="西二旗"/>
    <tag k="name:en" v="Xi'erqi"/>
    <tag k="name:zh" v="西二旗"/>
    <tag k="public_transport" v="stop_position"/>
    <tag k="railway" v="station"/>
    <tag k="subway" v="yes"/>
  </node>
  <node id="1078854872" lat="40.0019105" lon="116.4808157">
    <tag k="name" v="望京东"/>
    <tag k="name:en" v="Wangjing East"/>
    <tag k="name:zh" v="望京东"/>
    <tag k="name:zh_pinyin" v="Wàngjīngdōng"/>
    <tag k="note" v="Not open yet (January 2013)"/>
    <tag k="public_transport" v="stop_position"/>
    <tag k="railway" v="station"/>
    <tag k="subway" v="yes"/>
  </node>
  <node id="1078854875" lat="40.0325127" lon="116.4981780">
    <tag k="name" v="马泉营"/>
    <tag k="name:en" v="MAQUANYING"/>
    <tag k="name:zh" v="马泉营"/>
    <tag k="name:zh_pinyin" v="Măquányíng"/>
    <tag k="public_transport" v="stop_position"/>
    <tag k="railway" v="station"/>
    <tag k="subway" v="yes"/>
  </node>
  <node id="1078854898" lat="40.0205687" lon="116.4868449">
    <tag k="name" v="崔各庄"/>
    <tag k="name:en" v="CUIGEZHUANG"/>
    <tag k="name:zh" v="崔各庄"/>
    <tag k="name:zh_pinyin" v="Cuīgèzhuāng"/>
    <tag k="public_transport" v="stop_position"/>
    <tag k="railway" v="station"/>
    <tag k="subway" v="yes"/>
  </node>
  <node id="1078854904" lat="39.9946808" lon="116.4438798">
    <tag k="name" v="望京西"/>
    <tag k="name:en" v="Wangjing West"/>
    <tag k="name:zh" v="望京西"/>
    <tag k="public_transport" v="stop_position"/>
    <tag k="railway" v="station"/>
    <tag k="subway" v="yes"/>
  </node>
  <node id="1078854911" lat="39.9966524" lon="116.4634277">
    <tag k="name" v="望京"/>
    <tag k="name:en" v="Wangjing"/>
    <tag k="name:zh" v="望京"/>
    <tag k="name:zh_pinyin" v="Wàngjīng"/>
    <tag k="public_transport" v="stop_position"/>
    <tag k="railway" v="station"/>
    <tag k="subway" v="yes"/>
  </node>
  <node id="1080681248" lat="39.6851100" lon="116.3161053">
    <tag k="name" v="生物医药基地"/>
    <tag k="name:en" v="Biomedical Base"/>
    <tag k="name:zh" v="生物医药基地"/>
    <tag k="name:zh_pinyin" v="Shēngwùyīyàojīdì"/>
    <tag k="public_transport" v="stop_position"/>
    <tag k="railway" v="station"/>
    <tag k="subway" v="yes"/>
  </node>
  <node id="1080681255" lat="39.7304213" lon="116.3264834">
    <tag k="name" v="黄村西大街"/>
    <tag k="name:en" v="Huangcunxidajie"/>
    <tag k="name:zh" v="黄村西大街"/>
    <tag k="name:zh_pinyin" v="Huángcūnxīdàjiē"/>
    <tag k="public_transport" v="stop_position"/>
    <tag k="railway" v="station"/>
    <tag k="subway" v="yes"/>
  </node>
  <node id="1080681283" lat="39.7622833" lon="116.3255770">
    <tag k="name" v="高米店南"/>
    <tag k="name:en" v="GAOMIDIAN South"/>
    <tag k="name:zh" v="高米店南"/>
    <tag k="name:zh_pinyin" v="Gāomĭdiànnán"/>
    <tag k="public_transport" v="stop_position"/>
    <tag k="railway" v="station"/>
    <tag k="subway" v="yes"/>
  </node>
  <node id="1080681293" lat="39.7417545" lon="116.3262542">
    <tag k="name" v="清源路"/>
    <tag k="name:en" v="Qingyuanlu"/>
    <tag k="name:zh" v="清源路"/>
    <tag k="name:zh_pinyin" v="Qīngyuánlù"/>
    <tag k="public_transport" v="stop_position"/>
    <tag k="railway" v="station"/>
    <tag k="subway" v="yes"/>
  </node>
  <node id="1080681295" lat="39.7215041" lon="116.3266134">
    <tag k="name" v="黄村火车站"/>
    <tag k="name:en" v="Huangcun Railway Station"/>
    <tag k="name:zh" v="黄村火车站"/>
    <tag k="name:zh_pinyin" v="Huángcūn Huŏchēzhàn"/>
    <tag k="public_transport" v="stop_position"/>
    <tag k="railway" v="station"/>
    <tag k="subway" v="yes"/>
  </node>
  <node id="1080681389" lat="39.7518044" lon="116.3259177">
    <tag k="name" v="枣园"/>
    <tag k="name:en" v="ZAOYUAN"/>
    <tag k="name:zh" v="枣园"/>
    <tag k="name:zh_pinyin" v="Zăoyuán"/>
    <tag k="public_transport" v="stop_position"/>
    <tag k="railway" v="station"/>
    <tag k="subway" v="yes"/>
  </node>
  <node id="1080681418" lat="39.8109851" lon="116.3594052">
    <tag k="name" v="新宫"/>
    <tag k="name:en" v="XIN'GONG"/>
    <tag k="name:zh" v="新宫"/>
    <tag k="name:zh_pinyin" v="Xīngōng"/>
    <tag k="public_transport" v="stop_position"/>
    <tag k="railway" v="station"/>
    <tag k="subway" v="yes"/>
  </node>
  <node id="1080681438" lat="39.7883930" lon="116.3226513">
    <tag k="name" v="西红门"/>
    <tag k="name:en" v="XIHONGMEN"/>
    <tag k="name:zh" v="西红门"/>
    <tag k="name:zh_pinyin" v="Xīhóngmén"/>
    <tag k="public_transport" v="stop_position"/>
    <tag k="railway" v="station"/>
    <tag k="subway" v="yes"/>
  </node>
  <node id="1080681454" lat="39.7730294" lon="116.3243819">
    <tag k="name" v="高米店北"/>
    <tag k="name:en" v="GAOMIDIAN North"/>
    <tag k="name:zh" v="高米店北"/>
    <tag k="name:zh_pinyin" v="Gāomĭdiànbĕi"/>
    <tag k="public_transport" v="stop_position"/>
    <tag k="railway" v="station"/>
    <tag k="subway" v="yes"/>
  </node>
  <node id="1085309402" lat="39.9390728" lon="116.3493806">
    <tag k="name" v="西直门"/>
    <tag k="name:en" v="Xizhimen"/>
    <tag k="name:zh" v="西直门"/>
    <tag k="public_transport" v="stop_position"/>
    <tag k="railway" v="station"/>
    <tag k="subway" v="yes"/>
  </node>
  <node id="1085405462" lat="39.7466040" lon="116.1787316">
    <tag k="name" v="广阳城"/>
    <tag k="name:en" v="Guangyangcheng"/>
    <tag k="name:zh" v="广阳城"/>
    <tag k="public_transport" v="stop_position"/>
    <tag k="railway" v="station"/>
    <tag k="subway" v="yes"/>
  </node>
  <node id="1085405470" lat="39.8064689" lon="116.2854558">
    <tag k="name" v="大葆台"/>
    <tag k="name:en" v="Dabaotai"/>
    <tag k="name:zh" v="大葆台"/>
    <tag k="public_transport" v="stop_position"/>
    <tag k="railway" v="station"/>
    <tag k="subway" v="yes"/>
  </node>
  <node id="1085405472" lat="39.7219640" lon="116.1498361">
    <tag k="name" v="良乡大学城西"/>
    <tag k="name:en" v="Liangxiang University Town West"/>
    <tag k="name:zh" v="良乡大学城西"/>
    <tag k="public_transport" v="stop_position"/>
    <tag k="railway" v="station"/>
    <tag k="subway" v="yes"/>
  </node>
  <node id="1085405477" lat="39.7218909" lon="116.1346002">
    <tag k="name" v="良乡南关"/>
    <tag k="name:en" v="Liangxiangnanguan"/>
    <tag k="name:zh" v="良乡南关"/>
    <tag k="public_transport" v="stop_position"/>
    <tag k="railway" v="station"/>
    <tag k="subway" v="yes"/>
  </node>
  <node id="1085405505" lat="39.7625791" lon="116.2065004">
    <tag k="name" v="长阳"/>
    <tag k="name:en" v="Changyang"/>
    <tag k="name:zh" v="长阳"/>
    <tag k="public_transport" v="stop_position"/>
    <tag k="railway" v="station"/>
    <tag k="subway" v="yes"/>
  </node>
  <node id="1085405518" lat="39.7219726" lon="116.1702924">
    <tag k="name" v="良乡大学城"/>
    <tag k="name:en" v="Liangxiang University Town"/>
    <tag k="name:zh" v="良乡大学城"/>
    <tag k="public_transport" v="stop_position"/>
    <tag k="railway" v="station"/>
    <tag k="subway" v="yes"/>
  </node>
  <node id="1085405524" lat="39.7218150" lon="116.1498334">
    <tag k="name" v="良乡大学城西"/>
    <tag k="name:en" v="Liangxiang University Town West"/>
    <tag k="name:zh" v="良乡大学城西"/>
    <tag k="public_transport" v="stop_position"/>
    <tag k="railway" v="station"/>
    <tag k="subway" v="yes"/>
  </node>
  <node id="1085405536" lat="39.7284705" lon="116.1772346">
    <tag k="name" v="良乡大学城北"/>
    <tag k="name:en" v="Liangxiang University Town North"/>
    <tag k="name:zh" v="良乡大学城北"/>
    <tag k="public_transport" v="stop_position"/>
    <tag k="railway" v="station"/>
    <tag k="subway" v="yes"/>
  </node>
  <node id="1085405540" lat="39.7465941" lon="116.1789519">
    <tag k="name" v="广阳城"/>
    <tag k="name:en" v="Guangyangcheng"/>
    <tag k="name:zh" v="广阳城"/>
    <tag k="public_transport" v="stop_position"/>
    <tag k="railway" v="station"/>
    <tag k="subway" v="yes"/>
  </node>
  <node id="1085405565" lat="39.7218705" lon="116.1189698">
    <tag k="name" v="苏庄"/>
    <tag k="name:en" v="Suzhuang"/>
    <tag k="name:zh" v="苏庄"/>
    <tag k="public_transport" v="stop_position"/>
    <tag k="railway" v="station"/>
    <tag k="subway" v="yes"/>
  </node>
  <node id="1085405582" lat="39.7935287" lon="116.2128049">
    <tag k="name" v="稻田"/>
    <tag k="name:en" v="Daotian"/>
    <tag k="name:zh" v="稻田"/>
    <tag k="public_transport" v="stop_position"/>
    <tag k="railway" v="station"/>
    <tag k="subway" v="yes"/>
  </node>
  <node id="1085405610" lat="39.7218364" lon="116.1702991">
    <tag k="name" v="良乡大学城"/>
    <tag k="name:en" v="Liangxiang University Town"/>
    <tag k="name:zh" v="良乡大学城"/>
    <tag k="public_transport" v="stop_position"/>
    <tag k="railway" v="station"/>
    <tag k="subway" v="yes"/>
  </node>
  <node id="1085405622" lat="39.7219181" lon="116.1346008">
    <tag k="name" v="良乡南关"/>
    <tag k="name:en" v="Liangxiangnanguan"/>
    <tag k="name:zh" v="良乡南关"/>
    <tag k="public_transport" v="stop_position"/>
    <tag k="railway" v="station"/>
    <tag k="subway" v="yes"/>
  </node>
  <node id="1085405627" lat="39.7284674" lon="116.1774398">
    <tag k="name" v="良乡大学城北"/>
    <tag k="name:en" v="Liangxiang University Town North"/>
    <tag k="name:zh" v="良乡大学城北"/>
    <tag k="public_transport" v="stop_position"/>
    <tag k="railway" v="station"/>
    <tag k="subway" v="yes"/>
  </node>
  <node id="1085405631" lat="39.7593938" lon="116.1833027">
    <tag k="name" v="篱笆房"/>
    <tag k="name:en" v="Libafang"/>
    <tag k="name:zh" v="篱笆房"/>
    <tag k="public_transport" v="stop_position"/>
    <tag k="railway" v="station"/>
    <tag k="subway" v="yes"/>
  </node>
  <node id="1085405646" lat="39.7624413" lon="116.2065053">
    <tag k="name" v="长阳"/>
    <tag k="name:en" v="Changyang"/>
    <tag k="name:zh" v="长阳"/>
    <tag k="public_transport" v="stop_position"/>
    <tag k="railway" v="station"/>
    <tag k="subway" v="yes"/>
  </node>
  <node id="1085405650" lat="39.7936519" lon="116.2127764">
    <tag k="name" v="稻田"/>
    <tag k="name:en" v="Daotian"/>
    <tag k="name:zh" v="稻田"/>
    <tag k="public_transport" v="stop_position"/>
    <tag k="railway" v="station"/>
    <tag k="subway" v="yes"/>
  </node>
  <node id="1085405657" lat="39.7593588" lon="116.1834597">
    <tag k="name" v="篱笆房"/>
    <tag k="name:en" v="Libafang"/>
    <tag k="name:zh" v="篱笆房"/>
    <tag k="public_transport" v="stop_position"/>
    <tag k="railway" v="station"/>
    <tag k="subway" v="yes"/>
  </node>
  <node id="1085405667" lat="39.7218341" lon="116.1189697">
    <tag k="name" v="苏庄"/>
    <tag k="name:en" v="Suzhuang"/>
    <tag k="name:zh" v="苏庄"/>
    <tag k="public_transport" v="stop_position"/>
    <tag k="railway" v="station"/>
    <tag k="subway" v="yes"/>
  </node>
  <node id="1093985674" lat="39.6689895" lon="116.3138671">
    <tag k="name" v="天宫院"/>
    <tag k="name:en" v="Tiangongyuan"/>
    <tag k="name:zh" v="天宫院"/>
    <tag k="name:zh_pinyin" v="Tiāngōngyuàn"/>
    <tag k="public_transport" v="stop_position"/>
    <tag k="railway" v="station"/>
    <tag k="subway" v="yes"/>
  </node>
  <node id="1093985706" lat="39.8983368" lon="116.3680341">
    <tag k="name" v="宣武门"/>
    <tag k="name:en" v="Xuanwumen"/>
    <tag k="name:zh" v="宣武门"/>
    <tag k="public_transport" v="stop_position"/>
    <tag k="railway" v="station"/>
    <tag k="subway" v="yes"/>
  </node>
  <node id="1093985711" lat="39.7111031" lon="116.3130423">
    <tag k="name" v="义和庄"/>
    <tag k="name:en" v="Yihezhuang"/>
    <tag k="name:zh" v="义和庄"/>
    <tag k="name:zh_pinyin" v="Yìhézhuāng"/>
    <tag k="public_transport" v="stop_position"/>
    <tag k="railway" v="station"/>
    <tag k="subway" v="yes"/>
  </node>
  <node id="1094071212" lat="39.7937219" lon="116.5753324">
    <tag k="name" v="次渠南"/>
    <tag k="name:en" v="Ciqu South"/>
    <tag k="name:zh" v="次渠南"/>
    <tag k="name:zh_pinyin" v="Cìqúnán"/>
    <tag k="public_transport" v="stop_position"/>
    <tag k="railway" v="station"/>
    <tag k="subway" v="yes"/>
  </node>
  <node id="1094072326" lat="40.0025329" lon="116.4111385">
    <tag k="name" v="大屯路东"/>
    <tag k="name:en" v="Datunlu East"/>
    <tag k="name:zh" v="大屯路东"/>
    <tag k="public_transport" v="stop_position"/>
    <tag k="railway" v="station"/>
    <tag k="subway" v="yes"/>
  </node>
  <node id="1094073255" lat="40.0025302" lon="116.4110779">
    <tag k="name" v="大屯路东"/>
    <tag k="name:en" v="Datunlu East"/>
    <tag k="name:zh" v="大屯路东"/>
    <tag k="public_transport" v="stop_position"/>
    <tag k="railway" v="station"/>
    <tag k="subway" v="yes"/>
  </node>
  <node id="1101163242" lat="39.8954458" lon="116.3110681"/>
  <node id="1101163260" lat="39.8951871" lon="116.3154553"/>
  <node id="1101163262" lat="39.8946787" lon="116.3201867"/>
  <node id="1101163279" lat="39.8949449" lon="116.3131296"/>
  <node id="1101163280" lat="39.8946753" lon="116.3171673"/>
  <node id="1101163285" lat="39.8944561" lon="116.3101326"/>
  <node id="1101163300" lat="39.8946856" lon="116.3192884"/>
  <node id="1101163303" lat="39.8951768" lon="116.3101280"/>
  <node id="1101163316" lat="39.8947197" lon="116.3114710"/>
  <node id="1101163318" lat="39.8954430" lon="116.3193107"/>
  <node id="1101163329" lat="39.8947129" lon="116.3131252"/>
  <node id="1101163333" lat="39.8949414" lon="116.3147705"/>
  <node id="1101163349" lat="39.8946753" lon="116.3196842"/>
  <node id="1101163351" lat="39.8946958" lon="116.3110530"/>
  <node id="1101163362" lat="39.8954361" lon="116.3196886"/>
  <node id="1101163364" lat="39.8949312" lon="116.3171495"/>
  <node id="1101163380" lat="39.8949312" lon="116.3154597"/>
  <node id="1101163384" lat="39.8951734" lon="116.3107950"/>
  <node id="1101163395" lat="39.8954430" lon="116.3114887"/>
  <node id="1101163397" lat="39.8946958" lon="116.3107861"/>
  <node id="1101163412" lat="39.8951855" lon="116.3147670"/>
  <node id="1101163413" lat="39.8944869" lon="116.3201777"/>
  <node id="1182599524" lat="39.8276755" lon="116.3735379">
    <tag k="name" v="大红门"/>
    <tag k="railway" v="station"/>
  </node>
  <node id="1189099811" lat="39.8925218" lon="116.3141448"/>
  <node id="1189099818" lat="39.8925260" lon="116.3130308"/>
  <node id="1189099821" lat="39.8925323" lon="116.3170581"/>
  <node id="1189099864" lat="39.8923165" lon="116.3170570"/>
  <node id="1189099866" lat="39.8923046" lon="116.3133655"/>
  <node id="1189099880" lat="39.8923973" lon="116.3131549"/>
  <node id="1189200434" lat="39.8735751" lon="116.2089690">
    <tag k="name" v="石景山南"/>
    <tag k="railway" v="station"/>
  </node>
  <node id="1213234617" lat="39.8333127" lon="116.2460629"/>
  <node id="1213234619" lat="39.8037244" lon="116.2610146"/>
  <node id="1213234621" lat="39.8445740" lon="116.2334553"/>
  <node id="1213234624" lat="39.8455598" lon="116.2374645"/>
  <node id="1213234626" lat="39.8293405" lon="116.2428215"/>
  <node id="1213234627" lat="39.8099513" lon="116.2616070"/>
  <node id="1213234633" lat="39.8445788" lon="116.2377036"/>
  <node id="1213234638" lat="39.8201451" lon="116.2500004"/>
  <node id="1213234640" lat="39.8347684" lon="116.2450588"/>
  <node id="1213234642" lat="39.8458117" lon="116.2385068"/>
  <node id="1213234643" lat="39.8195459" lon="116.2554635"/>
  <node id="1213234644" lat="39.8082383" lon="116.2607442"/>
  <node id="1213234653" lat="39.8442937" lon="116.2365267"/>
  <node id="1213234655" lat="39.8153486" lon="116.2542906"/>
  <node id="1213234658" lat="39.8430325" lon="116.2349029"/>
  <node id="1213234661" lat="39.8482078" lon="116.2378421"/>
  <node id="1213234662" lat="39.8439713" lon="116.2327661"/>
  <node id="1213234664" lat="39.8360710" lon="116.2444687"/>
  <node id="1213234665" lat="39.8068959" lon="116.2648442"/>
  <node id="1213234669" lat="39.8228517" lon="116.2542006"/>
  <node id="1213234670" lat="39.8102497" lon="116.2581013"/>
  <node id="1213234674" lat="39.8439796" lon="116.2342294"/>
  <node id="1213234676" lat="39.8458449" lon="116.2351106"/>
  <node id="1213234681" lat="39.8443393" lon="116.2391214"/>
  <node id="1213234683" lat="39.8085405" lon="116.2593060"/>
  <node id="1213234685" lat="39.8468355" lon="116.2375714"/>
  <node id="1213234686" lat="39.8316061" lon="116.2419364"/>
  <node id="1213234688" lat="39.8308528" lon="116.2489985"/>
  <node id="1213234691" lat="39.8463874" lon="116.2319302"/>
  <node id="1213234699" lat="39.8434432" lon="116.2358092"/>
  <node id="1252212641" lat="39.8078718" lon="116.2634399"/>
  <node id="1252212677" lat="39.8321665" lon="116.2475820"/>
  <node id="1252212684" lat="39.8085535" lon="116.2627020"/>
  <node id="1288801539" lat="39.9842475" lon="116.0630875">
    <tag k="name" v="野溪"/>
    <tag k="railway" v="station"/>
  </node>
  <node id="1296102316" lat="39.9383906" lon="116.1649821">
    <tag k="name" v="52号"/>
    <tag k="public_transport" v="stop_position"/>
    <tag k="railway" v="station"/>
  </node>
  <node id="1296102322" lat="39.9062051" lon="116.2064813">
    <tag k="name" v="八角游乐园"/>
    <tag k="name:en" v="Bajiao Amusement Park"/>
    <tag k="name:zh" v="八角游乐园"/>
    <tag k="public_transport" v="stop_position"/>
    <tag k="railway" v="station"/>
    <tag k="subway" v="yes"/>
  </node>
  <node id="1296102325" lat="39.9481574" lon="116.1521640">
    <tag k="name" v="53号"/>
    <tag k="public_transport" v="stop_position"/>
    <tag k="railway" v="station"/>
  </node>
  <node id="1296102327" lat="39.9062353" lon="116.2296298">
    <tag k="name" v="八宝山"/>
    <tag k="name:en" v="Babaoshan"/>
    <tag k="name:zh" v="八宝山"/>
    <tag k="public_transport" v="stop_position"/>
    <tag k="railway" v="station"/>
    <tag k="subway" v="yes"/>
  </node>
  <node id="1296102366" lat="39.8989768" lon="116.1974356">
    <tag k="name" v="衙门口"/>
    <tag k="public_transport" v="stop_position"/>
    <tag k="railway" v="station"/>
  </node>
  <node id="1296102383" lat="39.9248509" lon="116.1719593">
    <tag k="name" v="苹果园"/>
    <tag k="name:en" v="Pingguoyuan"/>
    <tag k="name:zh" v="苹果园"/>
    <tag k="public_transport" v="stop_position"/>
    <tag k="railway" v="station"/>
    <tag k="subway" v="yes"/>
  </node>
  <node id="1296102385" lat="39.9479438" lon="116.1521607">
    <tag k="name" v="53号"/>
    <tag k="public_transport" v="stop_position"/>
    <tag k="railway" v="station"/>
  </node>
  <node id="1296102402" lat="39.9061512" lon="116.1842980">
    <tag k="name" v="古城"/>
    <tag k="name:en" v="Gucheng"/>
    <tag k="name:zh" v="古城"/>
    <tag k="public_transport" v="stop_position"/>
    <tag k="railway" v="station"/>
    <tag k="subway" v="yes"/>
  </node>
  <node id="1296102411" lat="39.9384051" lon="116.1650144">
    <tag k="name" v="52号"/>
    <tag k="public_transport" v="stop_position"/>
    <tag k="railway" v="station"/>
  </node>
  <node id="1296102418" lat="39.8989789" lon="116.1975764">
    <tag k="name" v="衙门口"/>
    <tag k="public_transport" v="stop_position"/>
    <tag k="railway" v="station"/>
  </node>
  <node id="1296155055" lat="39.9061842" lon="116.2680297">
    <tag k="name" v="五棵松"/>
    <tag k="name:en" v="Wukesong"/>
    <tag k="name:zh" v="五棵松"/>
    <tag k="public_transport" v="stop_position"/>
    <tag k="railway" v="station"/>
    <tag k="subway" v="yes"/>
  </node>
  <node id="1296155057" lat="39.9062535" lon="116.2468170">
    <tag k="name" v="玉泉路"/>
    <tag k="name:en" v="Yuquanlu"/>
    <tag k="name:zh" v="玉泉路"/>
    <tag k="public_transport" v="stop_position"/>
    <tag k="railway" v="station"/>
    <tag k="subway" v="yes"/>
  </node>
  <node id="1298050540" lat="39.9063069" lon="116.2887680">
    <tag k="name" v="万寿路"/>
    <tag k="name:en" v="Wanshoulu"/>
    <tag k="name:zh" v="万寿路"/>
    <tag k="public_transport" v="stop_position"/>
    <tag k="railway" v="station"/>
    <tag k="subway" v="yes"/>
  </node>
  <node id="1298050590" lat="39.9062808" lon="116.2680298">
    <tag k="name" v="五棵松"/>
    <tag k="name:en" v="Wukesong"/>
    <tag k="name:zh" v="五棵松"/>
    <tag k="public_transport" v="stop_position"/>
    <tag k="railway" v="station"/>
    <tag k="subway" v="yes"/>
  </node>
  <node id="1298058566" lat="39.9059564" lon="116.3465672">
    <tag k="name" v="南礼士路"/>
    <tag k="name:en" v="Nanlishilu"/>
    <tag k="name:zh" v="南礼士路"/>
    <tag k="railway" v="station"/>
    <tag k="subway" v="yes"/>
  </node>
  <node id="1298058568" lat="39.9062172" lon="116.3178744">
    <tag k="name" v="军事博物馆"/>
    <tag k="name:de" v="Militärmuseum"/>
    <tag k="name:en" v="Military Museum"/>
    <tag k="name:zh" v="军事博物馆"/>
    <tag k="name:zh_pinyin" v="Jūnshì Bówùguǎn"/>
    <tag k="public_transport" v="stop_position"/>
    <tag k="railway" v="station"/>
    <tag k="subway" v="yes"/>
  </node>
  <node id="1298058595" lat="39.9061592" lon="116.3315014">
    <tag k="name" v="木樨地"/>
    <tag k="name:en" v="Muxidi"/>
    <tag k="name:zh" v="木樨地"/>
    <tag k="public_transport" v="stop_position"/>
    <tag k="railway" v="station"/>
    <tag k="subway" v="yes"/>
  </node>
  <node id="1298058615" lat="39.9062731" lon="116.3041377">
    <tag k="name" v="公主坟"/>
    <tag k="name:en" v="Gongzhufen"/>
    <tag k="name:zh" v="公主坟"/>
    <tag k="name:zh_pinyin" v="Gōngzhŭfén"/>
    <tag k="public_transport" v="stop_position"/>
    <tag k="railway" v="station"/>
    <tag k="subway" v="yes"/>
  </node>
  <node id="1298408190" lat="39.9058853" lon="116.3513181">
    <tag k="name" v="复兴门"/>
    <tag k="name:en" v="Fuxingmen"/>
    <tag k="name:zh" v="复兴门"/>
    <tag k="public_transport" v="stop_position"/>
    <tag k="railway" v="station"/>
    <tag k="subway" v="yes"/>
  </node>
  <node id="1298408197" lat="39.8981091" lon="116.3572105">
    <tag k="name" v="长椿街"/>
    <tag k="name:en" v="Changchunjie"/>
    <tag k="name:zh" v="长椿街"/>
    <tag k="public_transport" v="stop_position"/>
    <tag k="railway" v="station"/>
    <tag k="subway" v="yes"/>
  </node>
  <node id="1298408217" lat="39.8984503" lon="116.3680293">
    <tag k="name" v="宣武门"/>
    <tag k="name:en" v="Xuanwumen"/>
    <tag k="name:zh" v="宣武门"/>
    <tag k="public_transport" v="stop_position"/>
    <tag k="railway" v="station"/>
    <tag k="subway" v="yes"/>
  </node>
  <node id="1298408238" lat="39.9058340" lon="116.3505601">
    <tag k="name" v="复兴门"/>
    <tag k="name:en" v="Fuxingmen"/>
    <tag k="name:zh" v="复兴门"/>
    <tag k="public_transport" v="stop_position"/>
    <tag k="railway" v="station"/>
    <tag k="subway" v="yes"/>
  </node>
  <node id="1300399132" lat="39.9036463" lon="116.4209579">
    <tag k="name" v="北京站"/>
    <tag k="name:de" v="Bahnhof Peking"/>
    <tag k="name:en" v="Beijing Railway Station"/>
    <tag k="name:hu" v="Peking Főpályaudvar"/>
    <tag k="name:ja" v="北京駅"/>
    <tag k="name:ru" v="Пекинский вокзал"/>
    <tag k="name:zh" v="北京站"/>
    <tag k="railway" v="station"/>
    <tag k="subway" v="yes"/>
    <tag k="uic_ref" v="3300004"/>
  </node>
  <node id="1300399139" lat="39.8988164" lon="116.3916357">
    <tag k="name" v="前门"/>
    <tag k="name:en" v="Qianmen"/>
    <tag k="name:zh" v="前门"/>
    <tag k="name:zh_pinyin" v="Qiánmén"/>
    <tag k="public_transport" v="stop_position"/>
    <tag k="railway" v="station"/>
    <tag k="subway" v="yes"/>
  </node>
  <node id="1300399164" lat="39.8997355" lon="116.4107002">
    <tag k="name" v="崇文门"/>
    <tag k="name:en" v="Chongwenmen"/>
    <tag k="name:zh" v="崇文门"/>
    <tag k="public_transport" v="stop_position"/>
    <tag k="railway" v="station"/>
    <tag k="subway" v="yes"/>
  </node>
  <node id="1300399200" lat="39.8987573" lon="116.3779931">
    <tag k="name" v="和平门"/>
    <tag k="name:en" v="Hepingmen"/>
    <tag k="name:zh" v="和平门"/>
    <tag k="public_transport" v="stop_position"/>
    <tag k="railway" v="station"/>
    <tag k="subway" v="yes"/>
  </node>
  <node id="1301959211" lat="39.9060871" lon="116.3851594">
    <tag k="name" v="天安门西"/>
    <tag k="name:de" v="Tian'anmen West"/>
    <tag k="name:en" v="Tian'anmen West"/>
    <tag k="name:zh" v="天安门西"/>
    <tag k="name:zh_pinyin" v="Tiān'ānmén Xī Zhàn"/>
    <tag k="public_transport" v="stop_position"/>
    <tag k="railway" v="station"/>
    <tag k="subway" v="yes"/>
  </node>
  <node id="1301959286" lat="39.9058348" lon="116.3699260">
    <tag k="name" v="西单"/>
    <tag k="name:en" v="Xidan"/>
    <tag k="name:zh" v="西单"/>
    <tag k="public_transport" v="stop_position"/>
    <tag k="railway" v="station"/>
    <tag k="subway" v="yes"/>
  </node>
  <node id="1301959299" lat="39.9064243" lon="116.3949090">
    <tag k="name" v="天安门东"/>
    <tag k="name:de" v="Tian'anmen Ost"/>
    <tag k="name:en" v="Tian'anmen East"/>
    <tag k="name:zh" v="天安门东"/>
    <tag k="name:zh_pinyin" v="Tiān'ānmén Dōng Zhàn"/>
    <tag k="public_transport" v="stop_position"/>
    <tag k="railway" v="station"/>
    <tag k="subway" v="yes"/>
  </node>
  <node id="1302986802" lat="39.9067236" lon="116.4052091">
    <tag k="name" v="王府井"/>
    <tag k="name:en" v="Wangfujing"/>
    <tag k="name:zh" v="王府井"/>
    <tag k="public_transport" v="stop_position"/>
    <tag k="railway" v="station"/>
    <tag k="subway" v="yes"/>
  </node>
  <node id="1302996707" lat="39.9069683" lon="116.4139895">
    <tag k="name" v="东单"/>
    <tag k="name:en" v="Dongdan"/>
    <tag k="name:zh" v="东单"/>
    <tag k="public_transport" v="stop_position"/>
    <tag k="railway" v="station"/>
    <tag k="subway" v="yes"/>
  </node>
  <node id="1302996714" lat="39.9072104" lon="116.4287246">
    <tag k="name" v="建国门"/>
    <tag k="name:en" v="Jianguomen"/>
    <tag k="name:zh" v="建国门"/>
    <tag k="public_transport" v="stop_position"/>
    <tag k="railway" v="station"/>
    <tag k="subway" v="yes"/>
  </node>
  <node id="1302996716" lat="39.9071735" lon="116.4294892">
    <tag k="name" v="建国门"/>
    <tag k="name:en" v="Jianguomen"/>
    <tag k="name:zh" v="建国门"/>
    <tag k="public_transport" v="stop_position"/>
    <tag k="railway" v="station"/>
    <tag k="subway" v="yes"/>
  </node>
  <node id="1303500744" lat="39.9075436" lon="116.4893675">
    <tag k="name" v="四惠"/>
    <tag k="name:zh" v="四惠"/>
    <tag k="name:zh_pinyin" v="Sihui"/>
    <tag k="public_transport" v="stop_position"/>
    <tag k="railway" v="station"/>
    <tag k="subway" v="yes"/>
  </node>
  <node id="1303500793" lat="39.9071785" lon="116.4441527">
    <tag k="name" v="永安里"/>
    <tag k="name:en" v="Yonganli"/>
    <tag k="name:zh" v="永安里"/>
    <tag k="public_transport" v="stop_position"/>
    <tag k="railway" v="station"/>
    <tag k="subway" v="yes"/>
  </node>
  <node id="1303500859" lat="39.9071175" lon="116.4532960">
    <tag k="name" v="国贸"/>
    <tag k="name:en" v="Guomao"/>
    <tag k="name:zh" v="国贸"/>
    <tag k="public_transport" v="stop_position"/>
    <tag k="railway" v="station"/>
    <tag k="subway" v="yes"/>
  </node>
  <node id="1303500865" lat="39.9076952" lon="116.4893707">
    <tag k="name" v="四惠"/>
    <tag k="name:zh" v="四惠"/>
    <tag k="name:zh_pinyin" v="Sihui"/>
    <tag k="public_transport" v="stop_position"/>
    <tag k="railway" v="station"/>
    <tag k="subway" v="yes"/>
  </node>
  <node id="1303500901" lat="39.9070398" lon="116.4695974">
    <tag k="name" v="大望路"/>
    <tag k="name:en" v="Dawanglu"/>
    <tag k="name:zh" v="大望路"/>
    <tag k="public_transport" v="stop_position"/>
    <tag k="railway" v="station"/>
    <tag k="subway" v="yes"/>
  </node>
  <node id="1303502775" lat="39.9074299" lon="116.5093634">
    <tag k="name" v="四惠东"/>
    <tag k="name:en" v="Sihui East"/>
    <tag k="name:zh" v="四惠东"/>
    <tag k="public_transport" v="stop_position"/>
    <tag k="railway" v="station"/>
    <tag k="subway" v="yes"/>
  </node>
  <node id="1303502781" lat="39.9072629" lon="116.5093596">
    <tag k="name" v="四惠东"/>
    <tag k="name:en" v="Sihui East"/>
    <tag k="name:zh" v="四惠东"/>
    <tag k="public_transport" v="stop_position"/>
    <tag k="railway" v="station"/>
    <tag k="subway" v="yes"/>
  </node>
  <node id="1303519845" lat="39.9083568" lon="116.5254532">
    <tag k="name" v="高碑店"/>
    <tag k="name:en" v="Gaobeidian"/>
    <tag k="name:zh" v="高碑店"/>
    <tag k="public_transport" v="stop_position"/>
    <tag k="railway" v="station"/>
    <tag k="subway" v="yes"/>
  </node>
  <node id="1304706912" lat="39.9091732" lon="116.5709188">
    <tag k="name" v="双桥"/>
    <tag k="name:en" v="Shuangqiao"/>
    <tag k="name:zh" v="双桥"/>
    <tag k="public_transport" v="stop_position"/>
    <tag k="railway" v="station"/>
    <tag k="subway" v="yes"/>
  </node>
  <node id="1304706935" lat="39.9080792" lon="116.5488706">
    <tag k="name" v="传媒大学"/>
    <tag k="name:en" v="Communication University of China"/>
    <tag k="name:zh" v="传媒大学"/>
    <tag k="public_transport" v="stop_position"/>
    <tag k="railway" v="station"/>
    <tag k="subway" v="yes"/>
  </node>
  <node id="1304730582" lat="39.9080916" lon="116.5932054">
    <tag k="name" v="管庄"/>
    <tag k="name:en" v="Guanzhuang"/>
    <tag k="name:zh" v="管庄"/>
    <tag k="public_transport" v="stop_position"/>
    <tag k="railway" v="station"/>
    <tag k="subway" v="yes"/>
  </node>
  <node id="1304748253" lat="39.9050881" lon="116.6128429">
    <tag k="name" v="八里桥"/>
    <tag k="name:en" v="Baliqiao"/>
    <tag k="name:zh" v="八里桥"/>
    <tag k="public_transport" v="stop_position"/>
    <tag k="railway" v="station"/>
    <tag k="subway" v="yes"/>
  </node>
  <node id="1304785044" lat="39.8825642" lon="116.6627402">
    <tag k="name" v="梨园"/>
    <tag k="name:en" v="Liyuan"/>
    <tag k="name:zh" v="梨园"/>
    <tag k="public_transport" v="stop_position"/>
    <tag k="railway" v="station"/>
    <tag k="subway" v="yes"/>
  </node>
  <node id="1304785077" lat="39.8707601" lon="116.6802875">
    <tag k="name" v="土桥"/>
    <tag k="name:en" v="Tuqiao"/>
    <tag k="name:zh" v="土桥"/>
    <tag k="public_transport" v="stop_position"/>
    <tag k="railway" v="station"/>
    <tag k="subway" v="yes"/>
  </node>
  <node id="1304785099" lat="39.9028176" lon="116.6313868">
    <tag k="name" v="通州北苑"/>
    <tag k="name:en" v="Tongzhou Beiyuan"/>
    <tag k="name:zh" v="通州北苑"/>
    <tag k="public_transport" v="stop_position"/>
    <tag k="railway" v="station"/>
    <tag k="subway" v="yes"/>
  </node>
  <node id="1304785148" lat="39.8891486" lon="116.6516162">
    <tag k="name" v="九棵树"/>
    <tag k="name:en" v="Jiukeshu"/>
    <tag k="name:zh" v="九棵树"/>
    <tag k="public_transport" v="stop_position"/>
    <tag k="railway" v="station"/>
    <tag k="subway" v="yes"/>
  </node>
  <node id="1304785214" lat="39.8923005" lon="116.6407580">
    <tag k="name" v="果园"/>
    <tag k="name:en" v="Guoyuan"/>
    <tag k="name:zh" v="果园"/>
    <tag k="public_transport" v="stop_position"/>
    <tag k="railway" v="station"/>
    <tag k="subway" v="yes"/>
  </node>
  <node id="1304785245" lat="39.8891817" lon="116.6516273">
    <tag k="name" v="九棵树站"/>
    <tag k="name:en" v="Jiukeshu"/>
    <tag k="name:zh" v="九棵树站"/>
    <tag k="public_transport" v="stop_position"/>
    <tag k="railway" v="station"/>
    <tag k="subway" v="yes"/>
  </node>
  <node id="1304785249" lat="39.8742806" lon="116.6728357">
    <tag k="name" v="临河里"/>
    <tag k="name:en" v="Linheli"/>
    <tag k="name:zh" v="临河里"/>
    <tag k="public_transport" v="stop_position"/>
    <tag k="railway" v="station"/>
    <tag k="subway" v="yes"/>
  </node>
  <node id="1304785260" lat="39.8743103" lon="116.6728756">
    <tag k="name" v="临河里"/>
    <tag k="name:en" v="Linheli"/>
    <tag k="name:zh" v="临河里"/>
    <tag k="public_transport" v="stop_position"/>
    <tag k="railway" v="station"/>
    <tag k="subway" v="yes"/>
  </node>
  <node id="1304785289" lat="39.8825312" lon="116.6627085">
    <tag k="name" v="梨园"/>
    <tag k="name:en" v="Liyuan"/>
    <tag k="name:zh" v="梨园"/>
    <tag k="public_transport" v="stop_position"/>
    <tag k="railway" v="station"/>
    <tag k="subway" v="yes"/>
  </node>
  <node id="1305750649" lat="39.9403046" lon="116.3470711">
    <tag k="name" v="西直门"/>
    <tag k="name:en" v="Xizhimen"/>
    <tag k="name:zh" v="西直门"/>
    <tag k="public_transport" v="stop_position"/>
    <tag k="railway" v="station"/>
    <tag k="subway" v="yes"/>
  </node>
  <node id="1305750652" lat="39.9404291" lon="116.3471505">
    <tag k="name" v="西直门"/>
    <tag k="name:en" v="Xizhimen"/>
    <tag k="name:zh" v="西直门"/>
    <tag k="public_transport" v="stop_position"/>
    <tag k="railway" v="station"/>
    <tag k="subway" v="yes"/>
  </node>
  <node id="1305750653" lat="39.9652709" lon="116.3389967">
    <tag k="name" v="大钟寺"/>
    <tag k="name:en" v="Dazhongsi"/>
    <tag k="name:zh" v="大钟寺"/>
    <tag k="public_transport" v="stop_position"/>
    <tag k="railway" v="station"/>
    <tag k="subway" v="yes"/>
  </node>
  <node id="1305750663" lat="39.9402806" lon="116.3469724">
    <tag k="name" v="西直门"/>
    <tag k="name:en" v="Xizhimen"/>
    <tag k="name:zh" v="西直门"/>
    <tag k="public_transport" v="stop_position"/>
    <tag k="railway" v="station"/>
    <tag k="subway" v="yes"/>
  </node>
  <node id="1305782949" lat="39.9751441" lon="116.3338520">
    <tag k="name" v="知春路"/>
    <tag k="name:en" v="Zhichunlu"/>
    <tag k="name:zh" v="知春路"/>
    <tag k="public_transport" v="stop_position"/>
    <tag k="railway" v="station"/>
    <tag k="subway" v="yes"/>
  </node>
  <node id="1305782972" lat="40.0503340" lon="116.3010153">
    <tag k="name" v="西二旗"/>
    <tag k="name:en" v="Xi'erqi"/>
    <tag k="name:zh" v="西二旗"/>
    <tag k="public_transport" v="stop_position"/>
    <tag k="railway" v="station"/>
    <tag k="subway" v="yes"/>
  </node>
  <node id="1305782983" lat="40.0317623" lon="116.3140680">
    <tag k="name" v="上地"/>
    <tag k="name:en" v="Shangdi"/>
    <tag k="name:zh" v="上地"/>
    <tag k="public_transport" v="stop_position"/>
    <tag k="railway" v="station"/>
    <tag k="subway" v="yes"/>
  </node>
  <node id="1305783002" lat="39.9915751" lon="116.3316772">
    <tag k="name" v="五道口"/>
    <tag k="name:en" v="Wudaokou"/>
    <tag k="name:zh" v="五道口"/>
    <tag k="public_transport" v="stop_position"/>
    <tag k="railway" v="station"/>
    <tag k="subway" v="yes"/>
  </node>
  <node id="1306482810" lat="39.9669860" lon="116.4256679">
    <tag k="name" v="光熙门"/>
    <tag k="name:en" v="Guangximen"/>
    <tag k="name:zh" v="光熙门"/>
    <tag k="public_transport" v="stop_position"/>
    <tag k="railway" v="station"/>
    <tag k="subway" v="yes"/>
  </node>
  <node id="1306482812" lat="40.0695847" lon="116.3298933">
    <tag k="name" v="回龙观"/>
    <tag k="name:en" v="HUILONGGUAN"/>
    <tag k="name:ru" v="Хуилонгуан"/>
    <tag k="public_transport" v="stop_position"/>
    <tag k="railway" v="station"/>
    <tag k="subway" v="yes"/>
  </node>
  <node id="1306482817" lat="40.0693092" lon="116.3545712">
    <tag k="name" v="霍营"/>
    <tag k="name:en" v="HUOYING"/>
    <tag k="name:ru" v="Хуоин"/>
    <tag k="name:zh" v="霍营"/>
    <tag k="public_transport" v="stop_position"/>
    <tag k="railway" v="station"/>
    <tag k="subway" v="yes"/>
  </node>
  <node id="1306482822" lat="40.0695935" lon="116.3131915">
    <tag k="name" v="龙泽"/>
    <tag k="name:en" v="LONGZE"/>
    <tag k="name:ru" v="Лонгзе"/>
    <tag k="name:zh" v="龙泽"/>
    <tag k="public_transport" v="stop_position"/>
    <tag k="railway" v="station"/>
    <tag k="subway" v="yes"/>
  </node>
  <node id="1306482827" lat="40.0415147" lon="116.4282255">
    <tag k="name" v="北苑"/>
    <tag k="name:en" v="Beiyuan"/>
    <tag k="name:zh" v="北苑"/>
    <tag k="public_transport" v="stop_position"/>
    <tag k="railway" v="station"/>
    <tag k="subway" v="yes"/>
    <tag k="wheelchair" v="no"/>
  </node>
  <node id="1306482828" lat="40.0517006" lon="116.3000906">
    <tag k="name" v="西二旗"/>
    <tag k="name:en" v="Xi'erqi"/>
    <tag k="name:zh" v="西二旗"/>
    <tag k="public_transport" v="stop_position"/>
    <tag k="railway" v="station"/>
    <tag k="subway" v="yes"/>
  </node>
  <node id="1306482830" lat="40.0416443" lon="116.4283151">
    <tag k="name" v="北苑"/>
    <tag k="name:en" v="Beiyuan"/>
    <tag k="name:zh" v="北苑"/>
    <tag k="public_transport" v="stop_position"/>
    <tag k="railway" v="station"/>
    <tag k="subway" v="yes"/>
  </node>
  <node id="1306482831" lat="39.9568052" lon="116.4266391">
    <tag k="name" v="柳芳"/>
    <tag k="name:en" v="LIUFANG"/>
    <tag k="name:zh" v="柳芳"/>
    <tag k="public_transport" v="stop_position"/>
    <tag k="railway" v="station"/>
    <tag k="subway" v="yes"/>
  </node>
  <node id="1306482836" lat="40.0690544" lon="116.3545724">
    <tag k="name" v="霍营"/>
    <tag k="name:en" v="HUOYING"/>
    <tag k="name:ru" v="Хуоин"/>
    <tag k="name:zh" v="霍营"/>
    <tag k="public_transport" v="stop_position"/>
    <tag k="railway" v="station"/>
    <tag k="subway" v="yes"/>
  </node>
  <node id="1306482837" lat="39.9762477" lon="116.4297227">
    <tag k="name" v="芍药居"/>
    <tag k="name:en" v="Shaoyaoju"/>
    <tag k="name:zh" v="芍药居"/>
    <tag k="public_transport" v="stop_position"/>
    <tag k="railway" v="station"/>
    <tag k="subway" v="yes"/>
  </node>
  <node id="1306482838" lat="40.0514350" lon="116.4050517">
    <tag k="name" v="立水桥"/>
    <tag k="name:en" v="Lishuiqiao"/>
    <tag k="name:zh" v="立水桥"/>
    <tag k="public_transport" v="stop_position"/>
    <tag k="railway" v="station"/>
    <tag k="subway" v="yes"/>
  </node>
  <node id="1306482842" lat="39.9935892" lon="116.4411647">
    <tag k="name" v="望京西"/>
    <tag k="name:en" v="Wangjing West"/>
    <tag k="name:zh" v="望京西"/>
    <tag k="public_transport" v="stop_position"/>
    <tag k="railway" v="station"/>
    <tag k="subway" v="yes"/>
  </node>
  <node id="1306482845" lat="40.0693882" lon="116.3298866">
    <tag k="name" v="回龙观"/>
    <tag k="name:en" v="HUILONGGUAN"/>
    <tag k="name:ru" v="Хуилонгуан"/>
    <tag k="public_transport" v="stop_position"/>
    <tag k="railway" v="station"/>
    <tag k="subway" v="yes"/>
  </node>
  <node id="1306482846" lat="40.0694808" lon="116.3298907">
    <tag k="name" v="回龙观"/>
    <tag k="name:en" v="HUILONGGUAN"/>
    <tag k="name:ru" v="Хуилонгуан"/>
    <tag k="public_transport" v="stop_position"/>
    <tag k="railway" v="station"/>
    <tag k="subway" v="yes"/>
  </node>
  <node id="1306482851" lat="40.0516813" lon="116.3000321">
    <tag k="name" v="西二旗"/>
    <tag k="name:en" v="Xi'erqi"/>
    <tag k="name:zh" v="西二旗"/>
    <tag k="public_transport" v="stop_position"/>
    <tag k="railway" v="station"/>
    <tag k="subway" v="yes"/>
  </node>
  <node id="1306482856" lat="40.0692018" lon="116.3545712">
    <tag k="name" v="霍营"/>
    <tag k="name:en" v="HUOYING"/>
    <tag k="name:ru" v="Хуоин"/>
    <tag k="name:zh" v="霍营"/>
    <tag k="public_transport" v="stop_position"/>
    <tag k="railway" v="station"/>
    <tag k="subway" v="yes"/>
  </node>
  <node id="1306482857" lat="40.0517523" lon="116.3002436">
    <tag k="name" v="西二旗"/>
    <tag k="name:en" v="Xi'erqi"/>
    <tag k="name:zh" v="西二旗"/>
    <tag k="public_transport" v="stop_position"/>
    <tag k="railway" v="station"/>
    <tag k="subway" v="yes"/>
  </node>
  <node id="1306482860" lat="40.0516373" lon="116.4061486">
    <tag k="name" v="立水桥"/>
    <tag k="name:en" v="Lishuiqiao"/>
    <tag k="name:zh" v="立水桥"/>
    <tag k="public_transport" v="stop_position"/>
    <tag k="railway" v="station"/>
    <tag k="subway" v="yes"/>
  </node>
  <node id="1306564483" lat="39.9416336" lon="116.4286006">
    <tag k="name" v="东直门"/>
    <tag k="name:en" v="Dongzhimen"/>
    <tag k="name:zh" v="东直门"/>
    <tag k="public_transport" v="stop_position"/>
    <tag k="railway" v="station"/>
    <tag k="subway" v="yes"/>
  </node>
  <node id="1308668067" lat="39.9245785" lon="116.1323954">
    <tag k="name" v="养三"/>
    <tag k="railway" v="station"/>
  </node>
  <node id="1349005559" lat="39.9223114" lon="116.3501328">
    <tag k="name" v="阜成门"/>
    <tag k="name:en" v="Fuchengmen"/>
    <tag k="name:zh" v="阜成门"/>
    <tag k="public_transport" v="stop_position"/>
    <tag k="railway" v="station"/>
    <tag k="subway" v="yes"/>
  </node>
  <node id="1349005609" lat="39.9472675" lon="116.3670584">
    <tag k="name" v="积水潭"/>
    <tag k="name:en" v="Jishuitan"/>
    <tag k="name:zh" v="积水潭"/>
    <tag k="public_transport" v="stop_position"/>
    <tag k="railway" v="station"/>
    <tag k="subway" v="yes"/>
  </node>
  <node id="1349005633" lat="39.9310083" lon="116.3497426">
    <tag k="name" v="车公庄"/>
    <tag k="name:en" v="Chegongzhuang"/>
    <tag k="name:zh" v="车公庄"/>
    <tag k="public_transport" v="stop_position"/>
    <tag k="railway" v="station"/>
    <tag k="subway" v="yes"/>
  </node>
  <node id="1349005765" lat="39.9391464" lon="116.3494668">
    <tag k="name" v="西直门"/>
    <tag k="name:en" v="Xizhimen"/>
    <tag k="name:zh" v="西直门"/>
    <tag k="public_transport" v="stop_position"/>
    <tag k="railway" v="station"/>
    <tag k="subway" v="yes"/>
  </node>
  <node id="1349201959" lat="39.9474755" lon="116.3879199">
    <tag k="name" v="鼓楼大街"/>
    <tag k="name:en" v="Guloudajie"/>
    <tag k="name:zh" v="鼓楼大街"/>
    <tag k="public_transport" v="stop_position"/>
    <tag k="railway" v="station"/>
    <tag k="subway" v="yes"/>
  </node>
  <node id="1349201997" lat="39.9322864" lon="116.4279205">
    <tag k="name" v="东四十条"/>
    <tag k="name:en" v="Dongsi Shitiao"/>
    <tag k="name:zh" v="东四十条"/>
    <tag k="public_transport" v="stop_position"/>
    <tag k="railway" v="station"/>
    <tag k="subway" v="yes"/>
  </node>
  <node id="1349202004" lat="39.9397012" lon="116.4276063">
    <tag k="name" v="东直门"/>
    <tag k="name:en" v="Dongzhimen"/>
    <tag k="name:zh" v="东直门"/>
    <tag k="public_transport" v="stop_position"/>
    <tag k="railway" v="station"/>
    <tag k="subway" v="yes"/>
  </node>
  <node id="1349202021" lat="39.9230480" lon="116.4283033">
    <tag k="name" v="朝阳门"/>
    <tag k="name:en" v="Chaoyangmen"/>
    <tag k="name:zh" v="朝阳门"/>
    <tag k="public_transport" v="stop_position"/>
    <tag k="railway" v="station"/>
    <tag k="subway" v="yes"/>
  </node>
  <node id="1349202038" lat="39.9478727" lon="116.4115476">
    <tag k="name" v="雍和宫"/>
    <tag k="name:en" v="Yonghegong Lama Temple"/>
    <tag k="name:zh" v="雍和宫"/>
    <tag k="public_transport" v="stop_position"/>
    <tag k="railway" v="station"/>
    <tag k="subway" v="yes"/>
  </node>
  <node id="1349202053" lat="39.9476094" lon="116.4020695">
    <tag k="name" v="安定门"/>
    <tag k="name:en" v="Andingmen"/>
    <tag k="name:zh" v="安定门"/>
    <tag k="public_transport" v="stop_position"/>
    <tag k="railway" v="station"/>
    <tag k="subway" v="yes"/>
  </node>
  <node id="1350120241" lat="39.9734012" lon="116.2875094">
    <tag k="name" v="巴沟"/>
    <tag k="name:en" v="Bagou"/>
    <tag k="name:zh" v="巴沟"/>
    <tag k="public_transport" v="stop_position"/>
    <tag k="railway" v="station"/>
    <tag k="subway" v="yes"/>
  </node>
  <node id="1350120265" lat="39.9733177" lon="116.2875177">
    <tag k="name" v="巴沟"/>
    <tag k="name:en" v="Bagou"/>
    <tag k="name:zh" v="巴沟"/>
    <tag k="public_transport" v="stop_position"/>
    <tag k="railway" v="station"/>
    <tag k="subway" v="yes"/>
  </node>
  <node id="1350120271" lat="39.9732063" lon="116.2875249">
    <tag k="name" v="巴沟"/>
    <tag k="name:en" v="Bagou"/>
    <tag k="name:zh" v="巴沟"/>
    <tag k="public_transport" v="stop_position"/>
    <tag k="railway" v="station"/>
    <tag k="subway" v="yes"/>
  </node>
  <node id="1350216290" lat="39.9746994" lon="116.3115281">
    <tag k="name" v="海淀黄庄"/>
    <tag k="name:en" v="Haidian Huangzhuang"/>
    <tag k="name:zh" v="海淀黄庄"/>
    <tag k="public_transport" v="stop_position"/>
    <tag k="railway" v="station"/>
    <tag k="subway" v="yes"/>
  </node>
  <node id="1350216299" lat="39.9747373" lon="116.3115284">
    <tag k="name" v="海淀黄庄"/>
    <tag k="name:en" v="Haidian Huangzhuang"/>
    <tag k="name:zh" v="海淀黄庄"/>
    <tag k="public_transport" v="stop_position"/>
    <tag k="railway" v="station"/>
    <tag k="subway" v="yes"/>
  </node>
  <node id="1350216303" lat="39.9752340" lon="116.3357895">
    <tag k="name" v="知春路"/>
    <tag k="name:en" v="Zhichunlu"/>
    <tag k="name:zh" v="知春路"/>
    <tag k="public_transport" v="stop_position"/>
    <tag k="railway" v="station"/>
    <tag k="subway" v="yes"/>
  </node>
  <node id="1350216305" lat="39.9749955" lon="116.3229298">
    <tag k="name" v="知春里"/>
    <tag k="name:en" v="Zhichunli"/>
    <tag k="name:zh" v="知春里"/>
    <tag k="public_transport" v="stop_position"/>
    <tag k="railway" v="station"/>
    <tag k="subway" v="yes"/>
  </node>
  <node id="1350216464" lat="39.9749650" lon="116.3630791">
    <tag k="name" v="牡丹园"/>
    <tag k="name:en" v="Mudanyuan"/>
    <tag k="name:zh" v="牡丹园"/>
    <tag k="public_transport" v="stop_position"/>
    <tag k="railway" v="station"/>
  </node>
  <node id="1350216513" lat="39.9743915" lon="116.3001941">
    <tag k="name" v="苏州街"/>
    <tag k="name:en" v="Suzhoujie"/>
    <tag k="name:zh" v="苏州街"/>
    <tag k="public_transport" v="stop_position"/>
    <tag k="railway" v="station"/>
  </node>
  <node id="1350216520" lat="39.9749496" lon="116.3477606">
    <tag k="name" v="西土城"/>
    <tag k="name:en" v="Xitucheng"/>
    <tag k="name:zh" v="西土城"/>
    <tag k="public_transport" v="stop_position"/>
    <tag k="railway" v="station"/>
  </node>
  <node id="1350250931" lat="39.9751411" lon="116.3749394">
    <tag k="name" v="健德门"/>
    <tag k="name:en" v="Jiandemen"/>
    <tag k="name:zh" v="健德门"/>
    <tag k="public_transport" v="stop_position"/>
    <tag k="railway" v="station"/>
  </node>
  <node id="1350250932" lat="39.9757484" lon="116.3879632">
    <tag k="name" v="北土城"/>
    <tag k="name:en" v="Beitucheng"/>
    <tag k="name:zh" v="北土城"/>
    <tag k="public_transport" v="stop_position"/>
    <tag k="railway" v="station"/>
    <tag k="subway" v="yes"/>
  </node>
  <node id="1350293257" lat="39.9713542" lon="116.4412353">
    <tag k="name" v="太阳宫"/>
    <tag k="name:en" v="Taiyanggong"/>
    <tag k="name:zh" v="太阳宫"/>
    <tag k="public_transport" v="stop_position"/>
    <tag k="railway" v="station"/>
  </node>
  <node id="1350293258" lat="39.9756542" lon="116.3993566">
    <tag k="name" v="安贞门"/>
    <tag k="name:en" v="Anzhenmen"/>
    <tag k="name:zh" v="安贞门"/>
    <tag k="public_transport" v="stop_position"/>
    <tag k="railway" v="station"/>
  </node>
  <node id="1350293259" lat="39.9758256" lon="116.3993626">
    <tag k="name" v="安贞门"/>
    <tag k="name:en" v="Anzhenmen"/>
    <tag k="name:zh" v="安贞门"/>
    <tag k="public_transport" v="stop_position"/>
    <tag k="railway" v="station"/>
  </node>
  <node id="1350293260" lat="39.9861787" lon="116.4108896">
    <tag k="name" v="惠新西街北口"/>
    <tag k="name:en" v="Huixinxijie Beikou"/>
    <tag k="name:zh" v="惠新西街北口"/>
    <tag k="public_transport" v="stop_position"/>
    <tag k="railway" v="station"/>
    <tag k="subway" v="yes"/>
  </node>
  <node id="1350293261" lat="39.9756942" lon="116.4112805">
    <tag k="name" v="惠新西街南口"/>
    <tag k="name:en" v="Huixinxijie Nankou"/>
    <tag k="name:zh" v="惠新西街南口"/>
    <tag k="public_transport" v="stop_position"/>
    <tag k="railway" v="station"/>
    <tag k="subway" v="yes"/>
  </node>
  <node id="1350293262" lat="39.9759567" lon="116.4112695">
    <tag k="name" v="惠新西街南口"/>
    <tag k="name:en" v="Huixinxijie Nankou"/>
    <tag k="name:zh" v="惠新西街南口"/>
    <tag k="public_transport" v="stop_position"/>
    <tag k="railway" v="station"/>
    <tag k="subway" v="yes"/>
  </node>
  <node id="1350293320" lat="39.9757715" lon="116.4316062">
    <tag k="name" v="芍药居"/>
    <tag k="name:en" v="Shaoyaoju"/>
    <tag k="name:zh" v="芍药居"/>
    <tag k="public_transport" v="stop_position"/>
    <tag k="railway" v="station"/>
    <tag k="subway" v="yes"/>
  </node>
  <node id="1351108938" lat="40.0780121" lon="116.5871332">
    <tag k="name" v="2号航站楼"/>
    <tag k="name:en" v="Terminal 2"/>
    <tag k="name:zh" v="2号航站楼"/>
    <tag k="public_transport" v="stop_position"/>
    <tag k="railway" v="station"/>
    <tag k="subway" v="yes"/>
  </node>
  <node id="1351202217" lat="39.9597643" lon="116.4514183">
    <tag k="name" v="三元桥"/>
    <tag k="name:en" v="Sanyuanqiao"/>
    <tag k="name:zh" v="三元桥"/>
    <tag k="public_transport" v="stop_position"/>
    <tag k="railway" v="station"/>
  </node>
  <node id="1351202220" lat="39.9481368" lon="116.4563847">
    <tag k="name" v="亮马桥"/>
    <tag k="name:en" v="Liangmaqiao"/>
    <tag k="name:zh" v="亮马桥"/>
    <tag k="public_transport" v="stop_position"/>
    <tag k="railway" v="station"/>
  </node>
  <node id="1351272524" lat="39.9402489" lon="116.4563594">
    <tag k="name" v="农业展览馆"/>
    <tag k="name:en" v="Agricultural Exhibition Center"/>
    <tag k="name:zh" v="农业展览馆"/>
    <tag k="public_transport" v="stop_position"/>
    <tag k="railway" v="station"/>
  </node>
  <node id="1351272526" lat="39.8830717" lon="116.4551987">
    <tag k="name" v="劲松"/>
    <tag k="name:en" v="Jinsong"/>
    <tag k="name:zh" v="劲松"/>
    <tag k="public_transport" v="stop_position"/>
    <tag k="railway" v="station"/>
    <tag k="subway" v="yes"/>
  </node>
  <node id="1351272528" lat="39.8921664" lon="116.4553372">
    <tag k="name" v="双井"/>
    <tag k="name:en" v="Shuangjing"/>
    <tag k="name:zh" v="双井"/>
    <tag k="public_transport" v="stop_position"/>
    <tag k="railway" v="station"/>
  </node>
  <node id="1351272550" lat="39.9219807" lon="116.4557482">
    <tag k="name" v="呼家楼"/>
    <tag k="name:en" v="Hujialou"/>
    <tag k="name:zh" v="呼家楼"/>
    <tag k="public_transport" v="stop_position"/>
    <tag k="railway" v="station"/>
  </node>
  <node id="1351272555" lat="39.9323063" lon="116.4558501">
    <tag k="name" v="团结湖"/>
    <tag k="name:en" v="Tuanjiehu"/>
    <tag k="name:zh" v="团结湖"/>
    <tag k="public_transport" v="stop_position"/>
    <tag k="railway" v="station"/>
  </node>
  <node id="1351272556" lat="39.9078762" lon="116.4559910">
    <tag k="name" v="国贸"/>
    <tag k="name:en" v="Guomao"/>
    <tag k="name:zh" v="国贸"/>
    <tag k="public_transport" v="stop_position"/>
    <tag k="railway" v="station"/>
    <tag k="subway" v="yes"/>
  </node>
  <node id="1351272769" lat="39.9159459" lon="116.4558371">
    <tag k="name" v="金台夕照"/>
    <tag k="name:en" v="Jintaixizhao"/>
    <tag k="name:zh" v="金台夕照"/>
    <tag k="public_transport" v="stop_position"/>
    <tag k="railway" v="station"/>
  </node>
  <node id="1352161813" lat="39.9764013" lon="116.3880571">
    <tag k="name" v="北土城"/>
    <tag k="name:en" v="Beitucheng"/>
    <tag k="name:zh" v="北土城"/>
    <tag k="public_transport" v="stop_position"/>
    <tag k="railway" v="station"/>
    <tag k="subway" v="yes"/>
  </node>
  <node id="1352161814" lat="39.9841376" lon="116.3876868">
    <tag k="name" v="奥体中心"/>
    <tag k="name:en" v="Olympic Sports Center"/>
    <tag k="name:zh" v="奥体中心"/>
    <tag k="public_transport" v="stop_position"/>
    <tag k="railway" v="station"/>
    <tag k="subway" v="yes"/>
  </node>
  <node id="1352161815" lat="39.9993264" lon="116.3869738">
    <tag k="name" v="奥林匹克公园"/>
    <tag k="name:en" v="Olympic Green"/>
    <tag k="name:zh" v="奥林匹克公园"/>
    <tag k="public_transport" v="stop_position"/>
    <tag k="railway" v="station"/>
    <tag k="subway" v="yes"/>
  </node>
  <node id="1352161816" lat="40.0092004" lon="116.3865179">
    <tag k="name" v="森林公园南门"/>
    <tag k="name:en" v="South Gate of Forest Park"/>
    <tag k="name:zh" v="森林公园南门"/>
    <tag k="public_transport" v="stop_position"/>
    <tag k="railway" v="station"/>
    <tag k="subway" v="yes"/>
  </node>
  <node id="1352180909" lat="39.8064332" lon="116.2854757">
    <tag k="name" v="大葆台"/>
    <tag k="name:en" v="Dabaotai"/>
    <tag k="name:zh" v="大葆台"/>
    <tag k="public_transport" v="stop_position"/>
    <tag k="railway" v="station"/>
    <tag k="subway" v="yes"/>
  </node>
  <node id="1352354123" lat="40.0689143" lon="116.5492602">
    <tag k="name" v="国展"/>
    <tag k="name:en" v="China International Exhibition Center"/>
    <tag k="name:zh" v="国展"/>
    <tag k="name:zh_pinyin" v="Guózhăn"/>
    <tag k="public_transport" v="stop_position"/>
    <tag k="railway" v="station"/>
    <tag k="subway" v="yes"/>
  </node>
  <node id="1352354126" lat="40.0439512" lon="116.5287171">
    <tag k="name" v="孙河"/>
    <tag k="name:en" v="SUNHE"/>
    <tag k="name:zh" v="孙河"/>
    <tag k="name:zh_pinyin" v="Sūnhé"/>
    <tag k="public_transport" v="stop_position"/>
    <tag k="railway" v="station"/>
    <tag k="subway" v="yes"/>
  </node>
  <node id="1352354770" lat="40.0833525" lon="116.5517422">
    <tag k="name" v="花梨坎"/>
    <tag k="name:en" v="HUALIKAN"/>
    <tag k="name:zh" v="花梨坎"/>
    <tag k="name:zh_pinyin" v="Huālíkăn"/>
    <tag k="public_transport" v="stop_position"/>
    <tag k="railway" v="station"/>
    <tag k="subway" v="yes"/>
  </node>
  <node id="1352542142" lat="40.0324176" lon="116.4981851">
    <tag k="name" v="马泉营"/>
    <tag k="name:en" v="MAQUANYING"/>
    <tag k="name:zh" v="马泉营"/>
    <tag k="name:zh_pinyin" v="Măquányíng"/>
    <tag k="public_transport" v="stop_position"/>
    <tag k="railway" v="station"/>
    <tag k="subway" v="yes"/>
  </node>
  <node id="1352542145" lat="40.0325447" lon="116.4981748">
    <tag k="name" v="马泉营"/>
    <tag k="name:en" v="MAQUANYING"/>
    <tag k="name:zh" v="马泉营"/>
    <tag k="name:zh_pinyin" v="Măquányíng"/>
    <tag k="public_transport" v="stop_position"/>
    <tag k="railway" v="station"/>
    <tag k="subway" v="yes"/>
  </node>
  <node id="1352542153" lat="40.0326265" lon="116.4981613">
    <tag k="name" v="马泉营"/>
    <tag k="name:en" v="MAQUANYING"/>
    <tag k="name:zh" v="马泉营"/>
    <tag k="name:zh_pinyin" v="Măquányíng"/>
    <tag k="public_transport" v="stop_position"/>
    <tag k="railway" v="station"/>
    <tag k="subway" v="yes"/>
  </node>
  <node id="1352557094" lat="40.0205651" lon="116.4866625">
    <tag k="name" v="崔各庄"/>
    <tag k="name:en" v="CUIGEZHUANG"/>
    <tag k="name:zh" v="崔各庄"/>
    <tag k="name:zh_pinyin" v="Cuīgèzhuāng"/>
    <tag k="public_transport" v="stop_position"/>
    <tag k="railway" v="station"/>
    <tag k="subway" v="yes"/>
  </node>
  <node id="1353434209" lat="39.8115848" lon="116.5960066">
    <tag k="name" v="亦庄火车站"/>
    <tag k="name:en" v="Yizhuang Railway Station"/>
    <tag k="name:zh" v="亦庄火车站"/>
    <tag k="name:zh_pinyin" v="Yìzhuāng Huŏchēzhàn"/>
    <tag k="public_transport" v="stop_position"/>
    <tag k="railway" v="station"/>
    <tag k="subway" v="yes"/>
  </node>
  <node id="1353434213" lat="39.7718100" lon="116.5340587">
    <tag k="name" v="同济南路"/>
    <tag k="name:en" v="Tongjinanlu"/>
    <tag k="name:zh" v="同济南路"/>
    <tag k="name:zh_pinyin" v="Tóngjìnánlù"/>
    <tag k="public_transport" v="stop_position"/>
    <tag k="railway" v="station"/>
    <tag k="subway" v="yes"/>
  </node>
  <node id="1353434228" lat="39.7718988" lon="116.5339813">
    <tag k="name" v="同济南路"/>
    <tag k="name:en" v="Tongjinanlu"/>
    <tag k="name:zh" v="同济南路"/>
    <tag k="name:zh_pinyin" v="Tóngjìnánlù"/>
    <tag k="public_transport" v="stop_position"/>
    <tag k="railway" v="station"/>
    <tag k="subway" v="yes"/>
  </node>
  <node id="1353434231" lat="39.8025918" lon="116.5855680">
    <tag k="name" v="次渠"/>
    <tag k="name:en" v="Ciqu"/>
    <tag k="name:zh" v="次渠"/>
    <tag k="name:zh_pinyin" v="Cìqú"/>
    <tag k="public_transport" v="stop_position"/>
    <tag k="railway" v="station"/>
    <tag k="subway" v="yes"/>
  </node>
  <node id="1353434234" lat="39.7938040" lon="116.5752161">
    <tag k="name" v="次渠南"/>
    <tag k="name:en" v="Ciqu South"/>
    <tag k="name:zh" v="次渠南"/>
    <tag k="name:zh_pinyin" v="Cìqúnán"/>
    <tag k="public_transport" v="stop_position"/>
    <tag k="railway" v="station"/>
    <tag k="subway" v="yes"/>
  </node>
  <node id="1353434236" lat="39.7826035" lon="116.5565073">
    <tag k="name" v="经海路"/>
    <tag k="name:en" v="Jinghailu"/>
    <tag k="name:zh" v="经海路"/>
    <tag k="name:zh_pinyin" v="Jīnghăilù"/>
    <tag k="public_transport" v="stop_position"/>
    <tag k="railway" v="station"/>
    <tag k="subway" v="yes"/>
  </node>
  <node id="1353434676" lat="39.8103924" lon="116.5979858"/>
  <node id="1353434689" lat="39.8107350" lon="116.5983655"/>
  <node id="1353434699" lat="39.8129202" lon="116.5941196"/>
  <node id="1353434703" lat="39.8132629" lon="116.5944993"/>
  <node id="1353434788" lat="39.7817064" lon="116.5158714">
    <tag k="name" v="荣昌东街"/>
    <tag k="name:en" v="Rongchangdongjie"/>
    <tag k="name:zh" v="荣昌东街"/>
    <tag k="name:zh_pinyin" v="Róngchāngdōngjiē"/>
    <tag k="public_transport" v="stop_position"/>
    <tag k="railway" v="station"/>
    <tag k="subway" v="yes"/>
  </node>
  <node id="1357687987" lat="40.0404878" lon="116.4082840">
    <tag k="name" v="立水桥南"/>
    <tag k="name:en" v="LISHUIQIAO South"/>
    <tag k="name:ru" v="Лишуйциао-Южный"/>
    <tag k="name:zh" v="立水桥南"/>
    <tag k="public_transport" v="stop_position"/>
    <tag k="railway" v="station"/>
    <tag k="subway" v="yes"/>
  </node>
  <node id="1357687998" lat="40.0737835" lon="116.4066140">
    <tag k="name" v="天通苑"/>
    <tag k="name:en" v="TIANTONGYUAN"/>
    <tag k="name:zh" v="天通苑"/>
    <tag k="name:zh_pinyin" v="tiāntōngyuàn"/>
    <tag k="public_transport" v="stop_position"/>
    <tag k="railway" v="station"/>
    <tag k="subway" v="yes"/>
  </node>
  <node id="1357688154" lat="40.0289788" lon="116.4118692">
    <tag k="name" v="北苑路北"/>
    <tag k="name:en" v="Beiyuanlu North"/>
    <tag k="name:zh" v="北苑路北"/>
    <tag k="public_transport" v="stop_position"/>
    <tag k="railway" v="station"/>
    <tag k="subway" v="yes"/>
  </node>
  <node id="1357688156" lat="40.0820906" lon="116.4067455">
    <tag k="name" v="天通苑北"/>
    <tag k="name:en" v="Tiantongyuan North"/>
    <tag k="name:zh" v="天通苑北"/>
    <tag k="public_transport" v="stop_position"/>
    <tag k="railway" v="station"/>
    <tag k="subway" v="yes"/>
  </node>
  <node id="1357688158" lat="40.0651231" lon="116.4065063">
    <tag k="name" v="天通苑南"/>
    <tag k="name:en" v="Tiantongyuan South"/>
    <tag k="name:zh" v="天通苑南"/>
    <tag k="name:zh_pinyin" v="tiāntōngyuànnán"/>
    <tag k="public_transport" v="stop_position"/>
    <tag k="railway" v="station"/>
    <tag k="subway" v="yes"/>
  </node>
  <node id="1357810095" lat="39.9231298" lon="116.4115577">
    <tag k="name" v="东四"/>
    <tag k="name:en" v="DONGSI"/>
    <tag k="name:zh" v="东四"/>
    <tag k="public_transport" v="stop_position"/>
    <tag k="railway" v="station"/>
    <tag k="subway" v="yes"/>
  </node>
  <node id="1357810241" lat="39.9068683" lon="116.4122459">
    <tag k="name" v="东单"/>
    <tag k="name:en" v="Dongdan"/>
    <tag k="name:zh" v="东单"/>
    <tag k="public_transport" v="stop_position"/>
    <tag k="railway" v="station"/>
    <tag k="subway" v="yes"/>
  </node>
  <node id="1357810242" lat="39.9394072" lon="116.4107992">
    <tag k="name" v="北新桥"/>
    <tag k="name:en" v="Beixinqiao"/>
    <tag k="name:zh" v="北新桥"/>
    <tag k="public_transport" v="stop_position"/>
    <tag k="railway" v="station"/>
    <tag k="subway" v="yes"/>
  </node>
  <node id="1357810257" lat="39.9666802" lon="116.4117077">
    <tag k="name" v="和平西桥"/>
    <tag k="name:en" v="Hepingxiqiao"/>
    <tag k="name:zh" v="和平西桥"/>
    <tag k="public_transport" v="stop_position"/>
    <tag k="railway" v="station"/>
    <tag k="subway" v="yes"/>
  </node>
  <node id="1357810260" lat="39.9573904" lon="116.4121496">
    <tag k="name" v="和平里北街"/>
    <tag k="name:en" v="Hepinglibeijie"/>
    <tag k="name:zh" v="和平里北街"/>
    <tag k="public_transport" v="stop_position"/>
    <tag k="railway" v="station"/>
    <tag k="subway" v="yes"/>
  </node>
  <node id="1357810263" lat="39.9322850" lon="116.4112084">
    <tag k="name" v="张自忠路"/>
    <tag k="name:en" v="Zhangzizhonglu"/>
    <tag k="name:zh" v="张自忠路"/>
    <tag k="public_transport" v="stop_position"/>
    <tag k="railway" v="station"/>
    <tag k="subway" v="yes"/>
  </node>
  <node id="1357810266" lat="39.9154119" lon="116.4117401">
    <tag k="name" v="灯市口"/>
    <tag k="name:en" v="Dengshikou"/>
    <tag k="name:zh" v="灯市口"/>
    <tag k="public_transport" v="stop_position"/>
    <tag k="railway" v="station"/>
    <tag k="subway" v="yes"/>
  </node>
  <node id="1357810270" lat="39.9469688" lon="116.4100754">
    <tag k="name" v="雍和宫"/>
    <tag k="name:en" v="Yonghegong Lama Temple"/>
    <tag k="name:zh" v="雍和宫"/>
    <tag k="public_transport" v="stop_position"/>
    <tag k="railway" v="station"/>
    <tag k="subway" v="yes"/>
  </node>
  <node id="1359089771" lat="39.8994899" lon="116.4122698">
    <tag k="name" v="崇文门"/>
    <tag k="name:en" v="Chongwenmen"/>
    <tag k="name:zh" v="崇文门"/>
    <tag k="public_transport" v="stop_position"/>
    <tag k="railway" v="station"/>
    <tag k="subway" v="yes"/>
  </node>
  <node id="1359090014" lat="39.8559424" lon="116.4155282">
    <tag k="name" v="刘家窑"/>
    <tag k="name:en" v="Liujiayao"/>
    <tag k="name:zh" v="刘家窑"/>
    <tag k="public_transport" v="stop_position"/>
    <tag k="railway" v="station"/>
    <tag k="subway" v="yes"/>
  </node>
  <node id="1359090015" lat="39.8822564" lon="116.4144792">
    <tag k="name" v="天坛东门"/>
    <tag k="name:en" v="Tiantandongmen"/>
    <tag k="name:zh" v="天坛东门"/>
    <tag k="public_transport" v="stop_position"/>
    <tag k="railway" v="station"/>
    <tag k="subway" v="yes"/>
  </node>
  <node id="1359090016" lat="39.8443610" lon="116.4220124">
    <tag k="name" v="宋家庄"/>
    <tag k="name:en" v="Songjiazhuang"/>
    <tag k="name:zh" v="宋家庄"/>
    <tag k="name:zh_pinyin" v="Sòngjiāzhuāng"/>
    <tag k="public_transport" v="stop_position"/>
    <tag k="railway" v="station"/>
    <tag k="subway" v="yes"/>
  </node>
  <node id="1359090017" lat="39.8916994" lon="116.4125418">
    <tag k="name" v="磁器口"/>
    <tag k="name:en" v="Ciqikou"/>
    <tag k="name:zh" v="磁器口"/>
    <tag k="public_transport" v="stop_position"/>
    <tag k="railway" v="station"/>
    <tag k="subway" v="yes"/>
  </node>
  <node id="1359090018" lat="39.8641213" lon="116.4153572">
    <tag k="name" v="蒲黄榆"/>
    <tag k="name:en" v="Puhuangyu"/>
    <tag k="name:zh" v="蒲黄榆"/>
    <tag k="public_transport" v="stop_position"/>
    <tag k="railway" v="station"/>
    <tag k="subway" v="yes"/>
  </node>
  <node id="1362259024" lat="39.9983960" lon="116.3036409">
    <tag k="name" v="圆明园"/>
    <tag k="name:en" v="Yuanmingyuan Park"/>
    <tag k="name:zh" v="圆明园"/>
    <tag k="public_transport" v="stop_position"/>
    <tag k="railway" v="station"/>
    <tag k="subway" v="yes"/>
  </node>
  <node id="1362259110" lat="40.0013054" lon="116.2713689">
    <tag k="name" v="北宫门"/>
    <tag k="name:en" v="Beigongmen"/>
    <tag k="name:zh" v="北宫门"/>
    <tag k="public_transport" v="stop_position"/>
    <tag k="railway" v="station"/>
    <tag k="subway" v="yes"/>
  </node>
  <node id="1362259112" lat="40.0110237" lon="116.2638443">
    <tag k="name" v="安河桥北"/>
    <tag k="name:en" v="Anheqiao North"/>
    <tag k="name:zh" v="安河桥北"/>
    <tag k="public_transport" v="stop_position"/>
    <tag k="railway" v="station"/>
    <tag k="subway" v="yes"/>
  </node>
  <node id="1362259113" lat="40.0110255" lon="116.2639813">
    <tag k="name" v="安河桥北"/>
    <tag k="name:en" v="Anheqiao North"/>
    <tag k="name:zh" v="安河桥北"/>
    <tag k="public_transport" v="stop_position"/>
    <tag k="railway" v="station"/>
    <tag k="subway" v="yes"/>
  </node>
  <node id="1362259114" lat="39.9971535" lon="116.2845941">
    <tag k="name" v="西苑"/>
    <tag k="name:en" v="Xiyuan"/>
    <tag k="name:zh" v="西苑"/>
    <tag k="public_transport" v="stop_position"/>
    <tag k="railway" v="station"/>
    <tag k="subway" v="yes"/>
  </node>
  <node id="1362276343" lat="39.9908129" lon="116.3098006">
    <tag k="name" v="北京大学东门"/>
    <tag k="name:en" v="East Gate of Peking University"/>
    <tag k="name:zh" v="北京大学东门"/>
    <tag k="public_transport" v="stop_position"/>
    <tag k="railway" v="station"/>
    <tag k="subway" v="yes"/>
  </node>
  <node id="1362276541" lat="39.9826952" lon="116.3104582">
    <tag k="name" v="中关村"/>
    <tag k="name:en" v="Zhongguancun"/>
    <tag k="name:zh" v="中关村"/>
    <tag k="public_transport" v="stop_position"/>
    <tag k="railway" v="station"/>
    <tag k="subway" v="yes"/>
  </node>
  <node id="1362276543" lat="39.9747448" lon="116.3116292">
    <tag k="name" v="海淀黄庄"/>
    <tag k="name:en" v="Haidian Huangzhuang"/>
    <tag k="name:zh" v="海淀黄庄"/>
    <tag k="public_transport" v="stop_position"/>
    <tag k="railway" v="station"/>
    <tag k="subway" v="yes"/>
  </node>
  <node id="1364084980" lat="39.9811167" lon="116.3330131">
    <tag k="name" v="清华园"/>
    <tag k="name:en" v="Qinghuayuan"/>
    <tag k="name:zh" v="清华园"/>
    <tag k="public_transport" v="stop_position"/>
    <tag k="railway" v="station"/>
  </node>
  <node id="1364084981" lat="39.9811312" lon="116.3331644">
    <tag k="name" v="清华园"/>
    <tag k="name:en" v="Qinghuayuan"/>
    <tag k="name:zh" v="清华园"/>
    <tag k="public_transport" v="stop_position"/>
    <tag k="railway" v="station"/>
  </node>
  <node id="1364282596" lat="39.9370350" lon="116.3327128">
    <tag k="name" v="动物园"/>
    <tag k="name:en" v="Beijing Zoo"/>
    <tag k="name:zh" v="动物园"/>
    <tag k="public_transport" v="stop_position"/>
    <tag k="railway" v="station"/>
    <tag k="subway" v="yes"/>
  </node>
  <node id="1364282597" lat="39.9418329" lon="116.3190160">
    <tag k="name" v="国家图书馆"/>
    <tag k="name:en" v="National Library"/>
    <tag k="name:zh" v="国家图书馆"/>
    <tag k="public_transport" v="stop_position"/>
    <tag k="railway" v="station"/>
    <tag k="subway" v="yes"/>
  </node>
  <node id="1364282598" lat="39.9418355" lon="116.3190576">
    <tag k="name" v="国家图书馆"/>
    <tag k="name:en" v="National Library"/>
    <tag k="name:zh" v="国家图书馆"/>
    <tag k="public_transport" v="stop_position"/>
    <tag k="railway" v="station"/>
    <tag k="subway" v="yes"/>
  </node>
  <node id="1364282599" lat="39.9418448" lon="116.3192083">
    <tag k="name" v="国家图书馆"/>
    <tag k="name:en" v="National Library"/>
    <tag k="name:zh" v="国家图书馆"/>
    <tag k="public_transport" v="stop_position"/>
    <tag k="railway" v="station"/>
    <tag k="subway" v="yes"/>
  </node>
  <node id="1364282600" lat="39.9657887" lon="116.3158124">
    <tag k="name" v="人民大学"/>
    <tag k="name:en" v="Renmin University"/>
    <tag k="name:zh" v="人民大学"/>
    <tag k="public_transport" v="stop_position"/>
    <tag k="railway" v="station"/>
    <tag k="subway" v="yes"/>
  </node>
  <node id="1364282601" lat="39.9392064" lon="116.3493742">
    <tag k="name" v="西直门"/>
    <tag k="name:en" v="Xizhimen"/>
    <tag k="name:zh" v="西直门"/>
    <tag k="public_transport" v="stop_position"/>
    <tag k="railway" v="station"/>
    <tag k="subway" v="yes"/>
  </node>
  <node id="1364282703" lat="39.9563472" lon="116.3172733">
    <tag k="name" v="魏公村"/>
    <tag k="name:en" v="Weigongcun"/>
    <tag k="name:zh" v="魏公村"/>
    <tag k="public_transport" v="stop_position"/>
    <tag k="railway" v="station"/>
    <tag k="subway" v="yes"/>
  </node>
  <node id="1366323834" lat="40.0394503" lon="116.3093117">
    <tag k="name" v="清河"/>
    <tag k="name:en" v="Qinghe"/>
    <tag k="name:ru" v="Цинхе"/>
    <tag k="name:zh" v="清河"/>
    <tag k="public_transport" v="stop_position"/>
    <tag k="railway" v="station"/>
  </node>
  <node id="1366335070" lat="40.0394765" lon="116.3093930">
    <tag k="name" v="清河"/>
    <tag k="name:en" v="Qinghe"/>
    <tag k="name:ru" v="Цинхе"/>
    <tag k="name:zh" v="清河"/>
    <tag k="public_transport" v="stop_position"/>
    <tag k="railway" v="station"/>
  </node>
  <node id="1417716391" lat="39.8272093" lon="116.2005512">
    <tag k="name" v="长辛店"/>
    <tag k="railway" v="station"/>
  </node>
  <node id="1417716392" lat="39.8272760" lon="116.2003422">
    <tag k="name" v="长辛店"/>
    <tag k="railway" v="station"/>
  </node>
  <node id="1419186468" lat="40.0691207" lon="116.3423389">
    <tag k="name" v="黄土店"/>
    <tag k="public_transport" v="stop_position"/>
    <tag k="railway" v="station"/>
  </node>
  <node id="1419861955" lat="39.9430318" lon="116.3465335">
    <tag k="name" v="北京北"/>
    <tag k="public_transport" v="stop_position"/>
    <tag k="railway" v="station"/>
  </node>
  <node id="1419861956" lat="39.9430487" lon="116.3466005">
    <tag k="name" v="北京北"/>
    <tag k="public_transport" v="stop_position"/>
    <tag k="railway" v="station"/>
  </node>
  <node id="1419861957" lat="39.9430902" lon="116.3467654">
    <tag k="name" v="北京北"/>
    <tag k="public_transport" v="stop_position"/>
    <tag k="railway" v="station"/>
  </node>
  <node id="1419861958" lat="39.9431030" lon="116.3468160">
    <tag k="name" v="北京北"/>
    <tag k="public_transport" v="stop_position"/>
    <tag k="railway" v="station"/>
  </node>
  <node id="1419861959" lat="39.9431470" lon="116.3469902">
    <tag k="name" v="北京北"/>
    <tag k="public_transport" v="stop_position"/>
    <tag k="railway" v="station"/>
  </node>
  <node id="1419861960" lat="39.9431603" lon="116.3470431">
    <tag k="name" v="北京北"/>
    <tag k="public_transport" v="stop_position"/>
    <tag k="railway" v="station"/>
  </node>
  <node id="1419861962" lat="39.9432029" lon="116.3472121">
    <tag k="name" v="北京北"/>
    <tag k="public_transport" v="stop_position"/>
    <tag k="railway" v="station"/>
  </node>
  <node id="1419861963" lat="39.9432155" lon="116.3472620">
    <tag k="name" v="北京北"/>
    <tag k="public_transport" v="stop_position"/>
    <tag k="railway" v="station"/>
  </node>
  <node id="1419861964" lat="39.9432590" lon="116.3474344">
    <tag k="name" v="北京北"/>
    <tag k="public_transport" v="stop_position"/>
    <tag k="railway" v="station"/>
  </node>
  <node id="1419861965" lat="39.9432725" lon="116.3474879">
    <tag k="name" v="北京北"/>
    <tag k="public_transport" v="stop_position"/>
    <tag k="railway" v="station"/>
  </node>
  <node id="1582348732" lat="39.9404400" lon="116.8199580">
    <tag k="name" v="燕郊"/>
    <tag k="name:en" v="Yanjiao"/>
    <tag k="railway" v="station"/>
  </node>
  <node id="1654051317" lat="39.9600385" lon="116.4508247">
    <tag k="name" v="三元桥"/>
    <tag k="name:en" v="Sanyuanqiao"/>
    <tag k="name:zh" v="三元桥"/>
    <tag k="public_transport" v="stop_position"/>
    <tag k="railway" v="station"/>
  </node>
  <node id="1654051318" lat="39.9601055" lon="116.4506966">
    <tag k="name" v="三元桥"/>
    <tag k="name:en" v="Sanyuanqiao"/>
    <tag k="name:zh" v="三元桥"/>
    <tag k="public_transport" v="stop_position"/>
    <tag k="railway" v="station"/>
  </node>
  <node id="1654065041" lat="39.9400152" lon="116.4295165">
    <tag k="name" v="东直门"/>
    <tag k="name:en" v="Dongzhimen"/>
    <tag k="name:zh" v="东直门"/>
    <tag k="public_transport" v="stop_position"/>
    <tag k="railway" v="station"/>
    <tag k="subway" v="yes"/>
  </node>
  <node id="1654065042" lat="39.9400583" lon="116.4295168">
    <tag k="name" v="东直门"/>
    <tag k="name:en" v="Dongzhimen"/>
    <tag k="name:zh" v="东直门"/>
    <tag k="public_transport" v="stop_position"/>
    <tag k="railway" v="station"/>
    <tag k="subway" v="yes"/>
  </node>
  <node id="1654302294" lat="39.9225726" lon="116.3197141">
    <tag k="name" v="白堆子"/>
    <tag k="name:en" v="Baiduizi"/>
    <tag k="name:zh" v="白堆子"/>
    <tag k="name:zh_pinyin" v="Báiduīzi"/>
    <tag k="public_transport" v="stop_position"/>
    <tag k="railway" v="station"/>
    <tag k="subway" v="yes"/>
  </node>
  <node id="1660324132" lat="39.9149514" lon="116.3673466">
    <tag k="name" v="灵境胡同"/>
    <tag k="name:en" v="Lingjing Hutong"/>
    <tag k="name:zh" v="灵境胡同"/>
    <tag k="public_transport" v="stop_position"/>
    <tag k="railway" v="station"/>
    <tag k="subway" v="yes"/>
  </node>
  <node id="1660324135" lat="39.9323189" lon="116.3665805">
    <tag k="name" v="平安里"/>
    <tag k="name:en" v="Ping'anli"/>
    <tag k="name:zh" v="平安里"/>
    <tag k="public_transport" v="stop_position"/>
    <tag k="railway" v="station"/>
    <tag k="subway" v="yes"/>
  </node>
  <node id="1660324139" lat="39.9225529" lon="116.3669040">
    <tag k="name" v="西四"/>
    <tag k="name:en" v="Xisi"/>
    <tag k="name:zh" v="西四"/>
    <tag k="public_transport" v="stop_position"/>
    <tag k="railway" v="station"/>
    <tag k="subway" v="yes"/>
  </node>
  <node id="1660324216" lat="39.9395343" lon="116.3613415">
    <tag k="name" v="新街口"/>
    <tag k="name:en" v="Xinjiekou"/>
    <tag k="name:zh" v="新街口"/>
    <tag k="public_transport" v="stop_position"/>
    <tag k="railway" v="station"/>
    <tag k="subway" v="yes"/>
  </node>
  <node id="1673386299" lat="39.8983943" lon="116.3681338">
    <tag k="name" v="宣武门"/>
    <tag k="name:en" v="Xuanwumen"/>
    <tag k="name:zh" v="宣武门"/>
    <tag k="public_transport" v="stop_position"/>
    <tag k="railway" v="station"/>
    <tag k="subway" v="yes"/>
  </node>
  <node id="1673386344" lat="39.9057485" lon="116.3678025">
    <tag k="name" v="西单"/>
    <tag k="name:en" v="Xidan"/>
    <tag k="name:zh" v="西单"/>
    <tag k="public_transport" v="stop_position"/>
    <tag k="railway" v="station"/>
    <tag k="subway" v="yes"/>
  </node>
  <node id="1673394703" lat="39.8878994" lon="116.3683399">
    <tag k="name" v="菜市口"/>
    <tag k="name:en" v="Caishikou"/>
    <tag k="name:zh" v="菜市口"/>
    <tag k="public_transport" v="stop_position"/>
    <tag k="railway" v="station"/>
    <tag k="subway" v="yes"/>
  </node>
  <node id="1673394714" lat="39.8774573" lon="116.3683215">
    <tag k="name" v="陶然亭"/>
    <tag k="name:en" v="Taoranting"/>
    <tag k="name:zh" v="陶然亭"/>
    <tag k="public_transport" v="stop_position"/>
    <tag k="railway" v="station"/>
    <tag k="subway" v="yes"/>
  </node>
  <node id="1673553148" lat="39.8635282" lon="116.3728993">
    <tag k="name" v="北京南站"/>
    <tag k="name:de" v="Peking Südbahnhof"/>
    <tag k="name:en" v="Beijing South Railway Station"/>
    <tag k="name:hu" v="Peking Déli pályaudvar"/>
    <tag k="name:ja" v="北京南駅"/>
    <tag k="name:zh" v="北京南站"/>
    <tag k="public_transport" v="stop_position"/>
    <tag k="railway" v="station"/>
    <tag k="subway" v="yes"/>
  </node>
  <node id="1674661898" lat="39.8516330" lon="116.3653231">
    <tag k="name" v="马家堡"/>
    <tag k="name:en" v="Majiapu"/>
    <tag k="name:zh" v="马家堡"/>
    <tag k="public_transport" v="stop_position"/>
    <tag k="railway" v="station"/>
    <tag k="subway" v="yes"/>
  </node>
  <node id="1674674667" lat="39.8352645" lon="116.3646955">
    <tag k="name" v="公益西桥"/>
    <tag k="name:en" v="Gongyixiqiao"/>
    <tag k="name:zh" v="公益西桥"/>
    <tag k="public_transport" v="stop_position"/>
    <tag k="railway" v="station"/>
    <tag k="subway" v="yes"/>
  </node>
  <node id="1674674668" lat="39.8352651" lon="116.3648164">
    <tag k="name" v="公益西桥"/>
    <tag k="name:en" v="Gongyixiqiao"/>
    <tag k="name:zh" v="公益西桥"/>
    <tag k="public_transport" v="stop_position"/>
    <tag k="railway" v="station"/>
    <tag k="subway" v="yes"/>
  </node>
  <node id="1674674669" lat="39.8352671" lon="116.3645162">
    <tag k="name" v="公益西桥"/>
    <tag k="name:en" v="Gongyixiqiao"/>
    <tag k="name:zh" v="公益西桥"/>
    <tag k="public_transport" v="stop_position"/>
    <tag k="railway" v="station"/>
    <tag k="subway" v="yes"/>
  </node>
  <node id="1674674670" lat="39.8444321" lon="116.3650866">
    <tag k="name" v="角门西"/>
    <tag k="name:en" v="Jiaomen West"/>
    <tag k="name:zh" v="角门西"/>
    <tag k="name:zh_pinyin" v="Jiăomén Xī"/>
    <tag k="public_transport" v="stop_position"/>
    <tag k="railway" v="station"/>
    <tag k="subway" v="yes"/>
  </node>
  <node id="1675420751" lat="39.8109728" lon="116.3592786">
    <tag k="name" v="新宫"/>
    <tag k="name:en" v="XIN'GONG"/>
    <tag k="name:zh" v="新宫"/>
    <tag k="name:zh_pinyin" v="Xīngōng"/>
    <tag k="public_transport" v="stop_position"/>
    <tag k="railway" v="station"/>
    <tag k="subway" v="yes"/>
  </node>
  <node id="1675420756" lat="39.8109904" lon="116.3594583">
    <tag k="name" v="新宫"/>
    <tag k="name:en" v="XIN'GONG"/>
    <tag k="name:zh" v="新宫"/>
    <tag k="name:zh_pinyin" v="Xīngōng"/>
    <tag k="public_transport" v="stop_position"/>
    <tag k="railway" v="station"/>
    <tag k="subway" v="yes"/>
  </node>
  <node id="1675420758" lat="39.8109970" lon="116.3595786">
    <tag k="name" v="新宫"/>
    <tag k="name:en" v="XIN'GONG"/>
    <tag k="name:zh" v="新宫"/>
    <tag k="name:zh_pinyin" v="Xīngōng"/>
    <tag k="public_transport" v="stop_position"/>
    <tag k="railway" v="station"/>
    <tag k="subway" v="yes"/>
  </node>
  <node id="1675441058" lat="39.7883955" lon="116.3227016">
    <tag k="name" v="西红门"/>
    <tag k="name:en" v="XIHONGMEN"/>
    <tag k="name:zh" v="西红门"/>
    <tag k="name:zh_pinyin" v="Xīhóngmén"/>
    <tag k="public_transport" v="stop_position"/>
    <tag k="railway" v="station"/>
    <tag k="subway" v="yes"/>
  </node>
  <node id="1675448964" lat="39.7730349" lon="116.3245724">
    <tag k="name" v="高米店北"/>
    <tag k="name:en" v="GAOMIDIAN North"/>
    <tag k="name:zh" v="高米店北"/>
    <tag k="name:zh_pinyin" v="Gāomĭdiànbĕi"/>
    <tag k="public_transport" v="stop_position"/>
    <tag k="railway" v="station"/>
    <tag k="subway" v="yes"/>
  </node>
  <node id="1675448965" lat="39.7622938" lon="116.3257839">
    <tag k="name" v="高米店南"/>
    <tag k="name:en" v="GAOMIDIAN South"/>
    <tag k="name:zh" v="高米店南"/>
    <tag k="name:zh_pinyin" v="Gāomĭdiànnán"/>
    <tag k="public_transport" v="stop_position"/>
    <tag k="railway" v="station"/>
    <tag k="subway" v="yes"/>
  </node>
  <node id="1675448966" lat="39.7518048" lon="116.3261527">
    <tag k="name" v="枣园"/>
    <tag k="name:en" v="ZAOYUAN"/>
    <tag k="name:zh" v="枣园"/>
    <tag k="name:zh_pinyin" v="Zăoyuán"/>
    <tag k="public_transport" v="stop_position"/>
    <tag k="railway" v="station"/>
    <tag k="subway" v="yes"/>
  </node>
  <node id="1701106953" lat="40.0935103" lon="116.2881966">
    <tag k="name" v="生命科学园"/>
    <tag k="name:en" v="Life Science Park"/>
    <tag k="name:zh" v="生命科学园"/>
    <tag k="public_transport" v="stop_position"/>
    <tag k="railway" v="station"/>
    <tag k="subway" v="yes"/>
  </node>
  <node id="1701106956" lat="40.0936293" lon="116.2881667">
    <tag k="name" v="生命科学园"/>
    <tag k="name:en" v="Life Science Park"/>
    <tag k="name:zh" v="生命科学园"/>
    <tag k="public_transport" v="stop_position"/>
    <tag k="railway" v="station"/>
    <tag k="subway" v="yes"/>
  </node>
  <node id="1716567926" lat="40.0972945" lon="116.1030409">
    <tag k="name" v="聂各庄"/>
    <tag k="public_transport" v="stop_position"/>
    <tag k="railway" v="station"/>
  </node>
  <node id="1716567930" lat="40.0973054" lon="116.1031166">
    <tag k="name" v="聂各庄"/>
    <tag k="public_transport" v="stop_position"/>
    <tag k="railway" v="station"/>
  </node>
  <node id="1716567932" lat="40.0973144" lon="116.1031916">
    <tag k="name" v="聂各庄"/>
    <tag k="public_transport" v="stop_position"/>
    <tag k="railway" v="station"/>
  </node>
  <node id="1765370462" lat="39.8430590" lon="116.4221083">
    <tag k="name" v="宋家庄"/>
    <tag k="name:en" v="Songjiazhuang"/>
    <tag k="name:zh" v="宋家庄"/>
    <tag k="name:zh_pinyin" v="Sòngjiāzhuāng"/>
    <tag k="public_transport" v="stop_position"/>
    <tag k="railway" v="station"/>
    <tag k="subway" v="yes"/>
  </node>
  <node id="1765370463" lat="39.8430613" lon="116.4222946">
    <tag k="name" v="宋家庄"/>
    <tag k="name:en" v="Songjiazhuang"/>
    <tag k="name:zh" v="宋家庄"/>
    <tag k="name:zh_pinyin" v="Sòngjiāzhuāng"/>
    <tag k="public_transport" v="stop_position"/>
    <tag k="railway" v="station"/>
    <tag k="subway" v="yes"/>
  </node>
  <node id="1765370464" lat="39.8267321" lon="116.4531283">
    <tag k="name" v="小红门"/>
    <tag k="name:en" v="Xiaohongmen"/>
    <tag k="name:zh" v="小红门"/>
    <tag k="name:zh_pinyin" v="Xiăohóngmén"/>
    <tag k="public_transport" v="stop_position"/>
    <tag k="railway" v="station"/>
    <tag k="subway" v="yes"/>
  </node>
  <node id="1765370465" lat="39.8267789" lon="116.4532895">
    <tag k="name" v="小红门"/>
    <tag k="name:en" v="Xiaohongmen"/>
    <tag k="name:zh" v="小红门"/>
    <tag k="name:zh_pinyin" v="Xiăohóngmén"/>
    <tag k="public_transport" v="stop_position"/>
    <tag k="railway" v="station"/>
    <tag k="subway" v="yes"/>
  </node>
  <node id="1765370467" lat="39.8327372" lon="116.4427214">
    <tag k="name" v="肖村"/>
    <tag k="name:en" v="Xiaocun"/>
    <tag k="name:zh" v="肖村"/>
    <tag k="name:zh_pinyin" v="Xiàocūn"/>
    <tag k="public_transport" v="stop_position"/>
    <tag k="railway" v="station"/>
    <tag k="subway" v="yes"/>
  </node>
  <node id="1765370468" lat="39.8328675" lon="116.4427231">
    <tag k="name" v="肖村"/>
    <tag k="name:en" v="Xiaocun"/>
    <tag k="name:zh" v="肖村"/>
    <tag k="name:zh_pinyin" v="Xiàocūn"/>
    <tag k="public_transport" v="stop_position"/>
    <tag k="railway" v="station"/>
    <tag k="subway" v="yes"/>
  </node>
  <node id="1768299223" lat="39.8017737" lon="116.4995019">
    <tag k="name" v="万源街"/>
    <tag k="name:en" v="Wanyuanjie"/>
    <tag k="name:zh" v="万源街"/>
    <tag k="name:zh_pinyin" v="Wànyuánjiē"/>
    <tag k="public_transport" v="stop_position"/>
    <tag k="railway" v="station"/>
    <tag k="subway" v="yes"/>
  </node>
  <node id="1768299227" lat="39.8017927" lon="116.4995404">
    <tag k="name" v="万源街"/>
    <tag k="name:en" v="Wanyuanjie"/>
    <tag k="name:zh" v="万源街"/>
    <tag k="name:zh_pinyin" v="Wànyuánjiē"/>
    <tag k="public_transport" v="stop_position"/>
    <tag k="railway" v="station"/>
    <tag k="subway" v="yes"/>
  </node>
  <node id="1768299228" lat="39.7920117" lon="116.5074445">
    <tag k="name" v="荣京东街"/>
    <tag k="name:en" v="Rongjingdongjie"/>
    <tag k="name:zh" v="荣京东街"/>
    <tag k="name:zh_pinyin" v="Róngjīngdōngjiē"/>
    <tag k="public_transport" v="stop_position"/>
    <tag k="railway" v="station"/>
    <tag k="subway" v="yes"/>
  </node>
  <node id="1768299229" lat="39.7920296" lon="116.5074801">
    <tag k="name" v="荣京东街"/>
    <tag k="name:en" v="Rongjingdongjie"/>
    <tag k="name:zh" v="荣京东街"/>
    <tag k="name:zh_pinyin" v="Róngjīngdōngjiē"/>
    <tag k="public_transport" v="stop_position"/>
    <tag k="railway" v="station"/>
    <tag k="subway" v="yes"/>
  </node>
  <node id="1768303651" lat="39.8056321" lon="116.4846718">
    <tag k="name" v="亦庄文化园"/>
    <tag k="name:en" v="Yizhuang Culture Park"/>
    <tag k="name:zh" v="亦庄文化园"/>
    <tag k="name:zh_pinyin" v="Yìzhuāng Wénhuàyuán"/>
    <tag k="public_transport" v="stop_position"/>
    <tag k="railway" v="station"/>
    <tag k="subway" v="yes"/>
  </node>
  <node id="1768303652" lat="39.8017277" lon="116.4742727">
    <tag k="name" v="亦庄桥"/>
    <tag k="name:en" v="Yizhuangqiao"/>
    <tag k="name:zh" v="亦庄桥"/>
    <tag k="name:zh_pinyin" v="Yìzhuāngqiáo"/>
    <tag k="public_transport" v="stop_position"/>
    <tag k="railway" v="station"/>
    <tag k="subway" v="yes"/>
  </node>
  <node id="1768313162" lat="39.8056150" lon="116.4547507">
    <tag k="name" v="旧宫"/>
    <tag k="name:en" v="Jiugong"/>
    <tag k="name:zh" v="旧宫"/>
    <tag k="name:zh_pinyin" v="Jiùgōng"/>
    <tag k="public_transport" v="stop_position"/>
    <tag k="railway" v="station"/>
    <tag k="subway" v="yes"/>
  </node>
  <node id="1771786891" lat="39.8133777" lon="116.2958307">
    <tag k="name" v="郭公庄"/>
    <tag k="name:en" v="Guogongzhuang"/>
    <tag k="name:zh" v="郭公庄"/>
    <tag k="name:zh_pinyin" v="Guōgōngzhuāng"/>
    <tag k="public_transport" v="stop_position"/>
    <tag k="railway" v="station"/>
    <tag k="subway" v="yes"/>
  </node>
  <node id="1771786892" lat="39.8133798" lon="116.2959877">
    <tag k="name" v="郭公庄"/>
    <tag k="name:en" v="Guogongzhuang"/>
    <tag k="name:zh" v="郭公庄"/>
    <tag k="name:zh_pinyin" v="Guōgōngzhuāng"/>
    <tag k="public_transport" v="stop_position"/>
    <tag k="railway" v="station"/>
    <tag k="subway" v="yes"/>
  </node>
  <node id="1771786893" lat="39.8133808" lon="116.2960633">
    <tag k="name" v="郭公庄"/>
    <tag k="name:en" v="Guogongzhuang"/>
    <tag k="name:zh" v="郭公庄"/>
    <tag k="name:zh_pinyin" v="Guōgōngzhuāng"/>
    <tag k="public_transport" v="stop_position"/>
    <tag k="railway" v="station"/>
    <tag k="subway" v="yes"/>
  </node>
  <node id="1771786894" lat="39.8133828" lon="116.2962149">
    <tag k="name" v="郭公庄"/>
    <tag k="name:en" v="Guogongzhuang"/>
    <tag k="name:zh" v="郭公庄"/>
    <tag k="name:zh_pinyin" v="Guōgōngzhuāng"/>
    <tag k="public_transport" v="stop_position"/>
    <tag k="railway" v="station"/>
    <tag k="subway" v="yes"/>
  </node>
  <node id="1807586472" lat="39.9011132" lon="116.4786477">
    <tag k="name" v="北京东"/>
    <tag k="name:en" v="Beijing East"/>
    <tag k="public_transport" v="stop_position"/>
    <tag k="railway" v="station"/>
  </node>
  <node id="1807586476" lat="39.9012921" lon="116.4786384">
    <tag k="name" v="北京东"/>
    <tag k="name:en" v="Beijing East"/>
    <tag k="public_transport" v="stop_position"/>
    <tag k="railway" v="station"/>
  </node>
  <node id="1824913462" lat="39.9483301" lon="116.5032177">
    <tag k="name" v="星火"/>
    <tag k="public_transport" v="stop_position"/>
    <tag k="railway" v="station"/>
  </node>
  <node id="1842949154" lat="40.0461853" lon="116.3451526">
    <tag k="name" v="西小口"/>
    <tag k="name:en" v="Xixiaokou"/>
    <tag k="name:zh" v="西小口"/>
    <tag k="public_transport" v="stop_position"/>
    <tag k="railway" v="station"/>
    <tag k="subway" v="yes"/>
  </node>
  <node id="1842949157" lat="40.0705329" lon="116.3540264">
    <tag k="name" v="霍营"/>
    <tag k="name:en" v="Huoying"/>
    <tag k="name:zh" v="霍营"/>
    <tag k="public_transport" v="stop_position"/>
    <tag k="railway" v="station"/>
    <tag k="subway" v="yes"/>
  </node>
  <node id="1842949163" lat="40.0584198" lon="116.3411234">
    <tag k="name" v="育新"/>
    <tag k="name:en" v="Yuxin"/>
    <tag k="name:zh" v="育新"/>
    <tag k="public_transport" v="stop_position"/>
    <tag k="railway" v="station"/>
    <tag k="subway" v="yes"/>
  </node>
  <node id="1842949166" lat="40.0796920" lon="116.3568438">
    <tag k="name" v="回龙观东大街"/>
    <tag k="name:en" v="Huilongguang Dongdajie"/>
    <tag k="name:zh" v="回龙观东大街"/>
    <tag k="public_transport" v="stop_position"/>
    <tag k="railway" v="station"/>
    <tag k="subway" v="yes"/>
  </node>
  <node id="1842949167" lat="40.0367709" lon="116.3483416">
    <tag k="name" v="永泰庄"/>
    <tag k="name:en" v="Yongtaizhuang"/>
    <tag k="name:zh" v="永泰庄"/>
    <tag k="public_transport" v="stop_position"/>
    <tag k="railway" v="station"/>
    <tag k="subway" v="yes"/>
  </node>
  <node id="1842951841" lat="40.0206569" lon="116.3667859">
    <tag k="name" v="林萃桥"/>
    <tag k="name:en" v="Lincuiqiao"/>
    <tag k="name:zh" v="林萃桥"/>
    <tag k="public_transport" v="stop_position"/>
    <tag k="railway" v="station"/>
    <tag k="subway" v="yes"/>
  </node>
  <node id="1890694303" lat="39.8504093" lon="116.1216040">
    <tag k="name" v="大灰厂"/>
    <tag k="public_transport" v="stop_position"/>
    <tag k="railway" v="station"/>
  </node>
  <node id="2090572107" lat="39.9573841" lon="116.2879896">
    <tag k="name" v="长春桥"/>
    <tag k="name:en" v="Changchunqiao"/>
    <tag k="name:zh" v="长春桥"/>
    <tag k="name:zh_pinyin" v="Chángchūnqiáo"/>
    <tag k="public_transport" v="stop_position"/>
    <tag k="railway" v="station"/>
    <tag k="subway" v="yes"/>
  </node>
  <node id="2090572108" lat="39.9574226" lon="116.2881186">
    <tag k="name" v="长春桥"/>
    <tag k="name:en" v="Changchunqiao"/>
    <tag k="name:zh" v="长春桥"/>
    <tag k="name:zh_pinyin" v="Chángchūnqiáo"/>
    <tag k="public_transport" v="stop_position"/>
    <tag k="railway" v="station"/>
    <tag k="subway" v="yes"/>
  </node>
  <node id="2090572110" lat="39.9451645" lon="116.2878111">
    <tag k="name" v="车道沟"/>
    <tag k="name:en" v="Chedaogou"/>
    <tag k="name:zh" v="车道沟"/>
    <tag k="name:zh_pinyin" v="Chēdàogōu"/>
    <tag k="public_transport" v="stop_position"/>
    <tag k="railway" v="station"/>
    <tag k="subway" v="yes"/>
  </node>
  <node id="2090572111" lat="39.9451669" lon="116.2880255">
    <tag k="name" v="车道沟"/>
    <tag k="name:en" v="Chedaogou"/>
    <tag k="name:zh" v="车道沟"/>
    <tag k="name:zh_pinyin" v="Chēdàogōu"/>
    <tag k="public_transport" v="stop_position"/>
    <tag k="railway" v="station"/>
    <tag k="subway" v="yes"/>
  </node>
  <node id="2090572112" lat="39.9321754" lon="116.2893902">
    <tag k="name" v="慈寿寺"/>
    <tag k="name:en" v="Cishousi"/>
    <tag k="name:zh" v="慈寿寺"/>
    <tag k="name:zh_pinyin" v="Císhòusì"/>
    <tag k="public_transport" v="stop_position"/>
    <tag k="railway" v="station"/>
    <tag k="subway" v="yes"/>
  </node>
  <node id="2090572113" lat="39.9321778" lon="116.2891596">
    <tag k="name" v="慈寿寺"/>
    <tag k="name:en" v="Cishousi"/>
    <tag k="name:zh" v="慈寿寺"/>
    <tag k="name:zh_pinyin" v="Císhòusì"/>
    <tag k="public_transport" v="stop_position"/>
    <tag k="railway" v="station"/>
    <tag k="subway" v="yes"/>
  </node>
  <node id="2090572115" lat="39.9642311" lon="116.2834153">
    <tag k="name" v="火器营"/>
    <tag k="name:en" v="Huoqiying"/>
    <tag k="name:zh" v="火器营"/>
    <tag k="name:zh_pinyin" v="Huŏqìyíng"/>
    <tag k="public_transport" v="stop_position"/>
    <tag k="railway" v="station"/>
    <tag k="subway" v="yes"/>
  </node>
  <node id="2090572117" lat="39.9642824" lon="116.2835419">
    <tag k="name" v="火器营"/>
    <tag k="name:en" v="Huoqiying"/>
    <tag k="name:zh" v="火器营"/>
    <tag k="name:zh_pinyin" v="Huŏqìyíng"/>
    <tag k="public_transport" v="stop_position"/>
    <tag k="railway" v="station"/>
    <tag k="subway" v="yes"/>
  </node>
  <node id="2091794128" lat="39.9225739" lon="116.3196366">
    <tag k="name" v="白堆子"/>
    <tag k="name:en" v="Baiduizi"/>
    <tag k="name:zh" v="白堆子"/>
    <tag k="name:zh_pinyin" v="Báiduīzi"/>
    <tag k="public_transport" v="stop_position"/>
    <tag k="railway" v="station"/>
    <tag k="subway" v="yes"/>
  </node>
  <node id="2091794134" lat="39.9323904" lon="116.3194256">
    <tag k="name" v="白石桥南"/>
    <tag k="name:en" v="Baishiqiao South"/>
    <tag k="name:zh" v="白石桥南"/>
    <tag k="name:zh_pinyin" v="Báishíqiáo Nán"/>
    <tag k="public_transport" v="stop_position"/>
    <tag k="railway" v="station"/>
    <tag k="subway" v="yes"/>
  </node>
  <node id="2091794136" lat="39.9323912" lon="116.3193043">
    <tag k="name" v="白石桥南"/>
    <tag k="name:en" v="Baishiqiao South"/>
    <tag k="name:zh" v="白石桥南"/>
    <tag k="name:zh_pinyin" v="Báishíqiáo Nán"/>
    <tag k="public_transport" v="stop_position"/>
    <tag k="railway" v="station"/>
    <tag k="subway" v="yes"/>
  </node>
  <node id="2091794138" lat="39.8935474" lon="116.3151245">
    <tag k="name" v="北京西站"/>
    <tag k="name:en" v="Beijing West Railway Station"/>
    <tag k="name:zh" v="北京西站"/>
    <tag k="name:zh_pinyin" v="Bĕijīngxīzhàn"/>
    <tag k="public_transport" v="stop_position"/>
    <tag k="railway" v="station"/>
    <tag k="subway" v="yes"/>
  </node>
  <node id="2091794144" lat="39.8935489" lon="116.3150485">
    <tag k="name" v="北京西站"/>
    <tag k="name:en" v="Beijing West Railway Station"/>
    <tag k="name:zh" v="北京西站"/>
    <tag k="name:zh_pinyin" v="Bĕijīngxīzhàn"/>
    <tag k="public_transport" v="stop_position"/>
    <tag k="railway" v="station"/>
    <tag k="subway" v="yes"/>
  </node>
  <node id="2091794148" lat="39.8239841" lon="116.2912057">
    <tag k="name" v="丰台科技园"/>
    <tag k="name:en" v="Fengtai Science Park"/>
    <tag k="name:zh" v="丰台科技园"/>
    <tag k="name:zh_pinyin" v="Fēngtái Kējìyuán"/>
    <tag k="public_transport" v="stop_position"/>
    <tag k="railway" v="station"/>
    <tag k="subway" v="yes"/>
  </node>
  <node id="2091794152" lat="39.8239858" lon="116.2912817">
    <tag k="name" v="丰台科技园"/>
    <tag k="name:en" v="Fengtai Science Park"/>
    <tag k="name:zh" v="丰台科技园"/>
    <tag k="name:zh_pinyin" v="Fēngtái Kējìyuán"/>
    <tag k="public_transport" v="stop_position"/>
    <tag k="railway" v="station"/>
    <tag k="subway" v="yes"/>
  </node>
  <node id="2091794160" lat="39.8541717" lon="116.2878650">
    <tag k="name" v="丰台东大街"/>
    <tag k="name:en" v="Fengtaidongdajie"/>
    <tag k="name:zh" v="丰台东大街"/>
    <tag k="name:zh_pinyin" v="Fēngtáidōngdàjiē"/>
    <tag k="public_transport" v="stop_position"/>
    <tag k="railway" v="station"/>
    <tag k="subway" v="yes"/>
  </node>
  <node id="2091794164" lat="39.8541729" lon="116.2877145">
    <tag k="name" v="丰台东大街"/>
    <tag k="name:en" v="Fengtaidongdajie"/>
    <tag k="name:zh" v="丰台东大街"/>
    <tag k="name:zh_pinyin" v="Fēngtáidōngdàjiē"/>
    <tag k="public_transport" v="stop_position"/>
    <tag k="railway" v="station"/>
    <tag k="subway" v="yes"/>
  </node>
  <node id="2091794168" lat="39.8395688" lon="116.2904341">
    <tag k="name" v="丰台南路"/>
    <tag k="name:en" v="Fengtainanlu"/>
    <tag k="name:zh" v="丰台南路"/>
    <tag k="name:zh_pinyin" v="Fēngtáinánlù"/>
    <tag k="public_transport" v="stop_position"/>
    <tag k="railway" v="station"/>
    <tag k="subway" v="yes"/>
  </node>
  <node id="2091794172" lat="39.8395745" lon="116.2905368">
    <tag k="name" v="丰台南路"/>
    <tag k="name:en" v="Fengtainanlu"/>
    <tag k="name:zh" v="丰台南路"/>
    <tag k="name:zh_pinyin" v="Fēngtáinánlù"/>
    <tag k="public_transport" v="stop_position"/>
    <tag k="railway" v="station"/>
    <tag k="subway" v="yes"/>
  </node>
  <node id="2091794176" lat="39.8308814" lon="116.2914784">
    <tag k="name" v="科怡路"/>
    <tag k="name:en" v="Keyilu"/>
    <tag k="name:zh" v="科怡路"/>
    <tag k="name:zh_pinyin" v="Kēyílù"/>
    <tag k="public_transport" v="stop_position"/>
    <tag k="railway" v="station"/>
    <tag k="subway" v="yes"/>
  </node>
  <node id="2091794181" lat="39.8308858" lon="116.2913610">
    <tag k="name" v="科怡路"/>
    <tag k="name:en" v="Keyilu"/>
    <tag k="name:zh" v="科怡路"/>
    <tag k="name:zh_pinyin" v="Kēyílù"/>
    <tag k="public_transport" v="stop_position"/>
    <tag k="railway" v="station"/>
    <tag k="subway" v="yes"/>
  </node>
  <node id="2091794184" lat="39.8856850" lon="116.3088257">
    <tag k="name" v="六里桥东"/>
    <tag k="name:en" v="Liuliqiao East"/>
    <tag k="name:zh" v="六里桥东"/>
    <tag k="name:zh_pinyin" v="Liùlĭqiáodōng"/>
    <tag k="public_transport" v="stop_position"/>
    <tag k="railway" v="station"/>
    <tag k="subway" v="yes"/>
  </node>
  <node id="2091794189" lat="39.8857391" lon="116.3087840">
    <tag k="name" v="六里桥东"/>
    <tag k="name:en" v="Liuliqiao East"/>
    <tag k="name:zh" v="六里桥东"/>
    <tag k="name:zh_pinyin" v="Liùlĭqiáodōng"/>
    <tag k="public_transport" v="stop_position"/>
    <tag k="railway" v="station"/>
    <tag k="subway" v="yes"/>
  </node>
  <node id="2091794192" lat="39.8792987" lon="116.2981410">
    <tag k="name" v="六里桥"/>
    <tag k="name:en" v="Liuliqiao"/>
    <tag k="name:zh" v="六里桥"/>
    <tag k="name:zh_pinyin" v="Liùlĭqiáo"/>
    <tag k="public_transport" v="stop_position"/>
    <tag k="railway" v="station"/>
    <tag k="subway" v="yes"/>
  </node>
  <node id="2091794197" lat="39.8793528" lon="116.2980991">
    <tag k="name" v="六里桥"/>
    <tag k="name:en" v="Liuliqiao"/>
    <tag k="name:zh" v="六里桥"/>
    <tag k="name:zh_pinyin" v="Liùlĭqiáo"/>
    <tag k="public_transport" v="stop_position"/>
    <tag k="railway" v="station"/>
    <tag k="subway" v="yes"/>
  </node>
  <node id="2091794201" lat="39.9060226" lon="116.3172168">
    <tag k="name" v="军事博物馆"/>
    <tag k="name:de" v="Militärmuseum"/>
    <tag k="name:en" v="Military Museum"/>
    <tag k="name:zh" v="军事博物馆"/>
    <tag k="name:zh_pinyin" v="Jūnshì Bówùguǎn"/>
    <tag k="note" v="Not open yet (January 2013)"/>
    <tag k="public_transport" v="stop_position"/>
    <tag k="railway" v="station"/>
    <tag k="subway" v="yes"/>
  </node>
  <node id="2091794206" lat="39.9060301" lon="116.3171329">
    <tag k="name" v="军事博物馆"/>
    <tag k="name:de" v="Militärmuseum"/>
    <tag k="name:en" v="Military Museum"/>
    <tag k="name:zh" v="军事博物馆"/>
    <tag k="name:zh_pinyin" v="Jūnshì Bówùguǎn"/>
    <tag k="note" v="Not open yet (January 2013)"/>
    <tag k="public_transport" v="stop_position"/>
    <tag k="railway" v="station"/>
    <tag k="subway" v="yes"/>
  </node>
  <node id="2091794211" lat="39.8660248" lon="116.2882357">
    <tag k="name" v="七里庄"/>
    <tag k="name:en" v="Qilizhuang"/>
    <tag k="name:zh" v="七里庄"/>
    <tag k="name:zh_pinyin" v="Qīlĭzhuāng"/>
    <tag k="public_transport" v="stop_position"/>
    <tag k="railway" v="station"/>
    <tag k="subway" v="yes"/>
  </node>
  <node id="2091794219" lat="39.8660276" lon="116.2881577">
    <tag k="name" v="七里庄"/>
    <tag k="name:en" v="Qilizhuang"/>
    <tag k="name:zh" v="七里庄"/>
    <tag k="name:zh_pinyin" v="Qīlĭzhuāng"/>
    <tag k="public_transport" v="stop_position"/>
    <tag k="railway" v="station"/>
    <tag k="subway" v="yes"/>
  </node>
  <node id="2093005585" lat="39.9671145" lon="116.3882615">
    <tag k="name" v="安华桥"/>
    <tag k="name:en" v="Anhuaqiao"/>
    <tag k="name:zh" v="安华桥"/>
    <tag k="name:zh_pinyin" v="Ānhuáqiáo"/>
    <tag k="public_transport" v="stop_position"/>
    <tag k="railway" v="station"/>
    <tag k="subway" v="yes"/>
  </node>
  <node id="2093005586" lat="39.9671190" lon="116.3885366">
    <tag k="name" v="安华桥"/>
    <tag k="name:en" v="Anhuaqiao"/>
    <tag k="name:zh" v="安华桥"/>
    <tag k="name:zh_pinyin" v="Ānhuáqiáo"/>
    <tag k="public_transport" v="stop_position"/>
    <tag k="railway" v="station"/>
    <tag k="subway" v="yes"/>
  </node>
  <node id="2093005587" lat="39.9467301" lon="116.3875743">
    <tag k="name" v="鼓楼大街"/>
    <tag k="name:en" v="Guloudajie"/>
    <tag k="name:zh" v="鼓楼大街"/>
    <tag k="name:zh_pinyin" v="Gŭlóudàjiē"/>
    <tag k="public_transport" v="stop_position"/>
    <tag k="railway" v="station"/>
    <tag k="subway" v="yes"/>
  </node>
  <node id="2093005588" lat="39.9467319" lon="116.3876936">
    <tag k="name" v="鼓楼大街"/>
    <tag k="name:en" v="Guloudajie"/>
    <tag k="name:zh" v="鼓楼大街"/>
    <tag k="name:zh_pinyin" v="Gŭlóudàjiē"/>
    <tag k="public_transport" v="stop_position"/>
    <tag k="railway" v="station"/>
    <tag k="subway" v="yes"/>
  </node>
  <node id="2093005589" lat="40.0796823" lon="116.3567037">
    <tag k="name" v="回龙观东大街"/>
    <tag k="name:en" v="Huilongguang Dongdajie"/>
    <tag k="name:zh" v="回龙观东大街"/>
    <tag k="public_transport" v="stop_position"/>
    <tag k="railway" v="station"/>
    <tag k="subway" v="yes"/>
  </node>
  <node id="2093005590" lat="40.0706185" lon="116.3539410">
    <tag k="name" v="霍营"/>
    <tag k="name:en" v="Huoying"/>
    <tag k="name:zh" v="霍营"/>
    <tag k="public_transport" v="stop_position"/>
    <tag k="railway" v="station"/>
    <tag k="subway" v="yes"/>
  </node>
  <node id="2093005591" lat="40.0205492" lon="116.3667840">
    <tag k="name" v="林萃桥"/>
    <tag k="name:en" v="Lincuiqiao"/>
    <tag k="name:zh" v="林萃桥"/>
    <tag k="public_transport" v="stop_position"/>
    <tag k="railway" v="station"/>
    <tag k="subway" v="yes"/>
  </node>
  <node id="2093005592" lat="40.0461497" lon="116.3450197">
    <tag k="name" v="西小口"/>
    <tag k="name:en" v="Xixiaokou"/>
    <tag k="name:zh" v="西小口"/>
    <tag k="public_transport" v="stop_position"/>
    <tag k="railway" v="station"/>
    <tag k="subway" v="yes"/>
  </node>
  <node id="2093005593" lat="40.0367524" lon="116.3482029">
    <tag k="name" v="永泰庄"/>
    <tag k="name:en" v="Yongtaizhuang"/>
    <tag k="name:zh" v="永泰庄"/>
    <tag k="public_transport" v="stop_position"/>
    <tag k="railway" v="station"/>
    <tag k="subway" v="yes"/>
  </node>
  <node id="2093005594" lat="40.0584131" lon="116.3409829">
    <tag k="name" v="育新"/>
    <tag k="name:en" v="Yuxin"/>
    <tag k="name:zh" v="育新"/>
    <tag k="public_transport" v="stop_position"/>
    <tag k="railway" v="station"/>
    <tag k="subway" v="yes"/>
  </node>
  <node id="2094586153" lat="39.9063578" lon="116.3042040">
    <tag k="name" v="公主坟"/>
    <tag k="name:en" v="Gongzhufen"/>
    <tag k="name:zh" v="公主坟"/>
    <tag k="name:zh_pinyin" v="Gōngzhŭfén"/>
    <tag k="public_transport" v="stop_position"/>
    <tag k="railway" v="station"/>
    <tag k="subway" v="yes"/>
  </node>
  <node id="2094586164" lat="39.9063594" lon="116.3042757">
    <tag k="name" v="公主坟"/>
    <tag k="name:en" v="Gongzhufen"/>
    <tag k="name:zh" v="公主坟"/>
    <tag k="name:zh_pinyin" v="Gōngzhŭfén"/>
    <tag k="public_transport" v="stop_position"/>
    <tag k="railway" v="station"/>
    <tag k="subway" v="yes"/>
  </node>
  <node id="2094586166" lat="39.9217765" lon="116.2916620">
    <tag k="FIXME" v="Approximate location"/>
    <tag k="name" v="西钓鱼台"/>
    <tag k="name:en" v="Xidiaoyutai"/>
    <tag k="name:zh" v="西钓鱼台"/>
    <tag k="name:zh_pinyin" v="Xīdiàoyútái"/>
    <tag k="public_transport" v="stop_position"/>
    <tag k="railway" v="station"/>
    <tag k="subway" v="yes"/>
  </node>
  <node id="2094586171" lat="39.9217895" lon="116.2917702">
    <tag k="FIXME" v="Approximate location"/>
    <tag k="name" v="西钓鱼台"/>
    <tag k="name:en" v="Xidiaoyutai"/>
    <tag k="name:zh" v="西钓鱼台"/>
    <tag k="name:zh_pinyin" v="Xīdiàoyútái"/>
    <tag k="public_transport" v="stop_position"/>
    <tag k="railway" v="station"/>
    <tag k="subway" v="yes"/>
  </node>
  <node id="2098804276" lat="40.0196142" lon="116.4731568">
    <tag k="name" v="望京"/>
    <tag k="public_transport" v="stop_position"/>
    <tag k="railway" v="station"/>
  </node>
  <node id="2099427622" lat="39.6851095" lon="116.3161699">
    <tag k="name" v="生物医药基地"/>
    <tag k="name:en" v="Biomedical Base"/>
    <tag k="name:zh" v="生物医药基地"/>
    <tag k="name:zh_pinyin" v="Shēngwùyīyàojīdì"/>
    <tag k="public_transport" v="stop_position"/>
    <tag k="railway" v="station"/>
    <tag k="subway" v="yes"/>
  </node>
  <node id="2099427623" lat="39.7215003" lon="116.3266885">
    <tag k="name" v="黄村火车站"/>
    <tag k="name:en" v="Huangcun Railway Station"/>
    <tag k="name:zh" v="黄村火车站"/>
    <tag k="name:zh_pinyin" v="Huángcūn Huŏchēzhàn"/>
    <tag k="public_transport" v="stop_position"/>
    <tag k="railway" v="station"/>
    <tag k="subway" v="yes"/>
  </node>
  <node id="2099427624" lat="39.7304217" lon="116.3265479">
    <tag k="name" v="黄村西大街"/>
    <tag k="name:en" v="Huangcunxidajie"/>
    <tag k="name:zh" v="黄村西大街"/>
    <tag k="name:zh_pinyin" v="Huángcūnxīdàjiē"/>
    <tag k="public_transport" v="stop_position"/>
    <tag k="railway" v="station"/>
    <tag k="subway" v="yes"/>
  </node>
  <node id="2099427625" lat="39.7417560" lon="116.3263684">
    <tag k="name" v="清源路"/>
    <tag k="name:en" v="Qingyuanlu"/>
    <tag k="name:zh" v="清源路"/>
    <tag k="name:zh_pinyin" v="Qīngyuánlù"/>
    <tag k="public_transport" v="stop_position"/>
    <tag k="railway" v="station"/>
    <tag k="subway" v="yes"/>
  </node>
  <node id="2099427626" lat="39.6689922" lon="116.3139399">
    <tag k="name" v="天宫院"/>
    <tag k="name:en" v="Tiangongyuan"/>
    <tag k="name:zh" v="天宫院"/>
    <tag k="name:zh_pinyin" v="Tiāngōngyuàn"/>
    <tag k="public_transport" v="stop_position"/>
    <tag k="railway" v="station"/>
    <tag k="subway" v="yes"/>
  </node>
  <node id="2099427627" lat="39.7111041" lon="116.3131230">
    <tag k="name" v="义和庄"/>
    <tag k="name:en" v="Yihezhuang"/>
    <tag k="name:zh" v="义和庄"/>
    <tag k="name:zh_pinyin" v="Yìhézhuāng"/>
    <tag k="public_transport" v="stop_position"/>
    <tag k="railway" v="station"/>
    <tag k="subway" v="yes"/>
  </node>
  <node id="2099471226" lat="39.9313313" lon="116.2708928">
    <tag k="name" v="海淀五路居"/>
    <tag k="public_transport" v="stop_position"/>
    <tag k="railway" v="station"/>
  </node>
  <node id="2099471227" lat="39.9314412" lon="116.2708883">
    <tag k="name" v="海淀五路居"/>
    <tag k="public_transport" v="stop_position"/>
    <tag k="railway" v="station"/>
  </node>
  <node id="2101011227" lat="40.0019877" lon="116.4807712">
    <tag k="name" v="望京东"/>
    <tag k="name:en" v="Wangjing East"/>
    <tag k="name:zh" v="望京东"/>
    <tag k="name:zh_pinyin" v="Wàngjīngdōng"/>
    <tag k="note" v="Not open yet (January 2013)"/>
    <tag k="public_transport" v="stop_position"/>
    <tag k="railway" v="station"/>
    <tag k="subway" v="yes"/>
  </node>
  <node id="2101011228" lat="39.9947186" lon="116.4438700">
    <tag k="name" v="望京西"/>
    <tag k="name:en" v="Wangjing West"/>
    <tag k="name:zh" v="望京西"/>
    <tag k="public_transport" v="stop_position"/>
    <tag k="railway" v="station"/>
    <tag k="subway" v="yes"/>
  </node>
  <node id="2101011229" lat="39.9967008" lon="116.4633609">
    <tag k="name" v="望京"/>
    <tag k="name:en" v="Wangjing"/>
    <tag k="name:zh" v="望京"/>
    <tag k="name:zh_pinyin" v="Wàngjīng"/>
    <tag k="public_transport" v="stop_position"/>
    <tag k="railway" v="station"/>
    <tag k="subway" v="yes"/>
  </node>
  <node id="2102414889" lat="39.8960275" lon="116.3042274">
    <tag k="name" v="莲花桥"/>
    <tag k="name:en" v="Lianhuaqiao"/>
    <tag k="name:zh" v="莲花桥"/>
    <tag k="name:zh_pinyin" v="Liánhuāqiáo"/>
    <tag k="public_transport" v="stop_position"/>
    <tag k="railway" v="station"/>
    <tag k="subway" v="yes"/>
  </node>
  <node id="2102414894" lat="39.8960275" lon="116.3043611">
    <tag k="name" v="莲花桥"/>
    <tag k="name:en" v="Lianhuaqiao"/>
    <tag k="name:zh" v="莲花桥"/>
    <tag k="name:zh_pinyin" v="Liánhuāqiáo"/>
    <tag k="public_transport" v="stop_position"/>
    <tag k="railway" v="station"/>
    <tag k="subway" v="yes"/>
  </node>
  <node id="2102414900" lat="39.8784913" lon="116.2967297">
    <tag k="name" v="六里桥"/>
    <tag k="name:en" v="Liuliqiao"/>
    <tag k="name:zh" v="六里桥"/>
    <tag k="name:zh_pinyin" v="Liùlĭqiáo"/>
    <tag k="public_transport" v="stop_position"/>
    <tag k="railway" v="station"/>
    <tag k="subway" v="yes"/>
  </node>
  <node id="2102414911" lat="39.8785061" lon="116.2968728">
    <tag k="name" v="六里桥"/>
    <tag k="name:en" v="Liuliqiao"/>
    <tag k="name:zh" v="六里桥"/>
    <tag k="name:zh_pinyin" v="Liùlĭqiáo"/>
    <tag k="public_transport" v="stop_position"/>
    <tag k="railway" v="station"/>
    <tag k="subway" v="yes"/>
  </node>
  <node id="2102414916" lat="39.8642908" lon="116.2977923">
    <tag k="name" v="西局"/>
    <tag k="name:en" v="Xiju"/>
    <tag k="name:zh" v="西局"/>
    <tag k="name:zh_pinyin" v="Xījú"/>
    <tag k="public_transport" v="stop_position"/>
    <tag k="railway" v="station"/>
    <tag k="subway" v="yes"/>
  </node>
  <node id="2102414923" lat="39.8642937" lon="116.2979147">
    <tag k="name" v="西局"/>
    <tag k="name:en" v="Xiju"/>
    <tag k="name:zh" v="西局"/>
    <tag k="name:zh_pinyin" v="Xījú"/>
    <tag k="public_transport" v="stop_position"/>
    <tag k="railway" v="station"/>
    <tag k="subway" v="yes"/>
  </node>
  <node id="2111812180" lat="39.8444792" lon="116.4421452">
    <tag k="name" v="成寿寺"/>
    <tag k="name:en" v="Chengshousi"/>
    <tag k="name:zh" v="成寿寺"/>
    <tag k="name:zh_pinyin" v="Chéngshòusì"/>
    <tag k="public_transport" v="stop_position"/>
    <tag k="railway" v="station"/>
    <tag k="subway" v="yes"/>
  </node>
  <node id="2111812181" lat="39.8445812" lon="116.4421449">
    <tag k="name" v="成寿寺"/>
    <tag k="name:en" v="Chengshousi"/>
    <tag k="name:zh" v="成寿寺"/>
    <tag k="name:zh_pinyin" v="Chéngshòusì"/>
    <tag k="public_transport" v="stop_position"/>
    <tag k="railway" v="station"/>
    <tag k="subway" v="yes"/>
  </node>
  <node id="2111812182" lat="39.8506411" lon="116.4475974">
    <tag k="name" v="分钟寺"/>
    <tag k="name:en" v="Fenzhongsi"/>
    <tag k="name:zh" v="分钟寺"/>
    <tag k="name:zh_pinyin" v="Fēnzhōngsì"/>
    <tag k="public_transport" v="stop_position"/>
    <tag k="railway" v="station"/>
    <tag k="subway" v="yes"/>
  </node>
  <node id="2111812183" lat="39.8506725" lon="116.4475157">
    <tag k="name" v="分钟寺"/>
    <tag k="name:en" v="Fenzhongsi"/>
    <tag k="name:zh" v="分钟寺"/>
    <tag k="name:zh_pinyin" v="Fēnzhōngsì"/>
    <tag k="public_transport" v="stop_position"/>
    <tag k="railway" v="station"/>
    <tag k="subway" v="yes"/>
  </node>
  <node id="2111812184" lat="39.8748577" lon="116.4550752">
    <tag k="name" v="潘家园"/>
    <tag k="name:en" v="Panjiayuan"/>
    <tag k="name:zh" v="潘家园"/>
    <tag k="name:zh_pinyin" v="Pānjiāyuán"/>
    <tag k="public_transport" v="stop_position"/>
    <tag k="railway" v="station"/>
    <tag k="subway" v="yes"/>
  </node>
  <node id="2111812185" lat="39.8748604" lon="116.4548789">
    <tag k="name" v="潘家园"/>
    <tag k="name:en" v="Panjiayuan"/>
    <tag k="name:zh" v="潘家园"/>
    <tag k="name:zh_pinyin" v="Pānjiāyuán"/>
    <tag k="public_transport" v="stop_position"/>
    <tag k="railway" v="station"/>
    <tag k="subway" v="yes"/>
  </node>
  <node id="2111812186" lat="39.8643413" lon="116.4531009">
    <tag k="name" v="十里河"/>
    <tag k="name:en" v="Shilihe"/>
    <tag k="name:zh" v="十里河"/>
    <tag k="name:zh_pinyin" v="Shílĭhé"/>
    <tag k="public_transport" v="stop_position"/>
    <tag k="railway" v="station"/>
    <tag k="subway" v="yes"/>
  </node>
  <node id="2111812187" lat="39.8643891" lon="116.4529799">
    <tag k="name" v="十里河"/>
    <tag k="name:en" v="Shilihe"/>
    <tag k="name:zh" v="十里河"/>
    <tag k="name:zh_pinyin" v="Shílĭhé"/>
    <tag k="public_transport" v="stop_position"/>
    <tag k="railway" v="station"/>
    <tag k="subway" v="yes"/>
  </node>
  <node id="2111812189" lat="39.8444085" lon="116.4074195">
    <tag k="name" v="石榴庄"/>
    <tag k="name:en" v="Shiliuzhuang"/>
    <tag k="name:zh" v="石榴庄"/>
    <tag k="name:zh_pinyin" v="Shíliúzhuāng"/>
    <tag k="public_transport" v="stop_position"/>
    <tag k="railway" v="station"/>
    <tag k="subway" v="yes"/>
  </node>
  <node id="2111812190" lat="39.8445445" lon="116.4074070">
    <tag k="name" v="石榴庄"/>
    <tag k="name:en" v="Shiliuzhuang"/>
    <tag k="name:zh" v="石榴庄"/>
    <tag k="name:zh_pinyin" v="Shíliúzhuāng"/>
    <tag k="public_transport" v="stop_position"/>
    <tag k="railway" v="station"/>
    <tag k="subway" v="yes"/>
  </node>
  <node id="2111812191" lat="39.8446034" lon="116.4224208">
    <tag k="name" v="宋家庄"/>
    <tag k="name:en" v="Songjiazhuang"/>
    <tag k="name:zh" v="宋家庄"/>
    <tag k="name:zh_pinyin" v="Sòngjiāzhuāng"/>
    <tag k="public_transport" v="stop_position"/>
    <tag k="railway" v="station"/>
    <tag k="subway" v="yes"/>
  </node>
  <node id="2111812192" lat="39.8447794" lon="116.4224245">
    <tag k="name" v="宋家庄"/>
    <tag k="name:en" v="Songjiazhuang"/>
    <tag k="name:zh" v="宋家庄"/>
    <tag k="name:zh_pinyin" v="Sòngjiāzhuāng"/>
    <tag k="public_transport" v="stop_position"/>
    <tag k="railway" v="station"/>
    <tag k="subway" v="yes"/>
  </node>
  <node id="2112826371" lat="39.9476781" lon="116.0925423">
    <tag k="name" v="门头沟"/>
    <tag k="public_transport" v="stop_position"/>
    <tag k="railway" v="station"/>
  </node>
  <node id="2112867309" lat="39.9924390" lon="116.0900375">
    <tag k="name" v="军庄"/>
    <tag k="railway" v="station"/>
  </node>
  <node id="2116038111" lat="39.8439256" lon="116.3922645">
    <tag k="name" v="大红门"/>
    <tag k="name:en" v="Dahongmen"/>
    <tag k="name:zh" v="大红门"/>
    <tag k="name:zh_pinyin" v="Dàhóngmén"/>
    <tag k="public_transport" v="stop_position"/>
    <tag k="railway" v="station"/>
    <tag k="subway" v="yes"/>
  </node>
  <node id="2116038112" lat="39.8440725" lon="116.3922580">
    <tag k="name" v="大红门"/>
    <tag k="name:en" v="Dahongmen"/>
    <tag k="name:zh" v="大红门"/>
    <tag k="name:zh_pinyin" v="Dàhóngmén"/>
    <tag k="public_transport" v="stop_position"/>
    <tag k="railway" v="station"/>
    <tag k="subway" v="yes"/>
  </node>
  <node id="2116038113" lat="39.8437611" lon="116.3789123">
    <tag k="name" v="角门东"/>
    <tag k="name:en" v="Jiaomen East"/>
    <tag k="name:zh" v="角门东"/>
    <tag k="name:zh_pinyin" v="Jiăoméndōng"/>
    <tag k="note" v="Not open yet (01-2013)"/>
    <tag k="public_transport" v="stop_position"/>
    <tag k="railway" v="station"/>
    <tag k="subway" v="yes"/>
  </node>
  <node id="2116038114" lat="39.8438855" lon="116.3789282">
    <tag k="name" v="角门东"/>
    <tag k="name:en" v="Jiaomen East"/>
    <tag k="name:zh" v="角门东"/>
    <tag k="name:zh_pinyin" v="Jiăoméndōng"/>
    <tag k="note" v="Not open yet (01-2013)"/>
    <tag k="public_transport" v="stop_position"/>
    <tag k="railway" v="station"/>
    <tag k="subway" v="yes"/>
  </node>
  <node id="2116038115" lat="39.8443872" lon="116.3650357">
    <tag k="name" v="角门西"/>
    <tag k="name:en" v="Jiaomen West"/>
    <tag k="name:zh" v="角门西"/>
    <tag k="name:zh_pinyin" v="Jiăomén Xī"/>
    <tag k="public_transport" v="stop_position"/>
    <tag k="railway" v="station"/>
    <tag k="subway" v="yes"/>
  </node>
  <node id="2116038116" lat="39.8445134" lon="116.3650382">
    <tag k="name" v="角门西"/>
    <tag k="name:en" v="Jiaomen West"/>
    <tag k="name:zh" v="角门西"/>
    <tag k="name:zh_pinyin" v="Jiăomén Xī"/>
    <tag k="public_transport" v="stop_position"/>
    <tag k="railway" v="station"/>
    <tag k="subway" v="yes"/>
  </node>
  <node id="2117226283" lat="39.8445207" lon="116.3454126">
    <tag k="name" v="草桥"/>
    <tag k="name:en" v="Caoqiao"/>
    <tag k="name:zh" v="草桥"/>
    <tag k="name:zh_pinyin" v="Căoqiáo"/>
    <tag k="public_transport" v="stop_position"/>
    <tag k="railway" v="station"/>
    <tag k="subway" v="yes"/>
  </node>
  <node id="2117226291" lat="39.8446423" lon="116.3454126">
    <tag k="name" v="草桥"/>
    <tag k="name:en" v="Caoqiao"/>
    <tag k="name:zh" v="草桥"/>
    <tag k="name:zh_pinyin" v="Căoqiáo"/>
    <tag k="public_transport" v="stop_position"/>
    <tag k="railway" v="station"/>
    <tag k="subway" v="yes"/>
  </node>
  <node id="2117226301" lat="39.8430916" lon="116.3273521">
    <tag k="name" v="纪家庙"/>
    <tag k="name:en" v="Jijiaomiao"/>
    <tag k="name:zh" v="纪家庙"/>
    <tag k="name:zh_pinyin" v="Jìjiāmiào"/>
    <tag k="public_transport" v="stop_position"/>
    <tag k="railway" v="station"/>
    <tag k="subway" v="yes"/>
  </node>
  <node id="2117226309" lat="39.8432146" lon="116.3273549">
    <tag k="name" v="纪家庙"/>
    <tag k="name:en" v="Jijiaomiao"/>
    <tag k="name:zh" v="纪家庙"/>
    <tag k="name:zh_pinyin" v="Jìjiāmiào"/>
    <tag k="public_transport" v="stop_position"/>
    <tag k="railway" v="station"/>
    <tag k="subway" v="yes"/>
  </node>
  <node id="2117226327" lat="39.8431492" lon="116.3119800">
    <tag k="name" v="首经贸"/>
    <tag k="name:en" v="Shoujingmao"/>
    <tag k="name:zh" v="首经贸"/>
    <tag k="name:zh_pinyin" v="Shŏujīngmào"/>
    <tag k="public_transport" v="stop_position"/>
    <tag k="railway" v="station"/>
    <tag k="subway" v="yes"/>
  </node>
  <node id="2117226332" lat="39.8432991" lon="116.3119840">
    <tag k="name" v="首经贸"/>
    <tag k="name:en" v="Shoujingmao"/>
    <tag k="name:zh" v="首经贸"/>
    <tag k="name:zh_pinyin" v="Shŏujīngmào"/>
    <tag k="public_transport" v="stop_position"/>
    <tag k="railway" v="station"/>
    <tag k="subway" v="yes"/>
  </node>
  <node id="2351141827" lat="39.7196362" lon="116.3254021">
    <tag k="name" v="黄村"/>
    <tag k="railway" v="station"/>
  </node>

</osm>